ID,Business Name,Trade Name,Sidewalk Cafe Type,License Number,Full Address,Address Building,Address Street Name,City,State,ZIP Code,Borough,Address Location,Phone Number,Lic Area Sq Ft
1,1 & 3 ON 5TH CORP,FABIANE'S CAFE & PASTRY,Unenclosed Sidewalk Cafe,1120483,"142 NORTH    5 STREET, BROOKLYN, NY 11211",142,NORTH    5 STREET,BROOKLYN,NY,11211,Brooklyn,,(718) 218-9632,266
2,103 GW12 LLC,MONUMENT LANE,Unenclosed Sidewalk Cafe,1420085,"103 GREENWICH AVE, NEW YORK, NY 10014",103,GREENWICH AVE,NEW YORK,NY,10014,Manhattan,,(212) 255-0155,180
3,108 BAGEL CORP,BOARDWALK BAGEL,Unenclosed Sidewalk Cafe,1252802,"108-01 ROCKAWAY BEACH BLVD, QUEENS, NY 11694",108-01,ROCKAWAY BEACH BLVD,QUEENS,NY,11694,Queens,,(516) 641-9126,137
4,109 WEST BROADWAY FOOD & WINE LLC,109 WEST BROADWAY,Enclosed Sidewalk Cafe,1377538,"109 W BROADWAY, NEW YORK, NY 10013",109,W BROADWAY,NEW YORK,NY,10013,Manhattan,,(212) 513-1988,515
5,10TH AVENUE GROUP INC,44&X-HELLS KITCHEN,Unenclosed Sidewalk Cafe,1071297,"622 10 AVENUE, NEW YORK, NY 10036",622,  10 AVENUE,NEW YORK,NY,10036,Manhattan,,(212) 977-1170,517
6,110 VARICK ST CORP.,AMELIA'S RESTAURANT COFFEE SHOP,Unenclosed Sidewalk Cafe,1312498,"110 VARICK STREET, NEW YORK, NY 10013",110,VARICK STREET,NEW YORK,NY,10013,Manhattan,,(212) 925-5998,188
7,112 FRENCH INC,LE MONDE,Unenclosed Sidewalk Cafe,1001063,"2883 BROADWAY, NEW YORK, NY 10025",2883,BROADWAY,NEW YORK,NY,10025,Manhattan,,(212) 531-3939,741
8,112 RESTAURANT CORP.,BUILDING ON BOND,Unenclosed Sidewalk Cafe,1323228,"112 BOND STREET, BROOKLYN, NY 11217",112,BOND STREET,BROOKLYN,NY,11217,Brooklyn,,(718) 852-0301,153
9,114 KENMARE ASSOCIATES LLC,LA ESQUINA,Unenclosed Sidewalk Cafe,1227042,"114 KENMARE ST, NEW YORK, NY 10012",114,KENMARE ST,NEW YORK,NY,10012,Manhattan,,(646) 613-7100,337
10,117 W. ENT CORP,ANGELO'S PIZZERIA,Unenclosed Sidewalk Cafe,1429757,"117 W 57TH ST, NEW YORK, NY 10019",117,W 57TH ST,NEW YORK,NY,10019,Manhattan,,(212) 333-1333,91
11,"119 7TH AVEUNE CAFETERIA, LLC",CAFETERIA,Unenclosed Sidewalk Cafe,1000225,"119 7 AVENUE, NEW YORK, NY 10011",119,   7 AVENUE,NEW YORK,NY,10011,Manhattan,,(212) 414-1717,470
12,12 FIRST AVENUE RESTAURANT CORP,,Unenclosed Sidewalk Cafe,1352781,"12 1 AVENUE, NEW YORK, NY 10009",12,   1 AVENUE,NEW YORK,NY,10009,Manhattan,,(212) 598-9126,307
13,120 U REST. LLC,TORTARIA,Enclosed Sidewalk Cafe,1412892,"94 UNIVERSITY PL, NEW YORK, NY 10003",94,UNIVERSITY PL,NEW YORK,NY,10003,Manhattan,,(212) 243-8517,292
14,1207 AMSTERDAM CORP,AMSTERDAM CAFE,Unenclosed Sidewalk Cafe,1172172,"1207 AMSTERDAM AVE, NEW YORK, NY 10027",1207,AMSTERDAM AVE,NEW YORK,NY,10027,Manhattan,,(212) 662-6330,324
15,1226 SECOND AVENUE REALTY CORP.,,Unenclosed Sidewalk Cafe,1167555,"1226 2ND AVE, NEW YORK, NY 10065",1226,2ND AVE,NEW YORK,NY,10065,Manhattan,,(212) 758-1775,183
16,1236 SECOND AVENUE REST. CORP.,SILVER STAR RESTAURANT,Enclosed Sidewalk Cafe,1028755,"1236 2 AVENUE, NEW YORK, NY 10065",1236,   2 AVENUE,NEW YORK,NY,10065,Manhattan,,(212) 249-4250,645
17,1262 AMSTERDAM CAFE INC,MAX CAFFE,Unenclosed Sidewalk Cafe,1133124,"1262 AMSTERDAM AVE, NEW YORK, NY 10027",1262,AMSTERDAM AVE,NEW YORK,NY,10027,Manhattan,,(212) 288-2937,193
18,1274 AMSTERDAM TRATTORIA INC,MAX SOHA,Unenclosed Sidewalk Cafe,1073015,"1274 AMSTERDAM AVENUE, NEW YORK, NY 10027",1274,AMSTERDAM AVENUE,NEW YORK,NY,10027,Manhattan,,(212) 288-2937,314
19,1291 PUB INC.,,Unenclosed Sidewalk Cafe,954466,"1291 THIRD AVENUE, NEW YORK, NY 10021",1291,THIRD AVENUE,NEW YORK,NY,10021,Manhattan,,(212) 744-0585,175
20,1326 RESTAURANT LLC,BEACH CAFE,Unenclosed Sidewalk Cafe,1217877,"1326 SECOND AVENUE, NEW YORK, NY 10021",1326,SECOND AVENUE,NEW YORK,NY,10021,Manhattan,,(212) 988-7299,429
21,"133 MULBERRY STREET RESTAURANT, LLC",SPQR,Unenclosed Sidewalk Cafe,1313474,"133 MULBERRY STREET, NEW YORK, NY 10013",133,MULBERRY STREET,NEW YORK,NY,10013,Manhattan,,(212) 925-3120,266
22,"1337 THIRD AVENUE, LLC",ATLANTIC GRILL,Unenclosed Sidewalk Cafe,979320,"1337 3 AVENUE, NEW YORK, NY 10075",1337,   3 AVENUE,NEW YORK,NY,10075,Manhattan,,(212) 988-9200,370
23,"135 STUDIO N ADR, INC.",JULIETTE,Unenclosed Sidewalk Cafe,1378763,"135 N 5TH ST, BROOKLYN, NY 11249",135,N 5TH ST,BROOKLYN,NY,11249,Brooklyn,,(646) 373-5149,124
24,"135 WEST B FOOD & DRINK, LLC",TINY'S AND THE BAR UPSTAIRS,Unenclosed Sidewalk Cafe,1421014,"135 W BROADWAY, NEW YORK, NY 10013",135,W BROADWAY,NEW YORK,NY,10013,Manhattan,,(212) 300-7942,112
25,136 WEST BROADWAY INC.,EDWARD'S,Unenclosed Sidewalk Cafe,945762,"136 WEST BROADWAY, NEW YORK, NY 10013",136,WEST BROADWAY,NEW YORK,NY,10013,Manhattan,,(212) 233-6436,96
26,13TH STREET ENTERTAINMENT LLC,BRASSERIE BEAUMARCHAIS,Unenclosed Sidewalk Cafe,1324561,"409 WEST   13 STREET, NEW YORK, NY 10014",409,WEST   13 STREET,NEW YORK,NY,10014,Manhattan,,(212) 255-1933,204
27,1431 FIRST AVENUE CORP,NUMERO 28,Unenclosed Sidewalk Cafe,1420358,"1431 1ST AVE, NEW YORK, NY 10021",1431,   1ST AVE,NEW YORK,NY,10021,Manhattan,,(917) 865-9278,180
28,"1431 RESTAURANT, INC.",ZUCCHERO E POMODON,Unenclosed Sidewalk Cafe,1232028,"1435 SECOND AVENUE, NEW YORK, NY 10021",1435,SECOND AVENUE,NEW YORK,NY,10021,Manhattan,,(212) 585-2100,114
29,1465 3RD AVE. REST. CORP.,GAEL PUB,Unenclosed Sidewalk Cafe,1223078,"1465 3RD AVE, NEW YORK, NY 10028",1465,3RD AVE,NEW YORK,NY,10028,Manhattan,,(914) 632-6036,87
30,"1475 SECOND AVENUE BAGEL, LLC",,Unenclosed Sidewalk Cafe,1381059,"1475 2 AVENUE, NEW YORK, NY 10075",1475,   2 AVENUE,NEW YORK,NY,10075,Manhattan,,(212) 717-4668,164
31,1483 FIRST AVENUE RESTAURANT INC.,MARUZZELLA,Unenclosed Sidewalk Cafe,1002419,"1483 1ST AVE, NEW YORK, NY 10075",1483,1ST AVE,NEW YORK,NY,10075,Manhattan,,(212) 988-8877,84
32,149 BROADWAY RESTAURANT LLC,DRESSLER,Unenclosed Sidewalk Cafe,1282383,"149 BROADWAY, BROOKLYN, NY 11211",149,BROADWAY,BROOKLYN,NY,11211,Brooklyn,,(718) 384-6343,135
33,149 SECOND AVE. REST. INC,THE 13TH STEP,Unenclosed Sidewalk Cafe,1355808,"149 2ND AVE, NEW YORK, NY 10003",149, 2ND AVE,NEW YORK,NY,10003,Manhattan,,(212) 228-8020,215
34,1490 REST. INC.,WATSON'S,Unenclosed Sidewalk Cafe,952606,"1490 SECOND AVENUE, NEW YORK, NY 10075",1490,SECOND AVENUE,NEW YORK,NY,10075,Manhattan,,(212) 676-4817,113
35,151 BLEECKER LLC,RED LION,Unenclosed Sidewalk Cafe,1348223,"151 BLEECKER STREET, NEW YORK, NY 10012",151,BLEECKER STREET,NEW YORK,NY,10012,Manhattan,,(212) 260-9797,242
36,151 BLEECKER LLC,THE RED LION,Enclosed Sidewalk Cafe,1348216,"151 BLEECKER ST, NEW YORK, NY 10012",151,BLEECKER ST,NEW YORK,NY,10012,Manhattan,,(212) 260-9797,172
37,151 MULBERRY ST CORP,IL PALAZZO,Unenclosed Sidewalk Cafe,1343752,"151 MULBERRY ST, NEW YORK, NY 10013",151,MULBERRY ST,NEW YORK,NY,10013,Manhattan,,(212) 343-7000,82
38,151 SECOND AVE. REST. INC.,RYAN'S IRISH PUB,Unenclosed Sidewalk Cafe,895599,"151 2 AVENUE, NEW YORK, NY 10003",151,   2 AVENUE,NEW YORK,NY,10003,Manhattan,,(212) 979-9511,260
39,156 SEVENTH AVE GROUP LLC,ELMO,Unenclosed Sidewalk Cafe,1127935,"156 7TH AVE, NEW YORK, NY 10011",156,7TH AVE,NEW YORK,NY,10011,Manhattan,,(212) 337-8000,270
40,156 TENTH AVENUE RESTAURANT LLC,10TH AVENUE COOKSHOP,Unenclosed Sidewalk Cafe,1224204,"156 10TH AVE, NEW YORK, NY 10011",156,10TH AVE,NEW YORK,NY,10011,Manhattan,AKA 460 WEST 20TH STREET,(212) 924-4440,506
41,157 BRICK OVEN LLC,,Unenclosed Sidewalk Cafe,1382523,"157 2 AVENUE, NEW YORK, NY 10003",157,   2 AVENUE,NEW YORK,NY,10003,Manhattan,,(212) 375-9555,173
42,"160 BISTRO, INC.",LE SINGE VERT,Unenclosed Sidewalk Cafe,1104424,"160 7 AVENUE, NY, NY 10011",160,   7 AVENUE,NY,NY,10011,Manhattan,,(212) 366-4100,249
43,1616 SECOND AVENUE RESTAURANT INC,DORRIAN'S RED HAND  E/S/C #217,Enclosed Sidewalk Cafe,571720,"1616 2 AVENUE, NEW YORK, NY 10028",1616,   2 AVENUE,NEW YORK,NY,10028,Manhattan,,(212) 772-6660,435
44,164 MULBERRY ST. CORP,DA NICO RESTAURANT,Unenclosed Sidewalk Cafe,949447,"164 MULBERRY STREET, NEW YORK, NY 10013",164,MULBERRY STREET,NEW YORK,NY,10013,Manhattan,,(212) 343-1212,113
45,1650 BROADWAY ASSOCIATES INC.,ELLEN'S STARBUST DINER,Unenclosed Sidewalk Cafe,1257707,"1650 BROADWAY, NEW YORK, NY 10019",1650,BROADWAY,NEW YORK,NY,10019,Manhattan,,(212) 582-0161,110
46,"168 ORCHARD ST PARTNERS, INC.",HAIR OF THE DOG,Unenclosed Sidewalk Cafe,1414794,"168 ORCHARD STREET, NEW YORK, NY 10002",168,ORCHARD STREET,NEW YORK,NY,10002,Manhattan,,(212) 477-7771,366
47,16TH STREET BBQ LLC,BROTHER JIMMYS BBQ,Unenclosed Sidewalk Cafe,1349442,"114-116 E 16TH ST, NEW YORK, NY 10003",114-116,E 16TH ST,NEW YORK,NY,10003,Manhattan,,(212) 244-3502,122
48,170 BEDFORD RESTAURANT LLC,THE MEATBALL SHOP,Unenclosed Sidewalk Cafe,1385278,"170 BEDFORD AVENUE, BROOKLYN, NY 11211",170,BEDFORD AVENUE,BROOKLYN,NY,11211,Brooklyn,,(917) 640-8008,52
49,1702 RATHBONES INC.,RATHBONES,Unenclosed Sidewalk Cafe,1310255,"1702 2 AVENUE, NEW YORK, NY 10128",1702,   2 AVENUE,NEW YORK,NY,10128,Manhattan,,(212) 208-7272,224
50,1710 RESTAURANT CORP.,CARINO RISTORANTE & CAFE,Unenclosed Sidewalk Cafe,1389825,"1710 2 AVENUE, NEW YORK, NY 10128",1710,   2 AVENUE,NEW YORK,NY,10128,Manhattan,,(917) 864-6683,70
51,"172 BLEEKER ST. REST., INC",CAFE ESPANOL,Unenclosed Sidewalk Cafe,920629,"172 BLEECKER STREET, NEW YORK, NY 10012",172,BLEECKER STREET,NEW YORK,NY,10012,Manhattan,,(212) 505-0657,84
52,"172 BLEEKER ST. REST., INC",CAFE ESPANOL,Unenclosed Sidewalk Cafe,1080119,"190 SULLIVAN STREET, NEW YORK, NY 10012",190,SULLIVAN STREET,NEW YORK,NY,10012,Manhattan,,(212) 505-0657,89
53,174 BEDFORD AVENUE BAR LLC,CHARLESTON,Unenclosed Sidewalk Cafe,1259219,"174 BEDFORD AVENUE, BROOKLYN, NY 11211",174,BEDFORD AVENUE,BROOKLYN,NY,11211,Brooklyn,,(718) 599-9199,177
54,174 GRAND STREET CORP.,ONIEAL'S,Unenclosed Sidewalk Cafe,1218544,"174 GRAND ST, NEW YORK, NY 10013",174,GRAND ST,NEW YORK,NY,10013,Manhattan,,(212) 941-9119,126
55,177 CHRYSTIE INC,ESPERANTO,Unenclosed Sidewalk Cafe,1034831,"145 AVENUE C, NEW YORK, NY 10009",145,AVENUE C,NEW YORK,NY,10009,Manhattan,,(212) 505-6559,501
56,179 THIRD AVENUE REST. INC,MUMBLES,Unenclosed Sidewalk Cafe,1299328,"179 3RD AVE, NEW YORK, NY 10003",179,3RD AVE,NEW YORK,NY,10003,Manhattan,200 EAST 17 STREET,(212) 477-6066,363
57,18 BEDFORD AVE LLC,FIVE LEAVES,Unenclosed Sidewalk Cafe,1309076,"18 BEDFORD AVENUE, BROOKLYN, NY 11222",18,BEDFORD AVENUE,BROOKLYN,NY,11222,Brooklyn,,(646) 510-6467,319
58,"183 CONDECHI ASSOCIATES, LLC",CAFE CONDESA,Unenclosed Sidewalk Cafe,1390265,"183 W 10TH ST, NEW YORK, NY 10014",183,W 10TH ST,NEW YORK,NY,10014,Manhattan,,(212) 352-0050,75
59,184 3RD AVENUE RESTAURANT CORP.,GRAMERCY CAFE,Enclosed Sidewalk Cafe,928548,"184 3RD AVE, NEW YORK, NY 10003",184,  3RD AVE,NEW YORK,NY,10003,Manhattan,,(718) 567-2990,418
60,187 RESTAURANT CORP,REFRIED BEANS MEXICAN GRILL,Unenclosed Sidewalk Cafe,1387916,"591 FORT WASHINGTON AVE, NEW YORK, NY 10033",591,FORT WASHINGTON AVE,NEW YORK,NY,10033,Manhattan,,(212) 568-2299,181
61,188 AVE A TAKE OUT FOOD CORP.,,Unenclosed Sidewalk Cafe,1343042,"188 AVE A, NEW YORK, NY 10009",188,AVE A,NEW YORK,NY,10009,Manhattan,,(917) 690-4720,286
62,191 GRAND RESTAURANT CORP.,NOVELLA,Unenclosed Sidewalk Cafe,1213603,"191 GRAND ST, NEW YORK, NY 10013",191,GRAND ST,NEW YORK,NY,10013,Manhattan,,(212) 343-1212,371
63,200 EAST 81ST RESTAURANT CORP.,BEYOGLU,Unenclosed Sidewalk Cafe,890521,"1431 THIRD AVENUE, NEW YORK, NY 10028",1431,THIRD AVENUE,NEW YORK,NY,10028,Manhattan,A/K/A 200 EAST 81 STREET,(212) 650-0850,253
64,2005 MAMBO SUSHI CORP,,Unenclosed Sidewalk Cafe,1309505,"2005 EMMONS AVENUE, BROOKLYN, NY 11235",2005,EMMONS AVENUE,BROOKLYN,NY,11235,Brooklyn,,(718) 646-3100,199
65,201 REST. 95TH ST. CORP,BUCEO 95,Unenclosed Sidewalk Cafe,1282774,"201 W 95TH ST, NEW YORK, NY 10025",201,W 95TH ST,NEW YORK,NY,10025,Manhattan,,(646) 249-6822,146
66,201 WEST 103 CORP,BUCA,Unenclosed Sidewalk Cafe,1380748,"203 W 103RD ST, NEW YORK, NY 10025",203,W 103RD ST,NEW YORK,NY,10025,Manhattan,,(917) 225-3271,90
67,205 EAST 75TH STREET LLC,FULTON,Unenclosed Sidewalk Cafe,1227438,"205 E 75TH ST, NEW YORK, NY 10021",205,E 75TH ST,NEW YORK,NY,10021,Manhattan,,(212) 227-1700,310
68,206 7TH AVE CORP,SALSA Y SALSA MEXICAN KITCHEN,Unenclosed Sidewalk Cafe,1135504,"206 7 AVENUE, NEW YORK, NY 10011",206,   7 AVENUE,NEW YORK,NY,10011,Manhattan,,(212) 929-2678,91
69,207 WEST RESTAURANT CORP,YUMMY THAI,Unenclosed Sidewalk Cafe,1418705,"4959 BROADWAY, NEW YORK, NY 10034",4959,BROADWAY,NEW YORK,NY,10034,Manhattan,,(917) 529-0811,200
70,210 SMITH STREET CORP.,CLOVER CLUB,Unenclosed Sidewalk Cafe,1357820,"210 SMITH STREET, BROOKLYN, NY 11201",210,SMITH STREET,BROOKLYN,NY,11201,Brooklyn,,(718) 855-7939,57
71,211 AVE A RESTAURANT INC.,SHOOLBRED'S,Unenclosed Sidewalk Cafe,1278271,"197 2 AVENUE, NEW YORK, NY 10003",197,   2 AVENUE,NEW YORK,NY,10003,Manhattan,,(917) 969-3440,136
72,"212 LAFAYETTE ASSOCIATES,LLC",CAFE SELECT,Unenclosed Sidewalk Cafe,1349707,"212 LAFAYETTE STREET, NEW YORK, NY 10012",212,LAFAYETTE STREET,NEW YORK,NY,10012,Manhattan,,(212) 925-9322,84
73,22 EAST 54TH STREET RESTAURANT CORP.,PAPILLON,Unenclosed Sidewalk Cafe,1248652,"22 EAST   54 STREET, NEW YORK, NY 10022",22,EAST   54 STREET,NEW YORK,NY,10022,Manhattan,,(212) 754-9006,140
74,"225 PAS 18TH, LLC",KIBO,Enclosed Sidewalk Cafe,1408187,"225 PARK AVENUE SOUTH, NEW YORK, NY 10003",225,PARK AVENUE SOUTH,NEW YORK,NY,10003,Manhattan,AKA 111 EAST 18TH STREET,(212) 824-2770,370
75,237 BEDFORD AVENUE RESTAURANT CORP.,LA NONNA PIZZERIA/TRATTORIA,Unenclosed Sidewalk Cafe,1283821,"237 BEDFORD AVE, BROOKLYN, NY 11211",237,BEDFORD AVE,BROOKLYN,NY,11211,Brooklyn,,(718) 302-5353,63
76,23RD & 9TH RESTAURANT CORP,,Enclosed Sidewalk Cafe,1141700,"368 WEST   23 STREET, NEW YORK, NY 10011",368,WEST   23 STREET,NEW YORK,NY,10011,Manhattan,,(212) 691-5400,692
77,241 BOWERY CORP,THE BOWERY DINER,Unenclosed Sidewalk Cafe,1429312,"241 BOWERY, NEW YORK, NY 10002",241,BOWERY,NEW YORK,NY,10002,Manhattan,,(212) 388-052,112
78,241 W B WAY CAFE INC,CERCLE ROUGE,Unenclosed Sidewalk Cafe,1194473,"241 WEST BROADWAY, NEW YORK, NY 10013",241,WEST BROADWAY,NEW YORK,NY,10013,Manhattan,,(212) 226-6156,209
79,243 DEKALB AVE. REST. CORP.,,Unenclosed Sidewalk Cafe,1247610,"243 DEKALB AVENUE, BROOKLYN, NY 11205",243,DEKALB AVENUE,BROOKLYN,NY,11205,Brooklyn,,(718) 622-5300,112
80,247 CAFE INC.,BROOKLYN PUBLIC HOUSE,Unenclosed Sidewalk Cafe,1308287,"247 DEKALB AVENUE, BROOKLYN, NY 11205",247,DEKALB AVENUE,BROOKLYN,NY,11205,Brooklyn,,(631) 424-8480,99
81,247 DELI LLC,DELICATESSEN,Unenclosed Sidewalk Cafe,1248648,"265 LAFAYETTE STREET, NEW YORK, NY 10012",265,LAFAYETTE STREET,NEW YORK,NY,10012,Manhattan,A/K/A 54 PRINCE STREET,(212) 226-0211,380
82,"26TH STREET HOSPITALITY GROUP, LLC",BREAD & TULIPS,Unenclosed Sidewalk Cafe,1419312,"365 PARK AVE S, NEW YORK, NY 10016",365,PARK AVE S,NEW YORK,NY,10016,Manhattan,,(212) 532-9100,201
83,27-39 EAST 30 REST. CORP,THE CROOKED KNIFE,Unenclosed Sidewalk Cafe,1249286,"27-29 EAST   30 STREET, NEW YORK, NY 10016",27-29,EAST   30 STREET,NEW YORK,NY,10016,Manhattan,,(646) 359-7372,176
84,276 COLUMBUS INC.,ARTE AROUND THE CORNER,Unenclosed Sidewalk Cafe,1260284,"270-276 COLUMBUS AVE, NEW YORK, NY 10023",270-276,COLUMBUS AVE,NEW YORK,NY,10023,Manhattan,,(212) 875-2195,190
85,2799 BROADWAY GROCERY LLC,CASCABEL TAQUERIA,Unenclosed Sidewalk Cafe,1394145,"2799 BROADWAY, NEW YORK, NY 10025",2799,BROADWAY,NEW YORK,NY,10025,Manhattan,,(212) 665-1500,392
86,283 SMITH STREET FOOD CORP,ZAYTOONS,Unenclosed Sidewalk Cafe,1036208,"283 SMITH ST, BROOKLYN, NY 11231",283,SMITH ST,BROOKLYN,NY,11231,Brooklyn,,(718) 875-1880,212
87,2850 BROADWAY REST ASSOCIATES LLC,,Unenclosed Sidewalk Cafe,1348335,"2850 BROADWAY, NEW YORK, NY 10025",2850,BROADWAY,NEW YORK,NY,10025,Manhattan,,(917) 882-6525,168
88,2888 BROADWAY LLC,IL EIBREO,Unenclosed Sidewalk Cafe,1280168,"2888 BROADWAY, NEW YORK, NY 10025",2888,BROADWAY,NEW YORK,NY,10025,Manhattan,,(212) 864-1143,212
89,2896 BROADWAY FOOD SERVICE INC.,COMMUNITY FOOD AND JUICE,Unenclosed Sidewalk Cafe,1314421,"2893 BROADWAY, NEW YORK, NY 10025",2893,BROADWAY,NEW YORK,NY,10025,Manhattan,,(212) 665-2800,500
90,2898 BAGEL & BAKERY CORP,NUSBAUM & WU BAKERY,Unenclosed Sidewalk Cafe,991109,"2897 BROADWAY, NY, NY 10025",2897,BROADWAY,NY,NY,10025,Manhattan,,(212) 280-5344,381
91,3 IN 1 KITCHEN CORP.,,Enclosed Sidewalk Cafe,1361524,"4902 FORT HAMILTON PKWY, BROOKLYN, NY 11219",4902,FORT HAMILTON PKWY,BROOKLYN,NY,11219,Brooklyn,,(718) 437-7744,191
92,3 VASILOPOULOS INC,MEGA BITES DINER,Unenclosed Sidewalk Cafe,1381800,"245 DEKALB AVENUE, BROOKLYN, NY 11205",245,DEKALB AVENUE,BROOKLYN,NY,11205,Brooklyn,,(718) 398-8112,101
93,30 E 30 ZANA INC,,Unenclosed Sidewalk Cafe,1161546,"30 EAST   30 STREET, NEW YORK, NY 10016",30,EAST   30 STREET,NEW YORK,NY,10016,Manhattan,,(212) 481-3717,127
94,"300 WEST 46TH STREET, CORP",BRASSERIE ATHENEE,Unenclosed Sidewalk Cafe,1346488,"300 W 46TH ST, NEW YORK, NY 10036",300,W 46TH ST,NEW YORK,NY,10036,Manhattan,,(212) 399-1100,105
95,301 E. 47TH ST. REST. CORP.,NINO'S POSITANO,Unenclosed Sidewalk Cafe,1242405,"888-890 SECOND AVENUE, NEW YORK, NY 10017",888-890,SECOND AVENUE,NEW YORK,NY,10017,Manhattan,,(212) 355-5540,373
96,301 EAST 80TH GROCERY LLC,,Unenclosed Sidewalk Cafe,1380690,"1538 2 AVENUE, NEW YORK, NY 10028",1538,   2 AVENUE,NEW YORK,NY,10028,Manhattan,,(212) 717-8226,340
97,307 THIRD AVENUE EAST VENTURE LLC,TAPROOM 307,Unenclosed Sidewalk Cafe,1417471,"307 3RD AVE, NEW YORK, NY 10010",307, 3RD AVE,NEW YORK,NY,10010,Manhattan,,(212) 725-4766,97
98,31 GREAT JONES RESTAURANT CORP.,FIVE POINTS,Unenclosed Sidewalk Cafe,1034252,"31 GREAT JONES ST, NEW YORK, NY 10012",31,GREAT JONES ST,NEW YORK,NY,10012,Manhattan,,(212) 253-5700,225
99,316 BOWERY LLC,,Unenclosed Sidewalk Cafe,1281748,"316 BOWERY, NEW YORK, NY 10012",316,BOWERY,NEW YORK,NY,10012,Manhattan,,(212) 343-7017,400
100,317 AMSTERDAM CORP,TOLANI,Unenclosed Sidewalk Cafe,1165276,"410 AMSTERDAM AVE, NEW YORK, NY 10024",410,AMSTERDAM AVE,NEW YORK,NY,10024,Manhattan,,(212) 873-6252,178
101,31ST STREET PIZZA PALACE INC,PIZZA PALACE,Enclosed Sidewalk Cafe,1103894,"29-29 DITMARS BOULEVARD, ASTORIA, NY 11105",29-29,DITMARS BOULEVARD,ASTORIA,NY,11105,Queens,,(718) 728-1060,341
102,"320 COLUMBUS AVE.,INC",MUGHLAI INDIAN CUISINE,Enclosed Sidewalk Cafe,738544,"320 COLUMBUS AVE, NEW YORK, NY 10023",320,COLUMBUS AVE,NEW YORK,NY,10023,Manhattan,,(212) 724-0419,298
103,325 BOWERY RESTAURANT LLC,PEELS RESTAURANT,Unenclosed Sidewalk Cafe,1385809,"325 BOWERY, NEW YORK, NY 10003",325,BOWERY,NEW YORK,NY,10003,Manhattan,,(212) 932-7566,573
104,325 CHURCH ST. COMPANY LLC,SALUGGI'S,Unenclosed Sidewalk Cafe,1349597,"325 CHURCH ST, NEW YORK, NY 10013",325,CHURCH ST,NEW YORK,NY,10013,Manhattan,,(212) 238-0015,56
105,33-01 BROADWAY CORP.,TIERRAS COLOMBIANAS II,Enclosed Sidewalk Cafe,916981,"33-01 BROADWAY, ASTORIA, NY 11106",33-01,BROADWAY,ASTORIA,NY,11106,Queens,,(718) 956-3012,720
106,3321 ASTORIA INC,BARE BURGER,Unenclosed Sidewalk Cafe,1327665,"33-21 31 AVENUE, ASTORIA, NY 11106",33-21,  31 AVENUE,ASTORIA,NY,11106,Queens,,(212) 566-6002,363
107,333 LAFAYETTE LLC,PINCHE TAQUERIA,Unenclosed Sidewalk Cafe,1347971,"333 LAFAYETTE STREET, NEW YORK, NY 10012",333,LAFAYETTE STREET,NEW YORK,NY,10012,Manhattan,,(212) 343-9977,334
108,343 BROOME STREET RESTAURANT INC,RANDOLPH BEER,Unenclosed Sidewalk Cafe,1426393,"343 BROOME ST, NEW YORK, NY 10013",343,BROOME ST,NEW YORK,NY,10013,Manhattan,,(917) 653-0633,132
109,345 COURT ST CORP,MARCO POLO REST     E/S/C #508,Enclosed Sidewalk Cafe,789922,"345 COURT ST, BROOKLYN, NY 11231",345,COURT ST,BROOKLYN,NY,11231,Brooklyn,,(718) 852-5015,420
110,345 COURT ST. CORP,MARCO POLO RISTORANTE,Unenclosed Sidewalk Cafe,1422815,"345 COURT ST, BROOKLYN, NY 11231",345,COURT ST,BROOKLYN,NY,11231,Brooklyn,,(718) 852-5015,252
111,348 WYTHE MANAGEMENT LLC,ISA,Unenclosed Sidewalk Cafe,1427399,"348 WYTHE AVE, BROOKLYN, NY 11211",348,WYTHE AVE,BROOKLYN,NY,11211,Brooklyn,,(917) 856-3091,347
112,352 EAST 86TH STREET RESTAURANT INC.,GRACIE'S CORNER,Enclosed Sidewalk Cafe,737570,"352 E 86TH ST, NEW YORK, NY 10028",352,E 86TH ST,NEW YORK,NY,10028,Manhattan,,(212) 737-8505,201
113,352 EAST 86TH STREET RESTAURANT INC.,GRACIE'S CORNER,Unenclosed Sidewalk Cafe,1408347,"352 EAST   86 STREET, NEW YORK, NY 10028",352,EAST   86 STREET,NEW YORK,NY,10028,Manhattan,,(212) 737-8505,196
114,352 RESTAURANT CORP,MUSTANG HARRY'S,Unenclosed Sidewalk Cafe,1320701,"352 7 AVENUE, NEW YORK, NY 10001",352,   7 AVENUE,NEW YORK,NY,10001,Manhattan,,(212) 268-8930,200
115,356 WEST 44TH ST. RESTAURANT INC.,THE IRISH ROGUE,Unenclosed Sidewalk Cafe,1171118,"356 WEST   44 STREET, NEW YORK, NY 10036",356,WEST   44 STREET,NEW YORK,NY,10036,Manhattan,,(917) 892-2958,69
116,357 HOSPITALITY INC,,Unenclosed Sidewalk Cafe,1387587,"435 AMSTERDAM AVENUE, NEW YORK, NY 10024",435,AMSTERDAM AVENUE,NEW YORK,NY,10024,Manhattan,,(718) 426-4420,473
117,"359 COLUMBUS AVENUE, LLC",ISABELLA'S,Unenclosed Sidewalk Cafe,953473,"359 COLUMBUS AVE, NEW YORK, NY 10024",359,COLUMBUS AVE,NEW YORK,NY,10024,Manhattan,,(212) 724-2100,558
118,3801 BROADWAY RESTAURANT CORP.,LAS MARGARITAS,Unenclosed Sidewalk Cafe,1414518,"38-01 BROADWAY, L.I.C, NY 11103",38-01,BROADWAY,L.I.C,NY,11103,Queens,,(718) 777-1707,369
119,"381 PARK AVENUE SOUTH, LLC",PRIME STEAKHOUSE,Unenclosed Sidewalk Cafe,1259013,"381 PARK AVE S, NEW YORK, NY 10016",381,PARK AVE S,NEW YORK,NY,10016,Manhattan,,(212) 824-2600,410
120,384 3RD AVE REST LLC,ARCTICA,Unenclosed Sidewalk Cafe,1257055,"384 3 AVENUE, NEW YORK, NY 10016",384,   3 AVENUE,NEW YORK,NY,10016,Manhattan,,(914) 632-6036,103
121,384 COLUMBUS AVENUE ASSOCIATES LLC,OCEAN GRILL,Unenclosed Sidewalk Cafe,1190075,"384 COLUMBUS AVENUE, NEW YORK, NY 10024",384,COLUMBUS AVENUE,NEW YORK,NY,10024,Manhattan,,(212) 579-2300,375
122,3RD AVE 26 REST. CORP.,SUNFLOWER DINER,Enclosed Sidewalk Cafe,1297821,"359 3RD AVE, NEW YORK, NY 10016",359,   3RD AVE,NEW YORK,NY,10016,Manhattan,,(646) 526-0252,252
123,"4 RUNNERS, INC",,Unenclosed Sidewalk Cafe,1290477,"310 W 14TH ST, NEW YORK, NY 10014",310,W 14TH ST,NEW YORK,NY,10014,Manhattan,,(212) 463-8626,150
124,40-01 NORTHERN BOULEVARD CORP,TEQUILA SUNRISE,Enclosed Sidewalk Cafe,1275009,"40-01 NORTHERN BOULEVARD, QUEENS, NY 11101",40-01,NORTHERN BOULEVARD,QUEENS,NY,11101,Queens,,(917) 841-6667,1044
125,400 WEST 14TH INC,GASLIGHT,Unenclosed Sidewalk Cafe,1346493,"400 W 14TH ST, NEW YORK, NY 10014",400,W 14TH ST,NEW YORK,NY,10014,Manhattan,,(917) 449-5558,631
126,401 W 50 TAVERN INC.,HIBERNIA,Unenclosed Sidewalk Cafe,1310240,"401 WEST   50 STREET, NEW YORK, NY 10019",401,WEST   50 STREET,NEW YORK,NY,10019,Manhattan,10019,(212) 969-9703,108
127,41-08 REST.CORP.,CHRISTOS STEAK HOUSE,Unenclosed Sidewalk Cafe,1222107,"4108 23RD AVE, QUEENS, NY 11105",4108, 23RD AVE,QUEENS,NY,11105,Queens,,(718) 777-8400,439
128,412 AMSTERDAM CORP.,BETTOLA,Unenclosed Sidewalk Cafe,1158198,"412 AMSTERDAM AVE, NEW YORK, NY 10024",412,AMSTERDAM AVE,NEW YORK,NY,10024,Manhattan,,(212) 362-7400,134
129,419 MYRTLE REST CORP,,Unenclosed Sidewalk Cafe,1391086,"419 MYRTLE AVENUE, BROOKLYN, NY 11205",419,MYRTLE AVENUE,BROOKLYN,NY,11205,Brooklyn,,(917) 412-7110,677
130,42-02 TAVERN INC,,Unenclosed Sidewalk Cafe,1427814,"4202 BROADWAY, ASTORIA, NY 11103",4202,BROADWAY,ASTORIA,NY,11103,Queens,,(718) 606-2777,552
131,425 AMSTERDAM CAFE INC.,MCALEER'S PUB,Unenclosed Sidewalk Cafe,1218074,"425 AMSTERDAM AVE, NEW YORK, NY 10024",425,AMSTERDAM AVE,NEW YORK,NY,10024,Manhattan,,(212) 362-7867,145
132,"43 WEST 24TH ST. REST., LLC.",RAYMI RESTAURANT,Unenclosed Sidewalk Cafe,1433299,"43 W 24TH ST, NEW YORK, NY 10010",43,W 24TH ST,NEW YORK,NY,10010,Manhattan,,(212) 929-1200,234
133,"442 AMSTERDAM REST.,CORP.",THE GIN MILL,Unenclosed Sidewalk Cafe,953744,"442 AMSTERDAM AVE, NEW YORK, NY 10024",442,AMSTERDAM AVE,NEW YORK,NY,10024,Manhattan,,(212) 580-9080,180
134,449 RESTAURANT INC.,MOONSTRUCK DINER,Enclosed Sidewalk Cafe,924875,"449 THIRD AVENUE, NEW YORK, NY 10016",449,THIRD AVENUE,NEW YORK,NY,10016,Manhattan,,(212) 213-1100,516
135,"44TH AND NINTH RESTAURANT, INC.",L'ALLEGRIA,Unenclosed Sidewalk Cafe,1139326,"623 9TH AVE, NEW YORK, NY 10036",623,9TH AVE,NEW YORK,NY,10036,Manhattan,,(212) 265-6777,144
136,451 GRAHAM AVENUE CORP,THE RICHARDSON,Unenclosed Sidewalk Cafe,1314137,"451 GRAHAM AVENUE, BROOKLYN, NY 11222",451,GRAHAM AVENUE,BROOKLYN,NY,11222,Brooklyn,,(718) 389-0839,421
137,46 02 SKILLMAN CAFE LLC,CLARET'S WINE BAR,Unenclosed Sidewalk Cafe,1309963,"46-02 SKILLMAN AVENUE, SUNNYSIDE, NY 11104",46-02,SKILLMAN AVENUE,SUNNYSIDE,NY,11104,Queens,,(718) 791-1501,254
138,480 REST AMSTERDAM INC.,SOLDER MCGEE TAVERN,Unenclosed Sidewalk Cafe,1307588,"480 AMSTERDAM AVENUE, NEW YORK, NY 10024",480,AMSTERDAM AVENUE,NEW YORK,NY,10024,Manhattan,,(212) 579-4299,168
139,4N CORP,BLIND PIG,Unenclosed Sidewalk Cafe,1251799,"233 EAST   14 STREET, NEW YORK, NY 10003",233,EAST   14 STREET,NEW YORK,NY,10003,Manhattan,,(212) 209-1573,152
140,505-23 BAR INC,THE HALF KING,Unenclosed Sidewalk Cafe,1109467,"505-507 W 23RD ST, NEW YORK, NY 10011",505-507,W 23RD ST,NEW YORK,NY,10011,Manhattan,,(212) 462-4300,420
141,511 AMSTERDAM VINO CORP.,SLIGHTLY OLIVER,Unenclosed Sidewalk Cafe,1320797,"511 AMSTERDAM AVENUE, NEW YORK, NY 10024",511,AMSTERDAM AVENUE,NEW YORK,NY,10024,Manhattan,,(212) 877-2267,181
142,"513 COLUMBUS,LLC",,Unenclosed Sidewalk Cafe,1384479,"513 COLUMBUS AVENUE, NEW YORK, NY 10024",513,COLUMBUS AVENUE,NEW YORK,NY,10024,Manhattan,,(212) 579-2900,370
143,52 RESTAURANT GROUP CORP.,OPAL,Unenclosed Sidewalk Cafe,1105401,"251 EAST   52 STREET, NEW YORK, NY 10022",251,EAST   52 STREET,NEW YORK,NY,10022,Manhattan,,(212) 593-4321,339
144,520 COLUMBUS AVE LTD,NONNA RESTAURANT,Unenclosed Sidewalk Cafe,1006183,"520 COLUMBUS AVE, NEW YORK, NY 10024",520,COLUMBUS AVE,NEW YORK,NY,10024,Manhattan,,(212) 579-3194,297
145,523 9TH AVENUE INC.,HELLS KITCHEN CAFE,Unenclosed Sidewalk Cafe,1371615,"523 9 AVENUE, NEW YORK, NY 10018",523,   9 AVENUE,NEW YORK,NY,10018,Manhattan,,(917) 957-0161,162
146,542 3RD AVENUE FOOD CORP,,Enclosed Sidewalk Cafe,1329305,"542 3 AVENUE, NEW YORK, NY 10016",542,   3 AVENUE,NEW YORK,NY,10016,Manhattan,,(646) 294-1902,144
147,542 3RD AVENUE FOOD CORP,EURO DINER,Unenclosed Sidewalk Cafe,1200222,"542 THIRD AVENUE, NEW YORK, NY 10016",542,THIRD AVENUE,NEW YORK,NY,10016,Manhattan,,(646) 294-1902,107
148,"54TH STREET BAKERY, LLC.",CAFE METRO,Unenclosed Sidewalk Cafe,1221586,"839 7TH AVE, NEW YORK, NY 10019",839,7TH AVE,NEW YORK,NY,10019,Manhattan,,(212) 983-7474,202
149,551 HUDSON RESTAURANT LLC,SPASS0,Unenclosed Sidewalk Cafe,1382844,"551 HUDSON STREET, NEW YORK, NY 10014",551,HUDSON STREET,NEW YORK,NY,10014,Manhattan,,(917) 664-7323,313
150,"567 HUDSON STREET, INC.",WHITE HORSE TAVERN,Unenclosed Sidewalk Cafe,769952,"567 HUDSON STREET, NEW YORK, NY 10014",567,HUDSON STREET,NEW YORK,NY,10014,Manhattan,,(212) 989-3956,728
151,568 FIFTH BROOKLYN LLC,BLACK HORSE PUB,Unenclosed Sidewalk Cafe,1385722,"568 FIFTH AVENUE, BROOKLYN, NY 11215",568,FIFTH AVENUE,BROOKLYN,NY,11215,Brooklyn,,(718) 788-1975,324
152,57TH RESTAURANT ASSOCIATES LLC.,RUE 57,Unenclosed Sidewalk Cafe,1203510,"60 WEST   57 STREET, NEW YORK, NY 10019",60,WEST   57 STREET,NEW YORK,NY,10019,Manhattan,,(212) 399-6000,415
153,58 2ND REST CORP.,CELLAR 58,Unenclosed Sidewalk Cafe,1312717,"58 2 AVENUE, NEW YORK, NY 10003",58,   2 AVENUE,NEW YORK,NY,10003,Manhattan,,(212) 777-2840,144
154,60 GREENWICH LLC,,Unenclosed Sidewalk Cafe,1191326,"60 GREENWICH AVENUE, NEW YORK, NY 10011",60,GREENWICH AVENUE,NEW YORK,NY,10011,Manhattan,,(917) 306-0535,216
155,60 SWEET THING INC.,REDEMPTION COCTAIL LOUNGE,Unenclosed Sidewalk Cafe,1215467,"1003 2 AVENUE, NEW YORK, NY 10022",1003,   2 AVENUE,NEW YORK,NY,10022,Manhattan,,(212) 513-1988,380
156,600 METROPOLITAN CORP.,ALLIGATOR LOUNGE,Unenclosed Sidewalk Cafe,1311871,"600 METROPOLITAN AVENUE, BROOKLYN, NY 11211",600,METROPOLITAN AVENUE,BROOKLYN,NY,11211,Brooklyn,,(718) 599-4440,184
157,600 WEST 169TH REST. INC.,COOGANS,Unenclosed Sidewalk Cafe,1283230,"4015 BROADWAY, NEW YORK, NY 10032",4015,BROADWAY,NEW YORK,NY,10032,Manhattan,,(212) 928-1234,360
158,"601 VANDERBILT, LLC",BARETTE,Unenclosed Sidewalk Cafe,1253849,"601 VANDERBILT AVENUE, BROOKLYN, NY 11238",601,VANDERBILT AVENUE,BROOKLYN,NY,11238,Brooklyn,,(718) 230-5170,433
159,603 SECOND AVE CORP,BENJAMIN RESTAURANT,Enclosed Sidewalk Cafe,760685,"603 2ND AVE, NEW YORK, NY 10016",603,   2ND AVE,NEW YORK,NY,10016,Manhattan,,(212) 889-0750,240
160,609 EDIBLES INC,TINOS DELICATESSEN,Unenclosed Sidewalk Cafe,1288036,"2410 ARTHUR AVE, BRONX, NY 10458",2410,ARTHUR AVE,BRONX,NY,10458,Bronx,,(718) 733-9879,81
161,61 LEX & PARK RESTAURANT INC,CIRCUS RESTAURANT,Unenclosed Sidewalk Cafe,1193924,"132 EAST   61 STREET, NEW YORK, NY 10065",132,EAST   61 STREET,NEW YORK,NY,10065,Manhattan,,(212) 223-2965,63
162,62ND & 1ST LLC,NEELY'S BARBECUE PARLOR,Unenclosed Sidewalk Cafe,1136669,"1125 FIRST AVENUE, NEW YORK, NY 10065",1125,FIRST AVENUE,NEW YORK,NY,10065,Manhattan,,(212) 871-4000,417
163,63 GUERNSEY LLC,SPRITZENHAUS,Unenclosed Sidewalk Cafe,1374780,"63 GUERNSEY ST, BROOKLYN, NY 11222",63,GUERNSEY ST,BROOKLYN,NY,11222,Brooklyn,,(212) 932-7566,814
164,64 GREENWICH RESTAURANT,THE MEATBALL SHOP,Unenclosed Sidewalk Cafe,1385289,"64 GREENWICH AVENUE, NEW YORK, NY 10011",64,GREENWICH AVENUE,NEW YORK,NY,10011,Manhattan,,(917) 640-8008,75
165,"64 WEST RESTAURANT, LLC",BAR BOULUD,Unenclosed Sidewalk Cafe,1282969,"1900 BROADWAY, NEW YORK, NY 10023",1900,BROADWAY,NEW YORK,NY,10023,Manhattan,,(212) 595-0303,676
166,643 HUDSON LLC,FATTY CRAB,Unenclosed Sidewalk Cafe,1230448,"643 HUDSON ST, NEW YORK, NY 10014",643,HUDSON ST,NEW YORK,NY,10014,Manhattan,,(212) 807-6383,86
167,647 NINTH AVE CORP,,Unenclosed Sidewalk Cafe,1385538,"647 NINTH AVENUE, NEW YORK, NY 10036",647,NINTH AVENUE,NEW YORK,NY,10036,Manhattan,,(212) 248-8880,100
168,659 REST. INC,MERCURY BAR,Unenclosed Sidewalk Cafe,1101272,"659 NINTH AVENUE, NEW YORK, NY 10036",659,NINTH AVENUE,NEW YORK,NY,10036,Manhattan,,(212) 262-7755,126
169,662 FULTON ST RESTAURANT CORP,DENIZ,Unenclosed Sidewalk Cafe,1314257,"662 FULTON STREET, BROOKLYN, NY 11217",662,FULTON STREET,BROOKLYN,NY,11217,Brooklyn,,(718) 852-6503,243
170,667 TENTH AVENUE CORP,FAST EDDIES,Unenclosed Sidewalk Cafe,1424351,"667 10TH AVE, NEW YORK, NY 10036",667,  10TH AVE,NEW YORK,NY,10036,Manhattan,,(212) 932-7566,389
171,"675 HUDSON VAULT, LLC",DOS CAMINOS,Unenclosed Sidewalk Cafe,1159248,"675 HUDSON ST, NEW YORK, NY 10014",675,HUDSON ST,NEW YORK,NY,10014,Manhattan,,(212) 513-1988,1300
172,68TH ST CAFE INC.,,Unenclosed Sidewalk Cafe,1326142,"2014 BROADWAY, NEW YORK, NY 10023",2014,BROADWAY,NEW YORK,NY,10023,Bronx,,(212) 724-1400,285
173,7 EAST 54TH STREET ASSOCIATES LLC,BICE RISTORANTE,Unenclosed Sidewalk Cafe,1424031,"7 E 54TH ST, NEW YORK, NY 10022",7,E 54TH ST,NEW YORK,NY,10022,Manhattan,,(212) 688-1999,209
174,701 W. 135TH CAFE INC.,COVO TRATTORIA,Unenclosed Sidewalk Cafe,1276674,"701 W 135TH ST, NEW YORK, NY 10031",701,W 135TH ST,NEW YORK,NY,10031,Manhattan,,(212) 234-9573,770
175,71 WINE BAR CAFE OPERATING CORP.,BIN 71,Unenclosed Sidewalk Cafe,1219794,"237 COLUMBUS AVE, NEW YORK, NY 10023",237,COLUMBUS AVE,NEW YORK,NY,10023,Manhattan,,(917) 686-2081,130
176,715 LORIMER RESTAURANT LLC,BECO,Unenclosed Sidewalk Cafe,1354387,"715 LORIMER ST, BROOKLYN, NY 11211",715,LORIMER ST,BROOKLYN,NY,11211,Brooklyn,,(917) 817-0877,165
177,72ND & COLUMBUS RESTAURANT LLC,COLUMBUS TAVERN,Enclosed Sidewalk Cafe,1392078,"269 COLUMBUS AVENUE, NEW YORK, NY 10023",269,COLUMBUS AVENUE,NEW YORK,NY,10023,Manhattan,,(212) 873-9400,416
178,74 SEVENTH LLC,CENTRO VINOTECA,Enclosed Sidewalk Cafe,1280572,"37 BARROW ST, NEW YORK, NY 10014",37,BARROW ST,NEW YORK,NY,10014,Manhattan,7TH AVE S,(212) 980-6363,461
179,753 WASHINGTON TRATTORIA INC.,,Unenclosed Sidewalk Cafe,1382062,"753 WASHINGTON STREET, NEW YORK, NY 10014",753,WASHINGTON STREET,NEW YORK,NY,10014,Manhattan,,(718) 710-2249,207
180,757 REST LLC,ROGUE,Unenclosed Sidewalk Cafe,1200498,"757 6 AVENUE, NEW YORK, NY 10010",757,   6 AVENUE,NEW YORK,NY,10010,Manhattan,,(212) 242-6434,270
181,75TH & 3RD CORP.,BISTRO LE STEAK,Enclosed Sidewalk Cafe,1167600,"1309 3 AVENUE, NEW YORK, NY 10021",1309,   3 AVENUE,NEW YORK,NY,10021,Manhattan,,(212) 517-3800,504
182,768 MAD RESTAURANT LLC,BAR ITALIA,Unenclosed Sidewalk Cafe,1401947,"768 MADISON AVENUE, NEW YORK, NY 10065",768,MADISON AVENUE,NEW YORK,NY,10065,Manhattan,,(917) 546-6676,53
183,"76TH STREET RESTAURANT, LLC",CAFE BOULUD,Unenclosed Sidewalk Cafe,1365172,"20 EAST   76 STREET, NEW YORK, NY 10021",20,EAST   76 STREET,NEW YORK,NY,10021,Manhattan,,(212) 794-2329,322
184,772 NINTH RESTAURANT CORP.,,Unenclosed Sidewalk Cafe,1253206,"772 9TH AVE, NEW YORK, NY 10019",772,   9TH AVE,NEW YORK,NY,10019,Manhattan,,(212) 586-5005,120
185,"78 SECOND AVE. SANDWICH SHOP, INC",BISTRO NOMAD,Unenclosed Sidewalk Cafe,1244047,"78 2 AVENUE, NEW YORK, NY 10003",78,   2 AVENUE,NEW YORK,NY,10003,Manhattan,,(212) 253-5410,182
186,"7TH & BARROW, LLC",SUSHI SAMBA  # 7,Unenclosed Sidewalk Cafe,1253042,"87 7TH AVE S, NEW YORK, NY 10014",87,7TH AVE S,NEW YORK,NY,10014,Manhattan,,(212) 691-7885,770
187,7TH AVE LANDBROT LLC,LANDBROT,Unenclosed Sidewalk Cafe,1384829,"137 7TH AVE S, NEW YORK, NY 10014",137, 7TH AVE S,NEW YORK,NY,10014,Manhattan,,(917) 916-5552,367
188,7TH AVENUE RESTAURANT GROUP LLC,,Unenclosed Sidewalk Cafe,1252679,"130-138 7 AVENUE SOUTH, NEW YORK, NY 10014",130-138,   7 AVENUE SOUTH,NEW YORK,NY,10014,Manhattan,,(212) 352-2237,720
189,802 RESTAURANT CORP,,Unenclosed Sidewalk Cafe,1307658,"802 9TH AVE, NEW YORK, NY 10019",802,9TH AVE,NEW YORK,NY,10019,Manhattan,,(212) 262-1299,250
190,804 LEXINGTON AVENUE RESTAURANT INC.,BURGER HEAVEN,Unenclosed Sidewalk Cafe,1175917,"804 LEXINGTON AVENUE, NEW YORK, NY 10065",804,LEXINGTON AVENUE,NEW YORK,NY,10065,Manhattan,,(212) 838-3580,299
191,83/AMSTERDAM RESTAURANT CORP,HI LIFE BAR & GRILL,Unenclosed Sidewalk Cafe,883095,"477 AMSTERDAM AVENUE, NEW YORK, NY 10024",477,AMSTERDAM AVENUE,NEW YORK,NY,10024,Manhattan,,(212) 787-7199,302
192,83/AMSTERDAM RESTAURANT CORP,HI-LIFE RESTAURANT,Enclosed Sidewalk Cafe,885881,"477 AMSTERDAM AVENUE, NEW YORK, NY 10024",477,AMSTERDAM AVENUE,NEW YORK,NY,10024,Manhattan,,(212) 787-7199,212
193,8406 THIRD AVE REST CORP.,SOFIA,Unenclosed Sidewalk Cafe,1167396,"8406 3RD AVE, BROOKLYN, NY 11209",8406,3RD AVE,BROOKLYN,NY,11209,Brooklyn,,(718) 680-4242,174
194,"86 SOUTH PORTLAND,LLC",PEQUENA RESTAURANT,Enclosed Sidewalk Cafe,1397285,"86 SOUTH PORTLAND AVENUE, BROOKLYN, NY 11217",86,SOUTH PORTLAND AVENUE,BROOKLYN,NY,11217,Brooklyn,,(718) 643-0000,118
195,88 2ND AVE FOOD CORP.,,Enclosed Sidewalk Cafe,1258524,"88 2 AVENUE, NEW YORK, NY 10003",88,   2 AVENUE,NEW YORK,NY,10003,Manhattan,,(212) 420-8050,364
196,8868 CORP.,VERMICELLI,Unenclosed Sidewalk Cafe,1224915,"1492 2ND AVE, NEW YORK, NY 10075",1492,   2ND AVE,NEW YORK,NY,10075,Manhattan,,(212) 288-8868,177
197,92 ADRIANNA INC.,POETESSA,Unenclosed Sidewalk Cafe,1222193,"92 2ND AVE, NEW YORK, NY 10003",92,2ND AVE,NEW YORK,NY,10003,Manhattan,,(212) 529-2563,216
198,924 SECOND AVE CORP,MATISSE,Unenclosed Sidewalk Cafe,1362353,"924 2ND AVE, NEW YORK, NY 10022",924,2ND AVE,NEW YORK,NY,10022,Manhattan,,(212) 546-933,189
199,938 AMSTERDAM REST CORP.,AMSTERDAM TAVERN,Unenclosed Sidewalk Cafe,1387898,"938 AMSTERDAM AVE, NEW YORK, NY 10025",938,AMSTERDAM AVE,NEW YORK,NY,10025,Manhattan,,(914) 953-4945,147
200,94 CORNER CAFE CORP.,,Enclosed Sidewalk Cafe,1353598,"2518 BROADWAY, NEW YORK, NY 10025",2518,BROADWAY,NEW YORK,NY,10025,Manhattan,,(212) 875-2100,186
201,94 CORNER CAFE CORP.,,Unenclosed Sidewalk Cafe,1353701,"2518 BROADWAY, NEW YORK, NY 10025",2518,BROADWAY,NEW YORK,NY,10025,Manhattan,,(212) 875-2100,177
202,953 ASSOCIATES LLC,EATERY RESTAURANT,Unenclosed Sidewalk Cafe,1087174,"798 NINTH AVENUE, NEW YORK, NY 10019",798,NINTH AVENUE,NEW YORK,NY,10019,Manhattan,,(212) 765-7080,254
203,99 SOUTH REST. CORP.,,Unenclosed Sidewalk Cafe,1217775,"97-99 7TH AVE S, NEW YORK, NY 10014",97-99,7TH AVE S,NEW YORK,NY,10014,Manhattan,,(212) 645-0600,518
204,A & A FOOD ENTERPRISES LLC,AGED,Unenclosed Sidewalk Cafe,1323151,"107-02 70 ROAD, QUEENS, NY 11375",107-02,  70 ROAD,QUEENS,NY,11375,Queens,,(718) 544-2433,278
205,A & D WINE CORP.,,Unenclosed Sidewalk Cafe,1344043,"65 2 AVENUE, NEW YORK, NY 10003",65,   2 AVENUE,NEW YORK,NY,10003,Manhattan,,(212) 777-6965,190
206,A & Z RESTAURANT CORP.,WINEBAR,Unenclosed Sidewalk Cafe,987074,"65 2ND AVE, NEW YORK, NY 10003",65,2ND AVE,NEW YORK,NY,10003,Manhattan,NORTH STORE,(212) 777-1608,202
207,"A CASA FOODS,LLC",,Unenclosed Sidewalk Cafe,1385948,"173 ORCHARD STREET, NEW YORK, NY 10002",173,ORCHARD STREET,NEW YORK,NY,10002,Manhattan,,(212) 253-1900,40
208,A. VENIERO INC.,VENIERO'S PASTICCERIA & CAFE,Unenclosed Sidewalk Cafe,1136223,"342 EAST   11 STREET, NEW YORK CITY, NY 10003",342,EAST   11 STREET,NEW YORK CITY,NY,10003,Manhattan,,(212) 674-7070,170
209,"A.B.C. HOME FURNISHINGS, INC.",THE PIPA,Unenclosed Sidewalk Cafe,960499,"38 EAST   19 STREET, NEW YORK, NY 10003",38,EAST   19 STREET,NEW YORK,NY,10003,Manhattan,,(212) 473-3000,356
210,"A.T. WEST 16TH ENTERPRISES,LTD.",STEAK FRITES,Unenclosed Sidewalk Cafe,954589,"9 EAST   16 STREET, NEW YORK, NY 10003",9,EAST   16 STREET,NEW YORK,NY,10003,Manhattan,,(212) 675-4700,218
211,AAM RESTAURANT LLC,BISTANGO RESTAURANT,Unenclosed Sidewalk Cafe,1314793,"415 3 AVENUE, NEW YORK, NY 10016",415,   3 AVENUE,NEW YORK,NY,10016,Manhattan,,(212) 725-8484,175
212,ABA TURKISH RESTAURANT LLC,,Unenclosed Sidewalk Cafe,1423305,"325 WEST   57 STREET, NEW YORK, NY 10019",325,WEST   57 STREET,NEW YORK,NY,10019,Manhattan,,(212) 969-1782,164
213,"ABG STANDARD OPERATOR, LLC",THE STANDARD GRILL,Unenclosed Sidewalk Cafe,1309290,"848 WASHINGTON STREET, NEW YORK, NY 10014",848,WASHINGTON STREET,NEW YORK,NY,10014,Manhattan,,(212) 513-1988,850
214,ABITINO'S PIZZA 49TH STREET CORP,,Enclosed Sidewalk Cafe,1338974,"936 2 AVENUE, NEW YORK, NY 10022",936,   2 AVENUE,NEW YORK,NY,10022,Manhattan,,(347) 538-1465,200
215,ABRUZZO DOCG INC.,TARALLUCCI EVINO,Unenclosed Sidewalk Cafe,1221181,"15 EAST 18TH STREET, NEW YORK, NY 10003",15,EAST 18TH STREET,NEW YORK,NY,10003,Manhattan,,(212) 228-5400,230
216,ACROPOL REST. CORP.,RITZ DINER,Enclosed Sidewalk Cafe,1066538,"1133 1ST AVE, NEW YORK, NY 10065",1133,   1ST AVE,NEW YORK,NY,10065,Manhattan,,(646) 522-6885,446
217,"ACUMEN GMAT, LLC",HAAGEN DAZS,Unenclosed Sidewalk Cafe,1346491,"2905 BROADWAY, NEW YORK, NY 10025",2905,BROADWAY,NEW YORK,NY,10025,Manhattan,,(212) 662-5265,98
218,AGED 88STREET LLC,AGE BAR N GRILL,Unenclosed Sidewalk Cafe,1351071,"2398 BROADWAY, NEW YORK, NY 10024",2398,BROADWAY,NEW YORK,NY,10024,Manhattan,,(212) 874-7400,295
219,"AHSHI GLOBAL, INC.",,Unenclosed Sidewalk Cafe,1345598,"623 GRAND STREET, BROOKLYN, NY 11211",623,GRAND STREET,BROOKLYN,NY,11211,Brooklyn,,(718) 963-0219,389
220,AJ EASTSIDE INC,FETCH,Unenclosed Sidewalk Cafe,1132655,"1649 THIRD AVENUE, NEW YORK, NY 10128",1649,THIRD AVENUE,NEW YORK,NY,10128,Manhattan,,(212) 423-9302,101
221,AKRAM RESTAURANT MANAGEMENT INC,DA GENNARO RISTORANTE,Unenclosed Sidewalk Cafe,1249523,"129 MULBERRY ST, NEW YORK, NY 10013",129,MULBERRY ST,NEW YORK,NY,10013,Manhattan,,(212) 343-9065,266
222,ALA TURK INC,,Enclosed Sidewalk Cafe,1381393,"1417 2 AVENUE, NY, NY 10021",1417,   2 AVENUE,NY,NY,10021,Manhattan,,(212) 744-2424,481
223,ALA TURK INC,ALA TURKA,Unenclosed Sidewalk Cafe,1315623,"1417 2ND AVE, NEW YORK, NY 10021",1417,  2ND AVE,NEW YORK,NY,10021,Manhattan,,(212) 744-2424,297
224,ALBACHIARA LLC,ALBELLA,Unenclosed Sidewalk Cafe,1193773,"10 READE STREET, NEW YORK, NY 10007",10,READE STREET,NEW YORK,NY,10007,Manhattan,AKA 2 LAFAYETTE_STREET,(212) 267-5900,483
225,ALFIE COMPANY LLC,CAVATAPPO GRILL,Unenclosed Sidewalk Cafe,1292343,"1712 1 AVENUE, NEW YORK, NY 10128",1712,   1 AVENUE,NEW YORK,NY,10128,Manhattan,,(212) 987-9260,175
226,ALFREDO OF ROME TRIBECA LLC,,Unenclosed Sidewalk Cafe,1383537,"363 GREENWICH STREET, NEW YORK, NY 10013",363,GREENWICH STREET,NEW YORK,NY,10013,Manhattan,,(407) 222-0070,190
227,ALPHA FUSION INC,,Unenclosed Sidewalk Cafe,1315480,"365 WEST   34 STREET, NEW YORK, NY 10001",365,WEST   34 STREET,NEW YORK,NY,10001,Manhattan,,(212) 279-8887,124
228,AMBER WEST 70 INC,,Enclosed Sidewalk Cafe,1354470,"221-223 COLUMBUS AVE, NEW YORK, NY 10023",221-223,COLUMBUS AVE,NEW YORK,NY,10023,Manhattan,,(212) 799-8100,252
229,AMELIA B 1 CORP.,ISLAND BURGERS & SHAKES,Unenclosed Sidewalk Cafe,1424906,"422 AMSTERDAM AVE, NEW YORK, NY 10024",422,AMSTERDAM AVE,NEW YORK,NY,10024,Manhattan,,(212) 877-7934,70
230,"AMERICAN SPECIALTY FOODS, INC.",JOSIE RESTAURANT,Enclosed Sidewalk Cafe,1218880,"300 AMSTERDAM AVENUE, NEW YORK, NY 10023",300,AMSTERDAM AVENUE,NEW YORK,NY,10023,Manhattan,,(212) 769-1212,311
231,AMGP RESTAURANT CORP,YIASOU,Unenclosed Sidewalk Cafe,1194613,"2003 EMMONS AVENUE, BROOKLYN, NY 11235",2003,EMMONS AVENUE,BROOKLYN,NY,11235,Brooklyn,,(718) 332-6064,253
232,AMINA 50 INC,,Unenclosed Sidewalk Cafe,1382170,"955 2 AVENUE, NY, NY 10022",955,   2 AVENUE,NY,NY,10022,Manhattan,,(212) 752-7151,144
233,AMSTERDAM ALE HOUSE INC,AMSTERDAM ALE HOUSE,Unenclosed Sidewalk Cafe,1413323,"340 AMSTERDAM AVENUE, NEW YORK, NY 10024",340,AMSTERDAM AVENUE,NEW YORK,NY,10024,Manhattan,,(212) 362-7260,330
234,"AMSTERDAM AVENUE BROTHER JIMMY'S, LLC",BROTHER JIMMY'S WEST,Unenclosed Sidewalk Cafe,1039396,"428 AMSTERDAM AVENUE, NEW YORK, NY 10024",428,AMSTERDAM AVENUE,NEW YORK,NY,10024,Manhattan,,(212) 244-3503,211
235,AMSTERDAM AVENUE RESTAURANT LLC,VILLAGE POURHOUSE,Unenclosed Sidewalk Cafe,1347879,"982-988 AMSTERDAM AVE, NEW YORK, NY 10025",982-988,AMSTERDAM AVE,NEW YORK,NY,10025,Manhattan,,(212) 979-2337,265
236,ANDIKIANA CORP.,SILVER SPURS EATERY,Unenclosed Sidewalk Cafe,941701,"490 LA GUARDIA PLACE, NEW YORK, NY 10012",490,LA GUARDIA PLACE,NEW YORK,NY,10012,Manhattan,,(212) 228-2333,408
237,ANEJO LLC,ANEJO TEQUILERIA,Unenclosed Sidewalk Cafe,1419380,"668 10TH AVE, NEW YORK, NY 10036",668,10TH AVE,NEW YORK,NY,10036,Manhattan,,(212) 290-4770,335
238,ANEMACORE LLC,DONATELLA,Unenclosed Sidewalk Cafe,1384164,"184 8 AVENUE, NEW YORK, NY 10011",184,   8 AVENUE,NEW YORK,NY,10011,Manhattan,,(212) 493-5150,142
239,ANEMONAS REST CORP,AMSTERDAM DINER,Unenclosed Sidewalk Cafe,1422698,"447 AMSTERDAM AVE, NEW YORK, NY 10024",447,AMSTERDAM AVE,NEW YORK,NY,10024,Manhattan,,(917) 526-9653,140
240,ANFIELD ROAD INC,BANTER,Unenclosed Sidewalk Cafe,1417866,"132 HAVEMEYER ST, BROOKLYN, NY 11211",132,HAVEMEYER ST,BROOKLYN,NY,11211,Brooklyn,,(718) 599-5200,260
241,ANGELO OF MULBERRY STREET INC.,,Unenclosed Sidewalk Cafe,964932,"146 MULBERRY STREET, NY, NY 10013",146,MULBERRY STREET,NY,NY,10013,Manhattan,,(212) 966-1277,134
242,ANGELO VIVOLO RESTAURANT ASSOCIATES INC,VIVOLO,Enclosed Sidewalk Cafe,895577,"140 EAST   74 STREET, NEW YORK, NY 10021",140,EAST   74 STREET,NEW YORK,NY,10021,Manhattan,,(212) 737-3533,86
243,ANOTHEROOM INC.,,Unenclosed Sidewalk Cafe,1110383,"249 WEST BROADWAY, NEW YORK, NY 10013",249,WEST BROADWAY,NEW YORK,NY,10013,Manhattan,,(212) 226-1418,140
244,ANTIKA PIZZERIA INC,ANTIKA,Unenclosed Sidewalk Cafe,1388443,"3924 BROADWAY, NEW YORK, NY 10032",3924,BROADWAY,NEW YORK,NY,10032,Manhattan,,(212) 781-9100,204
245,APICIO LLC,TERTULIA,Unenclosed Sidewalk Cafe,1414241,"359 6TH AVE, NEW YORK, NY 10014",359,   6TH AVE,NEW YORK,NY,10014,Manhattan,,(917) 723-2191,124
246,APPLEJACK COFFEE SHOP INC.,APPLEJACK COFFEE SHOP,Unenclosed Sidewalk Cafe,1170662,"230 W 55TH ST, NEW YORK, NY 10019",230,W 55TH ST,NEW YORK,NY,10019,Manhattan,,(212) 586-6075,250
247,"AQ KAFE,LLC",,Unenclosed Sidewalk Cafe,1328754,"1800 BROADWAY, NEW YORK, NY 10019",1800,BROADWAY,NEW YORK,NY,10019,Manhattan,,(212) -,198
248,ARDIAN CORP,TAVERNA KLYCLADES,Unenclosed Sidewalk Cafe,1285652,"3307 DITMARS BLVD, QUEENS, NY 11105",3307,DITMARS BLVD,QUEENS,NY,11105,Queens,,(718) 545-8666,338
249,ARECAT REST. CORP.,LA GIARA,Unenclosed Sidewalk Cafe,983511,"501 3 AVENUE, NEW YORK, NY 10016",501,   3 AVENUE,NEW YORK,NY,10016,Manhattan,,(212) 726-9855,124
250,AREO RESTAURANT CORP,,Unenclosed Sidewalk Cafe,858542,"8420 3RD AVE, BROOKLYN, NY 11209",8420,3RD AVE,BROOKLYN,NY,11209,Brooklyn,8424 3 AVE,(718) 238-0079,116
251,"ARGO TEA, INC.",ARGO TEA CAFE,Unenclosed Sidewalk Cafe,1381365,"75 UNIVERSITY PL, NEW YORK, NY 10003",75,UNIVERSITY PL,NEW YORK,NY,10003,Manhattan,,(312) 553-1550,259
252,ARK 48 CORPORATION,TOASTIES,Unenclosed Sidewalk Cafe,1248594,"6 EAST   48 STREET, NEW YORK, NY 10017",6,EAST   48 STREET,NEW YORK,NY,10017,Manhattan,,(212) 230-1320,149
253,ARKADY INC.,AL FORNO,Unenclosed Sidewalk Cafe,1103699,"1484 SECOND AVENUE, NEW YORK, NY 10075",1484,SECOND AVENUE,NEW YORK,NY,10075,Manhattan,,(212) 249-5103,188
254,"ARRIBA ARRIBA MEXICAN RESTAURANTS,INC.",,Unenclosed Sidewalk Cafe,1206030,"762 NINTH AVENUE, NEW YORK, NY 10019",762,NINTH AVENUE,NEW YORK,NY,10019,Manhattan,,(212) 489-0810,285
255,ARTA LLC,SCARPINA BAR & GRILL,Unenclosed Sidewalk Cafe,1401141,"88 UNIVERSITY PLACE, NEW YORK, NY 10003",88,UNIVERSITY PLACE,NEW YORK,NY,10003,Manhattan,,(212) 355-6811,123
256,ARTOPOLIS CAFE LTD,,Unenclosed Sidewalk Cafe,1263648,"1090 AMSTERDAM AVENUE, NEW YORK, NY 10025",1090,AMSTERDAM AVENUE,NEW YORK,NY,10025,Manhattan,,(212) 666-3744,369
257,"ASC, INC.",LA NONNA,Unenclosed Sidewalk Cafe,1208521,"134 MULBERRY STREET, NEW YORK, NY 10013",134,MULBERRY STREET,NEW YORK,NY,10013,Manhattan,,(212) 343-1212,136
258,"ASTORIA APPLE, LLC",APPLEBEE'S NEIGHBORHOOD GRILL & BAR,Unenclosed Sidewalk Cafe,1382850,"38-01 35 AVENUE, QUEENS, NY 11101",38-01,  35 AVENUE,QUEENS,NY,11101,Queens,,(914) 777-2331,330
259,ASTORIA RESTAURANT GROUP INC,WILLIAM HALLET,Unenclosed Sidewalk Cafe,1423540,"3610 30TH AVE, ASTORIA, NY 11103",3610,30TH AVE,ASTORIA,NY,11103,Queens,,(718) 269-3443,118
260,"ATLANTIC STAR RESTAURANTS, LLC",THE BLACK DUCK RESTAURANT,Unenclosed Sidewalk Cafe,1266587,"120 E 28TH ST, NEW YORK, NY 10016",120,E 28TH ST,NEW YORK,NY,10016,Manhattan,,(212) 448-0888,125
261,"AURA,LLC.",MICKEY SPILLANE'S KITCHEN,Unenclosed Sidewalk Cafe,1421245,"350 W 49TH ST, NEW YORK, NY 10020",350,W 49TH ST,NEW YORK,NY,10020,Manhattan,,(212) 920-9370,209
262,AVE B BUON GUSTO CORP.,,Unenclosed Sidewalk Cafe,1345431,"76 AVENUE B, NEW YORK, NY 10009",76,AVENUE B,NEW YORK,NY,10009,Manhattan,,(212) 420-8400,235
263,AVENTURA RESTAURANT LLC,VAMOS,Unenclosed Sidewalk Cafe,1277655,"348 1 AVENUE, NEW YORK, NY 10010",348,   1 AVENUE,NEW YORK,NY,10010,Manhattan,,(212) 727-3565,320
264,AYZA UPPER WEST SIDE INC,AYZA WINE & CHOCOLATE BAR,Unenclosed Sidewalk Cafe,1416689,"1 7TH AVE S, NEW YORK, NY 10014",1,   7TH AVE S,NEW YORK,NY,10014,Manhattan,,(212) 365-2992,296
265,B5 LLC,BAREBURGER,Unenclosed Sidewalk Cafe,1422684,"2301 31ST ST, ASTORIA, NY 11105",2301,  31ST ST,ASTORIA,NY,11105,Queens,,(917) 784-1416,346
266,"BABU FOODS, INC.",HUDSON DINER,Unenclosed Sidewalk Cafe,1157473,"468 HUDSON ST, NEW YORK, NY 10014",468,HUDSON ST,NEW YORK,NY,10014,Manhattan,,(212) 627-9191,298
267,"BAC BARS GROUP, LLC.",BAYARD'S ALEHOUSE,Enclosed Sidewalk Cafe,1248153,"533 HUDSON STREET, NEW YORK, NY 10014",533,HUDSON STREET,NEW YORK,NY,10014,Manhattan,A/K/A 116 CHARLES STREET,(646) 245-5843,397
268,"BALILO DELI, INC",,Enclosed Sidewalk Cafe,1372571,"837 11TH AVE, NEW YORK, NY 10019",837, 11TH AVE,NEW YORK,NY,10019,Manhattan,A.K.A 600 W. 57TH STREET,(212) 582-1851,401
269,BANCONE LLC,PETRARCA,Unenclosed Sidewalk Cafe,1249567,"34 WHITE STREET, NEW YORK, NY 10013",34,WHITE STREET,NEW YORK,NY,10013,Manhattan,,(212) 625-2800,369
270,BAR GIACOSA CORP,BAR PITTI,Unenclosed Sidewalk Cafe,1097155,"268 SIXTH AVENUE, NEW YORK, NY 10014",268,SIXTH AVENUE,NEW YORK,NY,10014,Manhattan,,(212) 982-2498,480
271,"BARAONDA RESTAURANT, INC.",,Unenclosed Sidewalk Cafe,1215929,"1439 2ND AVE, NEW YORK, NY 10021",1439,2ND AVE,NEW YORK,NY,10021,Manhattan,,(212) 288-8555,524
272,BARBUTO LLC,BARBUTO,Unenclosed Sidewalk Cafe,1219498,"775 WASHINGTON ST, NEW YORK, NY 10014",775,WASHINGTON ST,NEW YORK,NY,10014,Manhattan,,(212) 513-1988,410
273,"BARE CITY TWO, LLC",BAREBURGER,Unenclosed Sidewalk Cafe,1435666,"85 2ND AVE, NEW YORK, NY 10003",85,2ND AVE,NEW YORK,NY,10003,Manhattan,,(212) 510-8610,131
274,"BARFLY, INC",BARFLY,Unenclosed Sidewalk Cafe,920112,"244 THIRD AVENUE, NEW YORK, NY 10010",244,THIRD AVENUE,NEW YORK,NY,10010,Manhattan,,(212) 473-9660,186
275,BARJER CORP,FIREHOUSE RESTAURANT,Unenclosed Sidewalk Cafe,895505,"522 COLUMBUS AVENUE, NY, NY 10024",522,COLUMBUS AVENUE,NY,NY,10024,Manhattan,,(212) 787-3473,255
276,BAROSA INC.,,Enclosed Sidewalk Cafe,1222376,"62-29 WOODHAVEN BOULEVARD, REGO PARK, NY 11374",62-29,WOODHAVEN BOULEVARD,REGO PARK,NY,11374,Queens,,(718) 424-1455,375
277,"BASIL, LLC",BASIL,Unenclosed Sidewalk Cafe,1392177,"268 KINGSTON AVE, BROOKLYN, NY 11213",268,KINGSTON AVE,BROOKLYN,NY,11213,Brooklyn,,(718) 285-8777,234
278,BB AT 55TH & 5TH LLC,BENOIT,Unenclosed Sidewalk Cafe,1287126,"60 W 55TH ST, NEW YORK, NY 10019",60,W 55TH ST,NEW YORK,NY,10019,Manhattan,,(646) 943-7340,176
279,BB ONE LLC,BARE BURGER,Unenclosed Sidewalk Cafe,1391030,"514 3 AVENUE, NEW YORK, NY 10016",514,   3 AVENUE,NEW YORK,NY,10016,Manhattan,,(212) 679-2273,110
280,BECAF LLC,POCO,Unenclosed Sidewalk Cafe,1313044,"33 AVENUE B, NEW YORK, NY 10009",33,AVENUE B,NEW YORK,NY,10009,Manhattan,,(212) 228-4461,250
281,BELCANTATA REST. INC,PIG N WHISTLE ON 3RD,Unenclosed Sidewalk Cafe,1310960,"922 3 AVENUE, NEW YORK, NY 10022",922,   3 AVENUE,NEW YORK,NY,10022,Manhattan,,(212) 832-2021,56
282,"BELSTAR ICE CREAM CO, LLC",COLD STONE CREAMERY,Unenclosed Sidewalk Cafe,1281798,"34-20 BROADWAY, QUEENS, NY 11106",34-20,BROADWAY,QUEENS,NY,11106,Queens,,(516) 301-0943,196
283,BEN TAS CORP,OTHELLO DELI,Unenclosed Sidewalk Cafe,1281431,"26-19 24 AVENUE, QUEENS, NY 11102",26-19,  24 AVENUE,QUEENS,NY,11102,Queens,,(718) 956-1337,185
284,"BENNY'S BURRITOS, INC",BENNY'S BURRITOS,Unenclosed Sidewalk Cafe,1067914,"111-113 GREENWICH AVE, NEW YORK, NY 10014",111-113,GREENWICH AVE,NEW YORK,NY,10014,Manhattan,,(212) 213-3332,345
285,BIDOCHONS CORP,PROVENCE EN BOITE,Unenclosed Sidewalk Cafe,1248607,"263 SMITH STREET, BROOKLYN, NY 11231",263,SMITH STREET,BROOKLYN,NY,11231,Brooklyn,,(718) 797-0707,304
286,BIER INTERNATIONAL LLC,,Unenclosed Sidewalk Cafe,1382021,"2099 FREDERICK DOUGLASS BOULEVARD, NEW YORK, NY 10026",2099,FREDERICK DOUGLASS BOULEVARD,NEW YORK,NY,10026,Manhattan,8 AVENUE,(646) 221-1008,301
287,BIG DADDY'S III LLC,,Unenclosed Sidewalk Cafe,1353319,"2454 BROADWAY, NEW YORK, NY 10024",2454,BROADWAY,NEW YORK,NY,10024,Manhattan,,(212) 377-2004,296
288,BIG DUMPLING CORP,PLUMP DUMPLING,Unenclosed Sidewalk Cafe,1384627,"174 2 AVENUE, NEW YORK, NY 10003",174,   2 AVENUE,NEW YORK,NY,10003,Manhattan,,(212) 254-5371,255
289,BISTRO SHOP DOWNTOWN LLC,,Unenclosed Sidewalk Cafe,1382491,"118 GREENWICH AVENUE, NEW YORK, NY 10011",118,GREENWICH AVENUE,NEW YORK,NY,10011,Manhattan,AKA 234 WEST 13 STREET,(212) 513-1988,260
290,BIZET LLC,,Unenclosed Sidewalk Cafe,1415068,"150 E 14TH ST, NEW YORK, NY 10003",150,E 14TH ST,NEW YORK,NY,10003,Manhattan,,(212) 757-2277,673
291,"BLEECKER SPAGHETTO, LLC",TRATTORIA SPAGHETTO,Unenclosed Sidewalk Cafe,1399534,"232 BLEECKER STREET, NEW YORK, NY 10014",232,BLEECKER STREET,NEW YORK,NY,10014,Manhattan,,(201) 819-2619,227
292,BLL RESTAURANT CORP.,PORTO BELLO RESTAURANT,Unenclosed Sidewalk Cafe,924708,"208 THOMPSON ST, NEW YORK, NY 10012",208,THOMPSON ST,NEW YORK,NY,10012,Manhattan,,(212) 473-7794,68
293,"BLOCKHEAD'S BURRITOS, INC.",BLOCKHEADS,Unenclosed Sidewalk Cafe,954963,"499 3 AVENUE, NEW YORK, NY 10016",499,   3 AVENUE,NEW YORK,NY,10016,Manhattan,,(212) 356-0006,83
294,BLOSSOM RESTAURANT & CAFE INC.,CAFE BLOSSOM,Unenclosed Sidewalk Cafe,1318895,"466 COLUMBUS AVENUE, NEW YORK, NY 10024",466,COLUMBUS AVENUE,NEW YORK,NY,10024,Manhattan,,(212) 875-2609,180
295,BLT BURGER 2ND AVENUE NYC LLC,,Unenclosed Sidewalk Cafe,1381146,"1450 2 AVENUE, NEW YORK, NY 10021",1450,   2 AVENUE,NEW YORK,NY,10021,Manhattan,,(212) 513-1988,188
296,BLT/MAIN STREET LLC,BLT PRIME,Unenclosed Sidewalk Cafe,1201698,"111 EAST 22ND STREET, NEW YORK, NY 10010",111,EAST 22ND STREET,NEW YORK,NY,10010,Manhattan,,(212) 223-6432,135
297,BLUE OCEAN GROUP INC.,CAFE AMRITA,Unenclosed Sidewalk Cafe,1421719,"301 W 110TH ST, NEW YORK, NY 10026",301,W 110TH ST,NEW YORK,NY,10026,Manhattan,,(212) 222-0683,296
298,BLUE SMOKE 102 NORTH END AVE LLC,BLUE SMOKE,Unenclosed Sidewalk Cafe,1421278,"255 VESEY ST, NEW YORK, NY 10282",255,VESEY ST,NEW YORK,NY,10282,Manhattan,,(212) 889-2005,311
299,BLUE SMOKE LLC,BLUE SMOKE,Unenclosed Sidewalk Cafe,1133422,"116 EAST   27 STREET, NEW YORK, NY 10016",116,EAST   27 STREET,NEW YORK,NY,10016,Manhattan,,(212) 447-7733,210
300,BOGMAN LLC.,BEARDED LADY,Unenclosed Sidewalk Cafe,1421052,"686A WASHINGTON AVE, BROOKLYN, NY 11238",686A,WASHINGTON AVE,BROOKLYN,NY,11238,Brooklyn,,(347) 404-4361,201
301,BONARUE BLEU INDUSTRIES INC,FLORENCIA 13,Unenclosed Sidewalk Cafe,1301635,"185 SULLIVAN STREET, NEW YORK, NY 10012",185,SULLIVAN STREET,NEW YORK,NY,10012,Manhattan,,(212) 677-6830,61
302,"BOWERY F & B, LLC",GEMMA,Unenclosed Sidewalk Cafe,1254785,"335 BOWERY, NEW YORK, NY 10003",335,BOWERY,NEW YORK,NY,10003,Manhattan,A.K.A. 4 EAST 3RD STREET,(212) 505-7300,376
303,"BOWERY RESTAURANT, LLC",DBGB,Unenclosed Sidewalk Cafe,1360658,"299 BOWERY, NEW YORK, NY 10003",299,BOWERY,NEW YORK,NY,10003,Manhattan,,(212) 794-232,432
304,BRAHO RESTAURANT CORP.,THE BARKING DOG,Unenclosed Sidewalk Cafe,1220174,"1453 YORK AVENUE, NEW YORK, NY 10075",1453,YORK AVENUE,NEW YORK,NY,10075,Manhattan,,(212) 861-3600,320
305,BRASSERIE JULIEN CORP,BRASSERIE JULIEN,Unenclosed Sidewalk Cafe,1030967,"1422 3 AVENUE, NEW YORK, NY 10028",1422,   3 AVENUE,NEW YORK,NY,10028,Manhattan,,(212) 744-6327,137
306,"BRATVA, INC",CONEY ISLAND BAR & GRILL,Unenclosed Sidewalk Cafe,1396810,"1205 SURF AVENUE, BROOKLYN, NY 11224",1205,SURF AVENUE,BROOKLYN,NY,11224,Brooklyn,,(718) 714-7407,294
307,"BREAD OF LIFE, LLC",,Unenclosed Sidewalk Cafe,1001940,"1712 2 AVENUE, NEW YORK, NY 10128",1712,   2 AVENUE,NEW YORK,NY,10128,Manhattan,,(212) 722-4242,142
308,BROADWAY & 166TH LLC,DALLAS BBQ,Unenclosed Sidewalk Cafe,1035650,"3956 BROADWAY, NEW YORK, NY 10032",3956,BROADWAY,NEW YORK,NY,10032,Manhattan,,(212) 568-3700,440
309,"BROADWAY & 166TH, LLC",DALLAS BBQ,Enclosed Sidewalk Cafe,1075763,"3956 BROADWAY, NEW YORK, NY 10032",3956,BROADWAY,NEW YORK,NY,10032,Manhattan,,(212) 568-3700,411
310,BROADWAY 104 LLC,CAFE DU SOLEIL,Unenclosed Sidewalk Cafe,1187714,"245 WEST  104 STREET, NEW YORK, NY 10025",245,WEST  104 STREET,NEW YORK,NY,10025,Manhattan,,(212) 316-5000,342
311,"BROADWAY DESSERTS, LTD",,Unenclosed Sidewalk Cafe,1000314,"2340 BROADWAY, NEW YORK, NY 10024",2340,BROADWAY,NEW YORK,NY,10024,Manhattan,,(917) 208-2174,480
312,BROOKLYN BAR NYC INC,EAST VILLAGE TAVERN,Unenclosed Sidewalk Cafe,1287121,"158 AVE C, NEW YORK, NY 10009",158,AVE C,NEW YORK,NY,10009,Manhattan,,(347) 837-6120,262
313,"BROOKLYN FOOD & DRINK, LLC.",THE VANDERBILT,Unenclosed Sidewalk Cafe,1342248,"570 VANDERBILT AVE, BROOKLYN, NY 11238",570,VANDERBILT AVE,BROOKLYN,NY,11238,Brooklyn,,(718) 623-0570,479
314,BROOKLYN HEIGHTS WINE BAR LLC,,Unenclosed Sidewalk Cafe,1317766,"50 HENRY ST, BROOKLYN, NY 11201",50,HENRY ST,BROOKLYN,NY,11201,Brooklyn,,(718) 834-1776,138
315,BRUNO IN HARLEM INC,SETTEPANI,Unenclosed Sidewalk Cafe,1104078,"196 LENOX AVENUE, NEW YORK, NY 10026",196,LENOX AVENUE,NEW YORK,NY,10026,Manhattan,,(917) 492-4806,551
316,BSWR CORP.,SARA BETH'S,Unenclosed Sidewalk Cafe,981250,"423 AMSTERDAM AVE, NEW YORK, NY 10024",423,AMSTERDAM AVE,NEW YORK,NY,10024,Manhattan,,(212) 496-6280,139
317,BUCKWHEAT AND ALFALFA INC,THE ROCKING HORSE MEXICAN CAFE,Unenclosed Sidewalk Cafe,1000917,"182 8TH AVE, NEW YORK, NY 10011",182,8TH AVE,NEW YORK,NY,10011,Manhattan,,(212) 463-9511,109
318,"BUFFANNA, INC.",IL PICOOLO BUFALO,Unenclosed Sidewalk Cafe,1165364,"141 MULBERRY ST, NEW YORK, NY 10013",141,MULBERRY ST,NEW YORK,NY,10013,Manhattan,,(212) 219-9068,52
319,BUONA NOTTE INC,BUONA NOTTE INC,Unenclosed Sidewalk Cafe,1135217,"120 MULBERRY STREET, NEW YORK, NY 10013",120,MULBERRY STREET,NEW YORK,NY,10013,Manhattan,,(212) 965-1111,129
320,BURKE'S BEAL BOCHT CORP.,AN BEAL BOCHT,Unenclosed Sidewalk Cafe,1234454,"445 W 238TH ST, BRONX, NY 10463",445,W 238TH ST,BRONX,NY,10463,Bronx,,(718) 884-7127,170
321,BURKINABE ENTERTAINMENT LLC,,Unenclosed Sidewalk Cafe,1345817,"2269 ADAM CLAYTON POWELL JR. BLVD, NEW YORK, NY 10030",2269,ADAM CLAYTON POWELL JR. BLVD,NEW YORK,NY,10030,Manhattan,,(212) 690-0699,300
322,BURKINABE ENTERTAINMENT LLC,SHRINE,Unenclosed Sidewalk Cafe,1277455,"2271-2273 7TH AVE, NEW YORK, NY 10030",2271-2273,   7TH AVE,NEW YORK,NY,10030,Manhattan,AKA ADAM CLAYTON POWELL JR BLVD,(212) 690-7807,173
323,BURRITO JUNCTION INC.,HARRY'S BURRITO JUNCTION,Unenclosed Sidewalk Cafe,895637,"241 COLUMBUS AVENUE, NEW YORK, NY 10023",241,COLUMBUS AVENUE,NEW YORK,NY,10023,Manhattan,,(212) 580-9494,328
324,BY THE GLASS INC.,UVA,Unenclosed Sidewalk Cafe,1190933,"1486 2 AVENUE, NEW YORK, NY 10075",1486,   2 AVENUE,NEW YORK,NY,10075,Manhattan,,(212) 472-4552,135
325,C & C FIRST AVE CORP.,BAR COASTAL,Enclosed Sidewalk Cafe,1110042,"1495 1ST AVE, NEW YORK, NY 10075",1495, 1ST AVE,NEW YORK,NY,10075,Manhattan,,(212) 288-6635,280
326,C & O COFFEE SHOP INC.,LA BONBONNIERE RESTAURANT,Unenclosed Sidewalk Cafe,1277859,"28 8 AVENUE, NEW YORK, NY 10014",28,   8 AVENUE,NEW YORK,NY,10014,Manhattan,,(212) 741-9266,163
327,C & V 77 ENTERPRISES LLC,GREEN KITCHEN,Enclosed Sidewalk Cafe,1278587,"1475-77 1ST AVE, NEW YORK, NY 10075",1475-77, 1ST AVE,NEW YORK,NY,10075,Manhattan,,(212) 988-4163,501
328,C.A.P. RESTAURANT CORP.,SOMBRERO MEXICAN RESTAURANT,Unenclosed Sidewalk Cafe,1079412,"303 WEST   48 STREET, NY, NY 10036",303,WEST   48 STREET,NY,NY,10036,Manhattan,,(212) 586-4853,195
329,C.S.L.L. REST. CORP,EJ'S LUNCHEONETTE,Enclosed Sidewalk Cafe,970343,"1271 THIRD AVENUE, NEW YORK, NY 10021",1271,THIRD AVENUE,NEW YORK,NY,10021,Manhattan,,(212) 472-0600,380
330,"CABANA-70 ASSOCIATES,L.P.",CABANA RESTAURANT AND BAR,Unenclosed Sidewalk Cafe,918521,"107-10 70 ROAD, QUEENS, NY 11375",107-10,  70 ROAD,QUEENS,NY,11375,Queens,,(212) 513-1988,106
331,"CAFE 71, INC.",,Enclosed Sidewalk Cafe,1223566,"2061 BROADWAY, NEW YORK, NY 10023",2061,BROADWAY,NEW YORK,NY,10023,Manhattan,,(212) 875-2100,288
332,"CAFE ARGENTINO, INC.",CAFE ARGENTINO,Unenclosed Sidewalk Cafe,1347394,"499 GRAND STREET, BROOKLYN, NY 11211",499,GRAND STREET,BROOKLYN,NY,11211,Brooklyn,,(718) 782-9477,303
333,CAFE CASANO LLC,,Unenclosed Sidewalk Cafe,1312041,"38 W ST, NEW YORK, NY 10004",38,W ST,NEW YORK,NY,10004,Manhattan,,(212) 267-7000,204
334,CAFE CORTADITO LLC,,Unenclosed Sidewalk Cafe,1381432,"210 EAST 3 STREET, NEW YORK, NY 10009",210,EAST 3 STREET,NEW YORK,NY,10009,Manhattan,,(212) 614-3080,83
335,"CAFE FOCACCIA, INC.",FELICE WINE BAR,Unenclosed Sidewalk Cafe,976266,"1166 1 AVENUE, NEW YORK, NY 10065",1166,   1 AVENUE,NEW YORK,NY,10065,Manhattan,,(212) 683-0371,290
336,"CAFE MOCHA, INC.",,Unenclosed Sidewalk Cafe,1342712,"116 2ND AVE, NEW YORK, NY 10003",116,2ND AVE,NEW YORK,NY,10003,Manhattan,,(212) 253-2050,230
337,"CAFE PUSHKIN CENTRAL, LLC",PUSHKIN BRASSEIE,Unenclosed Sidewalk Cafe,1419761,"41 W 57 ST, NEW YORK, NY 10019",41,W 57 ST,NEW YORK,NY,10019,Manhattan,,(917) 969-5091,168
338,CAFE STEINHOF INC.,,Unenclosed Sidewalk Cafe,1310342,"422 SEVENTH AVENUE, BROOKLYN, NY 11215",422,SEVENTH AVENUE,BROOKLYN,NY,11215,Brooklyn,,(718) 389-3189,208
339,CAFE TALLULAH LLC,CAFE TALLULAH,Enclosed Sidewalk Cafe,1397232,"240 COLUMBUS AVENUE, NEW YORK, NY 10023",240,COLUMBUS AVENUE,NEW YORK,NY,10023,Manhattan,,(917) 693-2870,570
340,CAFFE DANTE INC,CAFE DANTE,Unenclosed Sidewalk Cafe,768933,"81 MACDOUGAL STREET, NEW YORK, NY 10012",81,MACDOUGAL STREET,NEW YORK,NY,10012,Manhattan,,(212) 982-5275,148
341,CAFFE ISLE OF CAPRI INC,ISLE OF CAPRI,Enclosed Sidewalk Cafe,578810,"1028 3 AVENUE, NEW YORK, NY 10065",1028,   3 AVENUE,NEW YORK,NY,10065,Manhattan,,(212) 758-1828,407
342,CAFFE SILVESTRI INC.,CAFFE NAPOLI,Unenclosed Sidewalk Cafe,956923,"191 HESTER ST, NEW YORK, NY 10013",191,HESTER ST,NEW YORK,NY,10013,Manhattan,A/K/A 130 MULBERRY ST,(212) 226-8705,380
343,"CAFFE VETRO, INC.",EPISTROPHY CAFE,Unenclosed Sidewalk Cafe,1245908,"200 MOTT ST, NY, NY 10012",200,MOTT ST,NY,NY,10012,Manhattan,,(212) 966-0904,97
344,CAJUN BROOKLYN LLC,BOURGEOIS PIG,Unenclosed Sidewalk Cafe,1418022,"387 COURT ST, BROOKLYN, NY 11231",387,COURT ST,BROOKLYN,NY,11231,Brooklyn,,(212) 777-2017,171
345,CALIENTE CAB REST. CO INC,CALIENTE CAB CO,Unenclosed Sidewalk Cafe,670525,"61 7TH AVE SOUTH, NEW YORK, NY 10014",61,7TH AVE SOUTH,NEW YORK,NY,10014,Manhattan,,(212) 513-1988,752
346,CALIENTE TEQUILA GRILL LLC,CALIENTE GRILL,Unenclosed Sidewalk Cafe,1103058,"282 BLEECKER STREET, NEW YORK, NY 10014",282,BLEECKER STREET,NEW YORK,NY,10014,Manhattan,A/K/A 59 7 AVE SO,(212) 675-5265,271
347,CALOUNE CORP.,TOURNESOL RESTAURANT,Unenclosed Sidewalk Cafe,1280217,"5012 VERNON BLVD, QUEENS, NY 11101",5012,VERNON BLVD,QUEENS,NY,11101,Queens,,(718) 472-4355,112
348,CALSHEA REST. CORP.,THE TRIPLE CROWN,Unenclosed Sidewalk Cafe,1151949,"330 7 AVENUE, NEW YORK, NY 10001",330,   7 AVENUE,NEW YORK,NY,10001,Manhattan,,(212) 736-1575,158
349,"CAMELIAS, LLC",THE FRENCH COAST,Unenclosed Sidewalk Cafe,1421013,"473 AMSTERDAM AVE, NEW YORK, NY 10024",473,AMSTERDAM AVE,NEW YORK,NY,10024,Manhattan,,(212) 362-8555,182
350,"CAMPO DE FIORI, LLC",,Unenclosed Sidewalk Cafe,1382180,"187 FIFTH AVENUE, BROOKLYN, NY 11217",187,FIFTH AVENUE,BROOKLYN,NY,11217,Brooklyn,,(347) 763-0933,85
351,CANTALOUPE LLC,LOVELY DAY,Unenclosed Sidewalk Cafe,1260966,"196 ELIZABETH STREET, NEW YORK, NY 10012",196,ELIZABETH STREET,NEW YORK,NY,10012,Manhattan,,(212) 925-3310,53
352,CANTEEN 82 INC,BLUE CARAVAN,Unenclosed Sidewalk Cafe,1384273,"467 COLUMBUS AVENUE, NEW YORK, NY 10024",467,COLUMBUS AVENUE,NEW YORK,NY,10024,Manhattan,,(212) 595-4300,221
353,CANZ SUFFOLK 1 INC.,,Unenclosed Sidewalk Cafe,1375729,"40-11 30 AVENUE, ASTORIA, NY 11103",40-11,  30 AVENUE,ASTORIA,NY,11103,Queens,,(631) 707-1710,186
354,CAPODIMONTE LLC,APERITIVO,Unenclosed Sidewalk Cafe,1384347,"279 5 AVENUE, BROOKLYN, NY 11215",279,   5 AVENUE,BROOKLYN,NY,11215,Brooklyn,,(917) 885-1223,240
355,CARABEAN LLC,,Enclosed Sidewalk Cafe,1341044,"133 7 AVENUE SOUTH, NEW YORK, NY 10014",133,   7 AVENUE SOUTH,NEW YORK,NY,10014,Manhattan,,(212) 675-6220,268
356,CARAPINA LLC,GROM,Unenclosed Sidewalk Cafe,1286005,"233 BLEECKER STREET, NEW YORK, NY 10014",233,BLEECKER STREET,NEW YORK,NY,10014,Manhattan,,(917) 582-8684,158
357,CARMINE RESTAURANT INC.,IL CORTILE RESTAURANT,Unenclosed Sidewalk Cafe,1161434,"125 MULBERRY STREET, NEW YORK, NY 10013",125,MULBERRY STREET,NEW YORK,NY,10013,Manhattan,,(212) 226-6060,170
358,CARMINE'S BROADWAY FEAST INC.,CARMINE'S,Unenclosed Sidewalk Cafe,940252,"2450 BROADWAY, NEW YORK, NY 10024",2450,BROADWAY,NEW YORK,NY,10024,Manhattan,,(212) 362-2200,264
359,"CASWELL/PEARSON ENTERPRISES, LTD.",,Unenclosed Sidewalk Cafe,1186385,"202 WEST   14 STREET, NEW YORK, NY 10011",202,WEST   14 STREET,NEW YORK,NY,10011,Manhattan,,(212) 255-2060,130
360,"CAVALLACCI, FABRIZIO",CAFE REGGIO,Unenclosed Sidewalk Cafe,782318,"119 MACDOUGAL STREET, NEW YORK, NY 10012",119,MACDOUGAL STREET,NEW YORK,NY,10012,Manhattan,119-123 MACDOUGAL ST,(212) 475-9557,43
361,CCH RESTAURANT MANAGEMENT INC,,Unenclosed Sidewalk Cafe,1379615,"663 9 AVENUE, NEW YORK, NY 10036",663,   9 AVENUE,NEW YORK,NY,10036,Manhattan,,(212) 582-1669,246
362,"CDGP, LLC",FLO,Unenclosed Sidewalk Cafe,1190996,"37-20 30TH AVE, ASTORIA, NY 11103",37-20,30TH AVE,ASTORIA,NY,11103,Queens,,(718) 204-6096,703
363,CEE RESTAURANT LLC,SAVOIA,Unenclosed Sidewalk Cafe,1396280,"277 SMITH STREET, BROOKLYN, NY 11231",277,SMITH STREET,BROOKLYN,NY,11231,Brooklyn,,(718) 797-2727,160
364,CERELI INC,MOLE',Unenclosed Sidewalk Cafe,1343516,"57 JANE STREET, NEW YORK, NY 10014",57,JANE STREET,NEW YORK,NY,10014,Manhattan,,(212) 206-7559,138
365,CEVICHERIA GROVE INC,MERCADITO GROVE,Unenclosed Sidewalk Cafe,1202961,"100 7 AVENUE SOUTH, NEW YORK, NY 10014",100,   7 AVENUE SOUTH,NEW YORK,NY,10014,Manhattan,,(212) 388-0162,407
366,CH BURGERS LLC,FIVE GUYS BURGERS & FRIES,Unenclosed Sidewalk Cafe,1395027,"266 COURT STREET, BROOKLYN, NY 11231",266,COURT STREET,BROOKLYN,NY,11231,Brooklyn,,(917) 710-1477,74
367,"CHELSEA PARK, LLC",THE PARK,Unenclosed Sidewalk Cafe,1375358,"118 10TH AVE, NEW YORK, NY 10011",118, 10TH AVE,NEW YORK,NY,10011,Manhattan,,(212) 352-3313,267
368,"CHERRY LANE, INC",THE RANDOLPH AT BROOME,Unenclosed Sidewalk Cafe,1383186,"349 BROOME STREET, NEW YORK, NY 10013",349,BROOME STREET,NEW YORK,NY,10013,Manhattan,,(212) 274-0667,149
369,CHEZ JOSEPHINE LTD.,,Unenclosed Sidewalk Cafe,1180070,"414 W 42ND ST, NEW YORK, NY 10036",414,W 42ND ST,NEW YORK,NY,10036,Manhattan,,(212) 594-1925,168
370,CHEZ OSKAR INC.,CHEZ OSKAR,Unenclosed Sidewalk Cafe,1343834,"211 DEKALB AVE, BROOKLYN, NY 11205",211,DEKALB AVE,BROOKLYN,NY,11205,Brooklyn,,(718) 852-6250,450
371,CHICKEN SHACK INC.,,Unenclosed Sidewalk Cafe,1315235,"35-02 30 AVENUE, QUEENS, NY 11103",35-02,  30 AVENUE,QUEENS,NY,11103,Queens,,(718) 721-3035,344
372,CHINA 1221 INC,CHINA FUN,Unenclosed Sidewalk Cafe,1063397,"1221 2 AVENUE, NEW YORK, NY 10065",1221,   2 AVENUE,NEW YORK,NY,10065,Manhattan,,(212) 752-0810,320
373,CHOW DOWN INC,EL CENTRO,Unenclosed Sidewalk Cafe,1309603,"824 NINTH AVENUE, NEW YORK, NY 10019",824,NINTH AVENUE,NEW YORK,NY,10019,Manhattan,,(212) 765-4842,275
374,CHRISTOS RESTAURANT LLC,HEARTBREAK RESTAURANT.,Unenclosed Sidewalk Cafe,1386147,"29 EAST    2 STREET, NEW YORK, NY 10003",29,EAST    2 STREET,NEW YORK,NY,10003,Manhattan,,(212) 777-2502,256
375,CHURCH & LOUIS INC.,NINTH WARD,Unenclosed Sidewalk Cafe,1379381,"180 2ND AVE, NEW YORK, NY 10003",180,2ND AVE,NEW YORK,NY,10003,Manhattan,,(212) 513-1988,175
376,CIELI PARTNERS LP,TRATTORIA DELL'ARTE,Unenclosed Sidewalk Cafe,1192416,"900 7 AVENUE, NEW YORK, NY 10019",900,   7 AVENUE,NEW YORK,NY,10019,Manhattan,,(212) 245-9800,268
377,CILANTRO WEST LLC,,Unenclosed Sidewalk Cafe,1249725,"485 COLUMBUS AVENUE, NEW YORK, NY 10024",485,COLUMBUS AVENUE,NEW YORK,NY,10024,Manhattan,,(212) 513-1988,190
378,CINQUE FRATELLI INC,ACQUISTA TRATTORIA,Unenclosed Sidewalk Cafe,1095291,"178-01 UNION TURNPIKE, FLUSHING, NY 11366",178-01,UNION TURNPIKE,FLUSHING,NY,11366,Queens,,(718) 969-1411,461
379,CLASSIC FOOD INC,,Unenclosed Sidewalk Cafe,1072082,"267 COLUMBUS AVENUE, NEW YORK, NY 10023",267,COLUMBUS AVENUE,NEW YORK,NY,10023,Manhattan,,(212) 496-2803,102
380,CLAUDISAL REST. CORP.,THE MALT HOUSE,Unenclosed Sidewalk Cafe,1187924,"206 THOMPSON ST, NEW YORK, NY 10012",206,THOMPSON ST,NEW YORK,NY,10012,Manhattan,,(212) 228-7701,193
381,"CLAY FARM, LLC",THE BELL HOUSE,Unenclosed Sidewalk Cafe,1347119,"149 7TH ST, BROOKLYN, NY 11215",149, 7TH ST,BROOKLYN,NY,11215,Brooklyn,,(718) 369-3310,180
382,CLEW Z ANGUS (USA) INC,NIU NOODLE,Enclosed Sidewalk Cafe,1432061,"15 GREENWICH AVE, NEW YORK, NY 10014",15,GREENWICH AVE,NEW YORK,NY,10014,Manhattan,,(212) 608-8100,
383,"CLGM, INC",YEFSI ESTAIATORIO,Unenclosed Sidewalk Cafe,1422663,"1481 YORK AVE, NEW YORK, NY 10075",1481,YORK AVE,NEW YORK,NY,10075,Manhattan,,(917) 608-6770,171
384,"CLIRKAT DONUTS, INC",ANGELO'S QUALITY DONUT SHOP,Enclosed Sidewalk Cafe,1204822,"2944 WESTCHESTER AVE, BRONX, NY 10461",2944,WESTCHESTER AVE,BRONX,NY,10461,Bronx,,(718) 792-5534,241
385,"CLUB AMERICA, INC.",BISTRO CITRON,Unenclosed Sidewalk Cafe,1008999,"473 COLUMBUS AVENUE, NEW YORK, NY 10024",473,COLUMBUS AVENUE,NEW YORK,NY,10024,Manhattan,,(212) 400-9401,155
386,CMR CORP,CAFE RONDA,Unenclosed Sidewalk Cafe,1103658,"249-251 COLUMBUS AVENUE, NEW YORK, NY 10023",249-251,COLUMBUS AVENUE,NEW YORK,NY,10023,Manhattan,,(212) 579-9929,200
387,"COBRA CATERERS, INC",DUBLIN 6,Unenclosed Sidewalk Cafe,1135398,"575 HUDSON ST, NEW YORK, NY 10014",575,HUDSON ST,NEW YORK,NY,10014,Manhattan,,(646) 638-2900,185
388,CODA DI BUE LLC,SAUSE,Unenclosed Sidewalk Cafe,1402290,"78 RIVINGTON STREET, NEW YORK, NY 10002",78,RIVINGTON STREET,NEW YORK,NY,10002,Manhattan,,(212) 420-7700,315
389,COFFEE PLACE CORP.,SUNFLOWER CAFE,Unenclosed Sidewalk Cafe,1145512,"1223 QUENTIN ROAD, BROOKLYN, NY 11229",1223,QUENTIN ROAD,BROOKLYN,NY,11229,Brooklyn,,(718) 336-1340,405
390,COLOMBIA CHICKEN CORP.,LA FONDA ANTIOQUENA,Unenclosed Sidewalk Cafe,1350797,"32-25 STEINWAY ST, QUEENS, NY 11103",32-25,STEINWAY ST,QUEENS,NY,11103,Queens,,(718) 726-9857,96
391,COLUMBUS ALE HOUSE INC,,Unenclosed Sidewalk Cafe,1420062,"190 GRAHAM AVE, BROOKLYN, NY 11206",190,GRAHAM AVE,BROOKLYN,NY,11206,Brooklyn,AKA 151 MESEROLE ST,(319) 331-5276,706
392,COOLJAG CORP,THE DOG & DUCK,Unenclosed Sidewalk Cafe,1424004,"4520 SKILLMAN AVE, SUNNYSIDE, NY 11104",4520,SKILLMAN AVE,SUNNYSIDE,NY,11104,Queens,,(718) 406-9048,385
393,COPEL 2007 INC,BOCCA,Unenclosed Sidewalk Cafe,1343613,"39 E 19TH ST, NEW YORK, NY 10003",39,E 19TH ST,NEW YORK,NY,10003,Manhattan,,(212) 582-3000,61
394,"CORNED BEEF EXPRESS, LLC",ARTIE'S DELICATESSEN,Enclosed Sidewalk Cafe,1350796,"2290 BROADWAY, NEW YORK, NY 10024",2290,BROADWAY,NEW YORK,NY,10024,Manhattan,,(212) 579-5959,526
395,CORNELIA STREET CAFE INC,CORNELIA STREET CAFE  S/C #480,Unenclosed Sidewalk Cafe,786740,"29 CORNELIA STREET, NEW YORK, NY 10014",29,CORNELIA STREET,NEW YORK,NY,10014,Manhattan,,(212) 989-9319,121
396,CORNER 47 RESTAURANT CORP,,Unenclosed Sidewalk Cafe,1355112,"683 9 AVENUE, NEW YORK, NY 10036",683,   9 AVENUE,NEW YORK,NY,10036,Manhattan,,(212) 265-9471,153
397,"COSI, INC.",COSI #50,Unenclosed Sidewalk Cafe,1027305,"841 BROADWAY, NEW YORK, NY 10003",841,BROADWAY,NEW YORK,NY,10003,Manhattan,,(212) 614-8544,626
398,COSITAS RICAS CORP.,COSITAS RICAS,Enclosed Sidewalk Cafe,1026947,"7919 ROOSEVELT AVE, JACKSON HEIGHTS, NY 11372",7919,ROOSEVELT AVE,JACKSON HEIGHTS,NY,11372,Queens,,(718) 478-8136,294
399,COVADONGA INC.,EMPANADA MAMA,Unenclosed Sidewalk Cafe,1360911,"763 9 AVENUE, NEW YORK, NY 10019",763,   9 AVENUE,NEW YORK,NY,10019,Manhattan,,(212) 698-9008,75
400,"COWGIRL, INC",COWGIRL AND BARK,Unenclosed Sidewalk Cafe,919917,"519 HUDSON STREET, NEW YORK, NY 10014",519,HUDSON STREET,NEW YORK,NY,10014,Manhattan,,(212) 633-1133,206
401,CREDENCE LLC,BAREBURGER,Unenclosed Sidewalk Cafe,1425933,"170 7 AVENUE, BROOKLYN, NY 11215",170,   7 AVENUE,BROOKLYN,NY,11215,Brooklyn,,(718) 768-2273,380
402,CROISSANT CONSORTIUM LIMITED,THE HUNGARIAN PASTRY SHOP,Unenclosed Sidewalk Cafe,814506,"1030 AMSTERDAM AVE, NEW YORK, NY 10025",1030,AMSTERDAM AVE,NEW YORK,NY,10025,Manhattan,,(212) 866-4230,356
403,CROW AND CHICK LLC,LIGHTHOUSE,Unenclosed Sidewalk Cafe,1429644,"145 BORINQUEN PL, BROOKLYN, NY 11211",145,BORINQUEN PL,BROOKLYN,NY,11211,Brooklyn,,(646) 684-0808,419
404,"CULINARY CONCEPTS HOSPITALITY GROUP, LLC",SPICE MARKET,Unenclosed Sidewalk Cafe,1187891,"29-35 9TH AVE, NEW YORK, NY 10014",29-35, 9TH AVE,NEW YORK,NY,10014,Manhattan,,(212) 675-3110,600
405,CURRY MAHAL INC.,,Unenclosed Sidewalk Cafe,1312039,"119 LEXINGTON AVE, NEW YORK, NY 10016",119,LEXINGTON AVE,NEW YORK,NY,10016,Manhattan,,(212) 685-6385,195
406,D & D THAI RESTAURANT CORP,LAND,Unenclosed Sidewalk Cafe,1341925,"450 AMSTERDAM AVENUE, NEW YORK, NY 10024",450,AMSTERDAM AVENUE,NEW YORK,NY,10024,Manhattan,,(212) 501-8121,85
407,D.E.L. INC,ALEXANDRA,Unenclosed Sidewalk Cafe,1192285,"455 HUDSON STREET, NEW YORK, NY 10014",455,HUDSON STREET,NEW YORK,NY,10014,Manhattan,,(212) 255-3838,145
408,DA FOLLIA LLC,,Unenclosed Sidewalk Cafe,1384481,"226 3 AVENUE, NEW YORK, NY 10003",226,   3 AVENUE,NEW YORK,NY,10003,Manhattan,,(212) 477-4100,220
409,DA SILVANO CORP.,DA SILVANO,Unenclosed Sidewalk Cafe,1187717,"260 6 AVENUE, NEW YORK, NY 10014",260,   6 AVENUE,NEW YORK,NY,10014,Manhattan,AKA: AVENUE OF THE AMERICAS,(212) 982-2498,536
410,DALE RESTAURANT INC.,,Enclosed Sidewalk Cafe,1391747,"189 WEST  231 STREET, BRONX, NY 10463",189,WEST  231 STREET,BRONX,NY,10463,Bronx,,(718) 549-4445,178
411,DANA'S LLC,,Unenclosed Sidewalk Cafe,1094184,"630 9 AVENUE, NEW YORK, NY 10036",630,   9 AVENUE,NEW YORK,NY,10036,Manhattan,,(212) 333-2323,565
412,DE LA FONTAINE LLC,,Unenclosed Sidewalk Cafe,1395448,"519 COLUMBUS AVENUE, NEW YORK, NY 10024",519,COLUMBUS AVENUE,NEW YORK,NY,10024,Manhattan,,(917) 576-3585,357
413,DE PALINO RESTAURANT CORP.,CITY CRAB & SEAFOOD CO.,Unenclosed Sidewalk Cafe,979463,"235 PARK AVENUE SOUTH, NEW YORK, NY 10003",235,PARK AVENUE SOUTH,NEW YORK,NY,10003,Manhattan,,(212) 529-3800,169
414,DEAN'S REST. CORP.,DEAN'S,Unenclosed Sidewalk Cafe,1262376,"349 GREENWICH STREET, NEW YORK, NY 10013",349,GREENWICH STREET,NEW YORK,NY,10013,Manhattan,,(212) 688-5916,219
415,"DEFONTE'S OF NEW YORK, INC.",DEFONTE'S OF BROOKLYN,Unenclosed Sidewalk Cafe,1320327,"261 THIRD AVENUE, NEW YORK, NY 10010",261,THIRD AVENUE,NEW YORK,NY,10010,Manhattan,,(718) 317-6413,268
416,DELILLO PASTRY SHOP INC.,DELILLO PASTRY SHOP,Unenclosed Sidewalk Cafe,1371798,"610 E 187TH ST, BRONX, NY 10458",610,E 187TH ST,BRONX,NY,10458,Bronx,,(718) 367-8198,185
417,"DELUXE ON BROADWAY, INC.",DELUXE,Unenclosed Sidewalk Cafe,999448,"2896 BROADWAY, NEW YORK, NY 10025",2896,BROADWAY,NEW YORK,NY,10025,Manhattan,,(212) 513-1988,306
418,DESMO 916 CORP.,LAVAGNA,Unenclosed Sidewalk Cafe,1308999,"545 EAST    5 STREET, NEW YORK, NY 10009",545,EAST    5 STREET,NEW YORK,NY,10009,Manhattan,,(212) 979-1005,162
419,DESSYN BAKERY CORP,MILLEFEUILLE BAKERY CAFE,Unenclosed Sidewalk Cafe,1431733,"552 LAGUARDIA PL, NEW YORK, NY 10012",552,LAGUARDIA PL,NEW YORK,NY,10012,Manhattan,,(212) 533-4698,83
420,"DINNER IS READY, LLC",LEYLA,Enclosed Sidewalk Cafe,1375447,"84 7TH AVE S, NEW YORK, NY 10014",84,7TH AVE S,NEW YORK,NY,10014,Manhattan,,(718) 419-4379,290
421,DLS CHICKEN CORP,,Unenclosed Sidewalk Cafe,1246104,"355 AMSTERDAM AVENUE, NEW YORK, NY 10024",355,AMSTERDAM AVENUE,NEW YORK,NY,10024,Manhattan,,(212) 787-6631,305
422,DMF GRAMERCY ENTERPRISES INC,PETE'S TAVERN       S/C #111,Unenclosed Sidewalk Cafe,293907,"129 EAST   18 STREET, NEW YORK, NY 10003",129,EAST   18 STREET,NEW YORK,NY,10003,Manhattan,,(212) 473-7676,611
423,DOJO RESTAURANT INC,DOJO WEST,Unenclosed Sidewalk Cafe,890588,"14 W 4 ST, NEW YORK, NY 10012",14,W 4 ST,NEW YORK,NY,10012,Manhattan,,(212) 674-2516,218
424,"DON PABLO, INC.",,Unenclosed Sidewalk Cafe,1344183,"1725 2 AVENUE, NEW YORK, NY 10128",1725,   2 AVENUE,NEW YORK,NY,10128,Manhattan,,(212) 289-8944,207
425,DONATO'S ITALIAN BISTRO INC,DONATO'S ITALIAN BISTRO,Unenclosed Sidewalk Cafe,1433268,"3402 BROADWAY, ASTORIA, NY 11106",3402,BROADWAY,ASTORIA,NY,11106,Queens,,(718) 507-4591,154
426,DONATO'S PIZZERIA RESTAURANT CORP,DONATO'S PIZZERIA,Unenclosed Sidewalk Cafe,1199111,"50-22 39 AVENUE, QUEENS, NY 11377",50-22,  39 AVENUE,QUEENS,NY,11377,Queens,,(718) 507-9049,263
427,DONIZETTI LLC,FIVE NAPKIN BURGER,Unenclosed Sidewalk Cafe,1341402,"2315 BROADWAY, NEW YORK, NY 10024",2315,BROADWAY,NEW YORK,NY,10024,Manhattan,,(212) 757-2277,360
428,DUCKS EATERY EV LLC,DUCKS EATERY,Unenclosed Sidewalk Cafe,1440801,"351 E 12TH ST, NEW YORK, NY 10003",351,E 12TH ST,NEW YORK,NY,10003,Manhattan,,(212) 375-8483,
429,DULJO CORP.,BROTHERS PIZZA,Unenclosed Sidewalk Cafe,1255149,"30-50 14 STREET, QUEENS, NY 11102",30-50,  14 STREET,QUEENS,NY,11102,Queens,,(718) 777-1111,126
430,"DUMONT BURGER, LLC",DUMONT BURGER,Unenclosed Sidewalk Cafe,1282391,"314 BEDFORD AVE, BROOKLYN, NY 11249",314,BEDFORD AVE,BROOKLYN,NY,11249,Brooklyn,,(718) 384-6128,288
431,"DUNMORE NEW YORK, INC.",JAKE'S SALOON,Unenclosed Sidewalk Cafe,1139506,"875 TENTH AVENUE, NEW YORK, NY 10019",875,TENTH AVENUE,NEW YORK,NY,10019,Manhattan,,(212) 333-3100,219
432,DYNAMIC MUSIC CORP,OLIVE TREE CAFE,Unenclosed Sidewalk Cafe,807555,"117 MACDOUGAL ST, NEW YORK, NY 10012",117,MACDOUGAL ST,NEW YORK,NY,10012,Manhattan,,(212) 254-7533,46
433,E. A. T. IS OWNED BY ELI ZABAR INC.,,Unenclosed Sidewalk Cafe,1172157,"1064 MADISON AVE, NEW YORK, NY 10028",1064,MADISON AVE,NEW YORK,NY,10028,Manhattan,,(212) 772-2011,127
434,"EAE, CORP",SIDEWALK BAR & RESTAURANT,Unenclosed Sidewalk Cafe,1076706,"94 AVE A, NEW YORK, NY 10009",94,AVE A,NEW YORK,NY,10009,Manhattan,,(212) 473-7373,482
435,EARTHEN GRILL INC.,HIGHPOINT BISTRO & BAR,Unenclosed Sidewalk Cafe,1355352,"216 7TH AVE, NEW YORK, NY 10011",216, 7TH AVE,NEW YORK,NY,10011,Manhattan,,(201) 253-7373,126
436,"EAST COUNTY LOUTH, INC",THE PENNY FARTHING,Unenclosed Sidewalk Cafe,1356675,"103 3RD AVE, NEW YORK, NY 10003",103,3RD AVE,NEW YORK,NY,10003,Manhattan,,(212) 358-1902,291
437,EAST PUB INC,PHEBE'S,Enclosed Sidewalk Cafe,1192051,"359-361 BOWERY, NEW YORK, NY 10003",359-361,BOWERY,NEW YORK,NY,10003,Manhattan,,(212) 358-1902,808
438,EAST SIDE BURGERS LLC,BARE BURGER,Unenclosed Sidewalk Cafe,1420350,"1370 1ST AVE, NEW YORK, NY 10021",1370,   1ST AVE,NEW YORK,NY,10021,Manhattan,,(347) 419-2285,326
439,EAST SIDE DD 113 LLC,DUNKIN DONUTS / BASKIN ROBBINS,Enclosed Sidewalk Cafe,1283854,"567 3RD AVE, NEW YORK, NY 10016",567,3RD AVE,NEW YORK,NY,10016,Manhattan,FL 5,(212) 532-5003,113
440,EAST VILLAGE 4TH STREET CAFE INC,STILLWATER BAR & GRILL,Unenclosed Sidewalk Cafe,1387878,"78-80 EAST    4 STREET, NEW YORK, NY 10003",78-80,EAST    4 STREET,NEW YORK,NY,10003,Manhattan,,(917) 977-0470,137
441,EATER EATS CROW LLC,SEL ET GRAS,Unenclosed Sidewalk Cafe,1432786,"131 7TH AVE S, NEW YORK, NY 10014",131,  7TH AVE S,NEW YORK,NY,10014,Manhattan,,(718) 689-4722,248
442,EGG WHITE INC,BLOCKHEADS,Unenclosed Sidewalk Cafe,1023023,"1563 2ND AVE, NEW YORK, NY 10028",1563,2ND AVE,NEW YORK,NY,10028,Manhattan,,(212) 356-0006,175
443,EIGHTY THIRD AND FIRST LLC,,Unenclosed Sidewalk Cafe,1388781,"1593 1 AVENUE, NEW YORK, NY 10028",1593,   1 AVENUE,NEW YORK,NY,10028,Manhattan,,(212) 207-6680,429
444,EISEN & SON INC.,,Unenclosed Sidewalk Cafe,1193339,"196 EIGHTH AVENUE, NEW YORK, NY 10011",196,EIGHTH AVENUE,NEW YORK,NY,10011,Manhattan,,(212) 242-4551,253
445,EKD TAVERN INC,,Unenclosed Sidewalk Cafe,1204137,"450 AMSTERDAM AVENUE, NEW YORK, NY 10024",450,AMSTERDAM AVENUE,NEW YORK,NY,10024,Manhattan,,(212) 595-5670,99
446,EL SAYED 1 CORP.,HORUS KABAB HOUSE,Enclosed Sidewalk Cafe,1272901,"93 AVENUE B, NEW YORK, NY 10009",93,AVENUE B,NEW YORK,NY,10009,Manhattan,AKA 601 EAST 6 STREET,(212) 777-9199,290
447,ELEVATED ENTERTAINMENT RESTAURANTS LLC,CORNERSTONE TAVERN/THE STAG'S HEAD,Unenclosed Sidewalk Cafe,1349184,"961 2ND AVE, NEW YORK, NY 10022",961, 2ND AVE,NEW YORK,NY,10022,Manhattan,,(212) 888-7403,219
448,"ELI-LILLA, INC.",CAFE ROMA,Unenclosed Sidewalk Cafe,1388457,"385 BROOME STREET, NEW YORK, NY 10013",385,BROOME STREET,NEW YORK,NY,10013,Manhattan,,(212) 226-8413,175
449,ELI'S MANHATTAN WAREHOUSE INC.,ELI'S MANHATTAN,Unenclosed Sidewalk Cafe,1159625,"1411 3RD AVE, NEW YORK, NY 10028",1411,3RD AVE,NEW YORK,NY,10028,Manhattan,,(212) 717-8100,87
450,ELORA SPANISH MEXICAN RESTAURANT INC.,ELORA'S RESTAURANT,Unenclosed Sidewalk Cafe,1309926,"272 PROSPECT PARK W, BROOKLYN, NY 11215",272,PROSPECT PARK W,BROOKLYN,NY,11215,Brooklyn,,(646) 256-8987,202
451,ELSAYED III CORP.,HORUS CORP,Unenclosed Sidewalk Cafe,1230537,"293 E 10TH ST, NEW YORK, NY 10009",293,E 10TH ST,NEW YORK,NY,10009,Manhattan,,(212) 228-4774,401
452,EMPORIUM BRASIL INC.,EMPORIUM BRASIL CAFE & RESTAURANT,Unenclosed Sidewalk Cafe,1167146,"15 WEST   46 STREET, NEW YORK, NY 10036",15,WEST   46 STREET,NEW YORK,NY,10036,Manhattan,,(212) 764-4545,173
453,"EN CASA, LLC",CARINO,Unenclosed Sidewalk Cafe,1391282,"82 SOUTH    4 STREET, BROOKLYN, NY 11211",82,SOUTH    4 STREET,BROOKLYN,NY,11211,Brooklyn,,(718) 384-5576,122
454,ENID'S CORPORATION,ENID'S,Unenclosed Sidewalk Cafe,1233115,"560 MANHATTAN AVENUE, BROOKLYN, NY 11222",560,MANHATTAN AVENUE,BROOKLYN,NY,11222,Brooklyn,,(718) 349-3859,284
455,"ENOLOGO, INC",ENOLOGO,Unenclosed Sidewalk Cafe,1421925,"857 9TH AVE, NEW YORK, NY 10019",857,   9TH AVE,NEW YORK,NY,10019,Manhattan,,(212) 956-,44
456,"ENTERPRISE RESTAURANT, LLC.",AMARANTH,Unenclosed Sidewalk Cafe,1170995,"21 E  62ND ST, NEW YORK, NY 10065",21,E  62ND ST,NEW YORK,NY,10065,Manhattan,,(212) 980-6700,102
457,"ENZO THIRD AVE., LLC",,Unenclosed Sidewalk Cafe,1390379,"443-447 3 AVENUE, NEW YORK, NY 10016",443-447,   3 AVENUE,NEW YORK,NY,10016,Manhattan,,(917) 751-0002,240
458,EP PROPERTIES LTD.,PER LEI RESTAURANT,Unenclosed Sidewalk Cafe,1220381,"1347 2 AVENUE, NEW YORK, NY 10021",1347,   2 AVENUE,NEW YORK,NY,10021,Manhattan,,(212) 439-9200,448
459,EROS RESTAURANT CORP,LA MEDITERRANEE,Unenclosed Sidewalk Cafe,1194128,"947 2ND AVE, NEW YORK, NY 10022",947,2ND AVE,NEW YORK,NY,10022,Manhattan,,(212) 755-4155,86
460,ERS ENTERPRISES INC.,,Enclosed Sidewalk Cafe,1229629,"44 WEST   63 STREET, NEW YORK, NY 10023",44,WEST   63 STREET,NEW YORK,NY,10023,Manhattan,,(212) 957-9700,880
461,F-C LLC,CALYER,Unenclosed Sidewalk Cafe,1420945,"90-92 CALYER ST, BROOKLYN, NY 11222",90-92,CALYER ST,BROOKLYN,NY,11222,Brooklyn,,(718) 938-2661,192
462,FABLES INC,SCOPELLO,Unenclosed Sidewalk Cafe,1396047,"63 LAFAYETTE AVENUE, BROOKLYN, NY 11217",63,LAFAYETTE AVENUE,BROOKLYN,NY,11217,Brooklyn,,(718) 852-1100,143
463,FACOSULL CORP.,THE FOUR-FACED LIAR,Unenclosed Sidewalk Cafe,1166884,"165 W 4TH ST, NEW YORK, NY 10014",165,W 4TH ST,NEW YORK,NY,10014,Manhattan,,(212) 366-0608,134
464,FAITH E.F.I. CORP.,EFFY'S CAFE,Unenclosed Sidewalk Cafe,1217336,"1638 THIRD AVENUE, NEW YORK, NY 10128",1638,THIRD AVENUE,NEW YORK,NY,10128,Manhattan,BETWEEN 91 & 92 STREET,(212) 427-8900,132
465,FEENJON CORP,,Unenclosed Sidewalk Cafe,855696,"103-105 MACDOUGAL STREET, NEW YORK, NY 10012",103-105,MACDOUGAL STREET,NEW YORK,NY,10012,Manhattan,,(212) 674-6968,175
466,FELLOW TRAVELERS LTD,THREE OF CUPS,Unenclosed Sidewalk Cafe,895644,"83 1 AVENUE, NEW YORK, NY 10003",83,   1 AVENUE,NEW YORK,NY,10003,Manhattan,,(212) 388-0059,231
467,FELTRIM RESTAURANT CORP,TWELVE,Unenclosed Sidewalk Cafe,1190469,"206 EAST   34 STREET, NEW YORK, NY 10016",206,EAST   34 STREET,NEW YORK,NY,10016,Manhattan,,(212) 545-9912,140
468,FETA AND CAPERS LLC,CAFE GITANE,Unenclosed Sidewalk Cafe,1383431,"113 JANE ST, NEW YORK, NY 10014",113,JANE ST,NEW YORK,NY,10014,Manhattan,,(212) 255-4143,218
469,"FGNY 496 LAGUARDIA, LLC",FIVE GUYS BURGERS AND FRIES,Unenclosed Sidewalk Cafe,1279546,"496 LAGUARDIA PLACE, NEW YORK, NY 10012",496,LAGUARDIA PLACE,NEW YORK,NY,10012,Manhattan,,(212) 505-5861,96
470,FIDDLESTICKS LLC,FIDDLESTICKS,Unenclosed Sidewalk Cafe,1133898,"54-56 GREENWICH AVE, NEW YORK, NY 10011",54-56,GREENWICH AVE,NEW YORK,NY,10011,Manhattan,,(212) 463-0516,323
471,FIG & OLIVE THIRTEEN STREET LLC,FIG & OLIVE,Unenclosed Sidewalk Cafe,1343247,"420 W 13TH ST, NEW YORK, NY 10014",420,W 13TH ST,NEW YORK,NY,10014,Manhattan,,(917) 512-6998,600
472,"FILLIP'S CATERING, INC.",CAFE CHAMPIGNON,Unenclosed Sidewalk Cafe,1165611,"200 7TH AVE, NEW YORK, NY 10011",200, 7TH AVE,NEW YORK,NY,10011,Manhattan,,(212) 366-4410,154
473,"FIORELLO'S ROMAN CAFE, INC.",FIORELLO'S ROMAN CAFE,Unenclosed Sidewalk Cafe,1137714,"1 LINCOLN PLAZA, NEW YORK, NY 10023",1,LINCOLN PLAZA,NEW YORK,NY,10023,Manhattan,,(212) 595-5330,575
474,FIRST 69TH ST REALTY CORP,WESTSIDE RESTAURANT E/S/C #417,Enclosed Sidewalk Cafe,769760,"2020 BROADWAY, NEW YORK, NY 10023",2020,BROADWAY,NEW YORK,NY,10023,Manhattan,,(212) 724-4000,422
475,"FIRST AVENUE BROTHER JIMMY'S, LLC",BROTHER JIMMY'S BBQ,Enclosed Sidewalk Cafe,1067948,"1485 2ND AVE, NEW YORK, NY 10075",1485,   2ND AVE,NEW YORK,NY,10075,Manhattan,,(212) 288-0999,346
476,FIRST DACIA CORPORATION,ROMANIAN GARDEN,Unenclosed Sidewalk Cafe,1391233,"4306 43RD AVE, SUNNYSIDE, NY 11104",4306,43RD AVE,SUNNYSIDE,NY,11104,Queens,43-02-28 43RD AVE GRND FLOOR,(718) 786-7894,213
477,FIVE LAMPS CORP,FIVE LAMPS TAVERN,Unenclosed Sidewalk Cafe,1421212,"2756 BROADWAY, NEW YORK, NY 10025",2756,BROADWAY,NEW YORK,NY,10025,Manhattan,,(646) 465-1111,341
478,"FLAGSHIP S B AMSTERDAM NY, LLC",SARAVANA BHAVAN,Unenclosed Sidewalk Cafe,1396587,"413 AMSTERDAM AVE, NEW YORK, NY 10024",413,AMSTERDAM AVE,NEW YORK,NY,10024,Manhattan,,(212) 721-7755,198
479,FLB VIKTORIA CORP,FRATELLI LA BUFALA,Enclosed Sidewalk Cafe,1449525,"2161 BROADWAY, NEW YORK, NY 10024",2161,BROADWAY,NEW YORK,NY,10024,Manhattan,,(212) 496-5303,
480,FLEJ INC.,POMODORO ROSSO,Unenclosed Sidewalk Cafe,1186113,"229 COLUMBUS AVENUE, NEW YORK, NY 10023",229,COLUMBUS AVENUE,NEW YORK,NY,10023,Manhattan,,(212) 721-3009,162
481,FOODS FOR JUNIORS INC,JUNIORS RESTAURANT,Enclosed Sidewalk Cafe,767745,"386 FLATBUSH AVENUE EXTENSION, BROOKLYN, NY 11201",386,FLATBUSH AVENUE EXTENSION,BROOKLYN,NY,11201,Brooklyn,,(718) 852-5257,123
482,FORTUNATO BROS.CAFE & BAKERY CORP,,Enclosed Sidewalk Cafe,761576,"289 MANHATTAN AVENUE, BROOKLYN, NY 11211",289,MANHATTAN AVENUE,BROOKLYN,NY,11211,Brooklyn,E/S/C #357,(718) 387-2281,422
483,FOUR GREEN FIELDS LLC,AGAVE,Enclosed Sidewalk Cafe,1131159,"140 7 AVENUE SOUTH, NEW YORK, NY 10014",140,   7 AVENUE SOUTH,NEW YORK,NY,10014,Manhattan,,(212) 989-2100,240
484,FOUR GREEN FIELDS LLC.,AGAVE,Unenclosed Sidewalk Cafe,1220688,"140 7TH AVE S, NEW YORK, NY 10014",140,7TH AVE S,NEW YORK,NY,10014,Manhattan,,(212) 989-2100,430
485,FRANCESCA MERCHANTS LLC,PRIME MEAT,Unenclosed Sidewalk Cafe,1352460,"465 COURT ST, BROOKLYN, NY 11231",465,COURT ST,BROOKLYN,NY,11231,Brooklyn,,(718) 403-0033,301
486,"FRANCIS LOUIS, LLC",FRANKIE'S 570 SPUNTINO,Unenclosed Sidewalk Cafe,1387557,"570 HUDSON STREET, NEW YORK, NY 10014",570,HUDSON STREET,NEW YORK,NY,10014,Manhattan,,(718) 403-0033,283
487,FRANCO-AMERICAN RESTAURANT INVESTMENT GROUP INC,THE TEA SET,Unenclosed Sidewalk Cafe,1383038,"235 WEST   12 STREET, NEW YORK, NY 10014",235,WEST   12 STREET,NEW YORK,NY,10014,Manhattan,,(646) 894-0511,41
488,FRENCH ROAST INC,,Unenclosed Sidewalk Cafe,907203,"78 WEST   11 STREET, MANHATTAN, NY 10011",78,WEST   11 STREET,MANHATTAN,NY,10011,Manhattan,A/K/A 456 6 AVENUE,(212) 505-7570,157
489,"FRESCO BAGEL, LLC",,Enclosed Sidewalk Cafe,1301779,"1239 1 AVENUE, NEW YORK, NY 10065",1239,   1 AVENUE,NEW YORK,NY,10065,Manhattan,,(212) 513-1988,345
490,"FRIEDFIELD BRESLIN, LLC",THE JOHN DORY OYSTER BAR,Unenclosed Sidewalk Cafe,1388245,"1186 BROADWAY, NEW YORK, NY 10001",1186,BROADWAY,NEW YORK,NY,10001,Manhattan,AKA: 16 WEST 29TH STREET,(646) 246-,432
491,FRIEND OF A FARMER CORP,,Unenclosed Sidewalk Cafe,819452,"77 IRVING PLACE, NEW YORK, NY 10003",77,IRVING PLACE,NEW YORK,NY,10003,Manhattan,,(212) 477-2188,252
492,FRIENDLY FOODS LLC,PULINO'S BAR & PIZZERIA,Unenclosed Sidewalk Cafe,1343045,"282 BOWERY, NEW YORK, NY 10012",282,BOWERY,NEW YORK,NY,10012,Manhattan,,(212) 925-5340,306
493,FULTONGRAND BAR INC,FULTON GRAND,Unenclosed Sidewalk Cafe,1379033,"1011 FULTON STREET, BROOKLYN, NY 11238",1011,FULTON STREET,BROOKLYN,NY,11238,Brooklyn,,(718) 399-8840,365
494,FUSHA 58 INC.,,Unenclosed Sidewalk Cafe,1376636,"1065 1ST AVE, NEW YORK, NY 10022",1065,1ST AVE,NEW YORK,NY,10022,Manhattan,A.K.A 357 E. 58TH ST,(212) 752-8883,107
495,FUSION SUSHI INC.,HANE SUSHI,Unenclosed Sidewalk Cafe,1250556,"346 1 AVENUE, NEW YORK, NY 10009",346,   1 AVENUE,NEW YORK,NY,10009,Manhattan,,(646) 662-1889,562
496,G & J CAFE INC.,CAFE CON LECHE,Unenclosed Sidewalk Cafe,1400049,"424 AMSTERDAM AVENUE, NEW YORK, NY 10024",424,AMSTERDAM AVENUE,NEW YORK,NY,10024,Manhattan,,(212) 595-7000,146
497,"G.D.P. ENTERPRISES, INC.",AGOZAR,Unenclosed Sidewalk Cafe,1225841,"324 BOWERY, NEW YORK, NY 10012",324,BOWERY,NEW YORK,NY,10012,Manhattan,,(212) 677-6773,111
498,G.K. RESTAURANT & BAGELS CORP.,BAGEL BOB'S ON YORK,Enclosed Sidewalk Cafe,976336,"1638 YORK AVENUE, NEW YORK, NY 10028",1638,YORK AVENUE,NEW YORK,NY,10028,Manhattan,,(212) 535-3838,185
499,G.V.S BAKERY INC,MARTHA'S COUNTRY BAKERY,Unenclosed Sidewalk Cafe,1280485,"3621 DITMARS BLVD, ASTORIA, NY 11105",3621,DITMARS BLVD,ASTORIA,NY,11105,Queens,,(718) 726-6969,453
500,GADBERRY PIZZA INC.,BLEECKER STREET PIZZA,Unenclosed Sidewalk Cafe,1183527,"69-71 7 AVENUE SOUTH, NEW YORK, NY 10014",69-71,   7 AVENUE SOUTH,NEW YORK,NY,10014,Manhattan,,() -,70
501,GALLO NERO INC,CIAO,Unenclosed Sidewalk Cafe,1099505,"185 BLEEKER STREET, NEW YORK, NY 10012",185,BLEEKER STREET,NEW YORK,NY,10012,Manhattan,,(212) 673-8901,291
502,GANS-MEX LLC,MPD,Unenclosed Sidewalk Cafe,1384348,"73 GANSEVOORT STREET, NEW YORK, NY 10014",73,GANSEVOORT STREET,NEW YORK,NY,10014,Manhattan,,(646) 810-7290,567
503,"GARDEN CAFE ASSOCIATES, LLC",B BAR & GRILL,Unenclosed Sidewalk Cafe,1381793,"40 EAST    4 STREET, NEW YORK, NY 10003",40,EAST    4 STREET,NEW YORK,NY,10003,Manhattan,,(212) 475-2220,198
504,GARI INTERNATIONAL INC.,GARI,Unenclosed Sidewalk Cafe,1337067,"370 COLUMBUS AVENUE, NEW YORK, NY 10024",370,COLUMBUS AVENUE,NEW YORK,NY,10024,Manhattan,,(212) 362-4816,191
505,GAT 35 CORP.,DA ANDREA,Unenclosed Sidewalk Cafe,1307585,"35 WEST   13 STREET, NEW YORK, NY 10011",35,WEST   13 STREET,NEW YORK,NY,10011,Manhattan,,(212) 367-1979,168
506,GENINO INC,VICO,Unenclosed Sidewalk Cafe,1276520,"1302 MADISON AVE, NEW YORK, NY 10128",1302,MADISON AVE,NEW YORK,NY,10128,Manhattan,,(212) 867-2222,102
507,"GEORGE'S SCC, INC",GEORGES RESTAURANT,Enclosed Sidewalk Cafe,1257387,"3000 BUHRE AVENUE, BRONX, NY 10461",3000,BUHRE AVENUE,BRONX,NY,10461,Bronx,,(718) 863-5256,511
508,GIANNINO'S PIZZA CORP.,SAL'S PIZZERIA,Unenclosed Sidewalk Cafe,1192327,"305 COURT STREET, BROOKLYN, NY 11231",305,COURT STREET,BROOKLYN,NY,11231,Brooklyn,,(718) 852-6890,416
509,"GIGINO, INC.",GIGINO TRATTORIA,Unenclosed Sidewalk Cafe,1177240,"323 GREENWICH ST, NEW YORK, NY 10013",323,GREENWICH ST,NEW YORK,NY,10013,Manhattan,,(212) 431-1112,115
510,"GILLI, INC.",GILLI REST,Unenclosed Sidewalk Cafe,929109,"417 AMSTERDAM AVENUE, NEW YORK, NY 10024",417,AMSTERDAM AVENUE,NEW YORK,NY,10024,Manhattan,,(212) 362-1180,280
511,GISELLA & KATE CAFE INC,ATLAS CAFE,Unenclosed Sidewalk Cafe,1190476,"73 2ND AVE, NEW YORKE, NY 10003",73,2ND AVE,NEW YORKE,NY,10003,Manhattan,,(212) 539-0966,73
512,GJ & S RESTAURANT INC.,SPIGOLO,Unenclosed Sidewalk Cafe,1196956,"1561 SECOND AVENUE, NEW YORK, NY 10028",1561,SECOND AVENUE,NEW YORK,NY,10028,Manhattan,,(212) 744-1100,336
513,GLOBAL ENTERTAINMENT GROUP LLC,PLAY,Unenclosed Sidewalk Cafe,1310995,"77-17 QUEENS BOULEVARD, ELMHURST, NY 11373",77-17,QUEENS BOULEVARD,ELMHURST,NY,11373,Queens,,(718) 651-9009,275
514,GLOBAL VILLAGE GRILL INC.,MONACO,Unenclosed Sidewalk Cafe,1215000,"421 AMSTERDAM AVENUE, NEW YORK, NY 10024",421,AMSTERDAM AVENUE,NEW YORK,NY,10024,Manhattan,,(212) 873-3100,357
515,GMT NEW YORK LLC,GMT TAVERN,Unenclosed Sidewalk Cafe,1382861,"142 BLEECKER STREET, NEW YORK, NY 10012",142,BLEECKER STREET,NEW YORK,NY,10012,Manhattan,,(917) 216-0496,500
516,GNSY LLC,PATISSERIE DES AMBASSASES,Unenclosed Sidewalk Cafe,1346231,"2200-02 FREDERICK DOUGLASS BLVD, NEW YORK, NY 10026",2200-02,FREDERICK DOUGLASS BLVD,NEW YORK,NY,10026,Manhattan,,(212) 666-0078,203
517,GOAT FIFTY LLC,NELSON BLUE,Unenclosed Sidewalk Cafe,1260890,"36 PECK SLIP, NEW YORK, NY 10038",36,PECK SLIP,NEW YORK,NY,10038,Manhattan,,(212) 346-9090,311
518,GOOD ENOUGH TO EAT UPTOWN LTD,GOOD ENOUGH TO EAT,Unenclosed Sidewalk Cafe,1027927,"483 AMSTERDAM AVE, NEW YORK, NY 10024",483,AMSTERDAM AVE,NEW YORK,NY,10024,Manhattan,,(212) 496-0163,175
519,GOTHAM YARD CORP,,Unenclosed Sidewalk Cafe,1389433,"1359 1 AVENUE, NEW YORK, NY 10021",1359,   1 AVENUE,NEW YORK,NY,10021,Manhattan,,(212) 517-4445,272
520,GRAHAM CENTRAL CAFE LTD,LA PIAZZETTA,Unenclosed Sidewalk Cafe,1396407,"442 GRAHAM AVENUE, BROOKLYN, NY 11211",442,GRAHAM AVENUE,BROOKLYN,NY,11211,Brooklyn,,(718) 349-1627,117
521,GRAHAM RESTAURANT LLC,,Unenclosed Sidewalk Cafe,1395264,"299-301 GRAHAM AVENUE, BROOKLYN, NY 11211",299-301,GRAHAM AVENUE,BROOKLYN,NY,11211,Brooklyn,,(917) 304-3857,203
522,GRAMERCY THAI. INC,LANTERN,Unenclosed Sidewalk Cafe,1277779,"311 2 AVENUE, NEW YORK, NY 10003",311,   2 AVENUE,NEW YORK,NY,10003,Manhattan,,(212) 529-9819,285
523,"GRAND ENDEAVORS, INC",CLEM'S,Unenclosed Sidewalk Cafe,1145629,"264 GRAND ST, BROOKLYN, NY 11211",264,GRAND ST,BROOKLYN,NY,11211,Brooklyn,,(718) 387-9617,264
524,GREEK KITCHEN INC.,THE GREEK KITCHEN,Enclosed Sidewalk Cafe,1299629,"885-889 10TH AVE, NEW YORK, NY 10019",885-889, 10TH AVE,NEW YORK,NY,10019,Manhattan,,(212) 581-4300,447
525,GREENWICH HOTEL RESTURANT LLC,LOCANDA VERDE,Unenclosed Sidewalk Cafe,1319263,"377 GREENWICH ST, NEW YORK, NY 10013",377,GREENWICH ST,NEW YORK,NY,10013,Manhattan,,(212) 533-7000,570
526,GREENWICH VILLAGE BISTRO LTD,GREENWICH VILLAGE BISTRO,Unenclosed Sidewalk Cafe,1030835,"13 CARMINE STREET, NEW YORK, NY 10014",13,CARMINE STREET,NEW YORK,NY,10014,Manhattan,,(212) 206-9777,130
527,GRILL 21 LLC,GRILL 21,Unenclosed Sidewalk Cafe,1221004,"346 E 21ST ST, NEW YORK, NY 10010",346,E 21ST ST,NEW YORK,NY,10010,Manhattan,,(212) 473-5950,108
528,GRILLADE LLC,,Unenclosed Sidewalk Cafe,1385577,"28 7 AVENUE SOUTH, NEW YORK, NY 10014",28,   7 AVENUE SOUTH,NEW YORK,NY,10014,Manhattan,,(212) 969-3822,428
529,"GRILLO, LTD",HENRY'S,Unenclosed Sidewalk Cafe,1025180,"2745 BROADWAY, NEW YORK, NY 10025",2745,BROADWAY,NEW YORK,NY,10025,Manhattan,,(212) 866-0600,908
530,"GROOVE ENTERPRISES,INC.",GROOVE,Unenclosed Sidewalk Cafe,1305277,"125 MACDOUGAL ST, NEW YORK, NY 10012",125,MACDOUGAL ST,NEW YORK,NY,10012,Manhattan,,(212) 254-9393,77
531,GROTTA AZZURRA INN INC.,,Unenclosed Sidewalk Cafe,1150943,"177 MULBERRY ST, NEW YORK, NY 10013",177,MULBERRY ST,NEW YORK,NY,10013,Manhattan,,(212) 925-8775,326
532,GROUBEN FOOD CORP.,,Unenclosed Sidewalk Cafe,1103083,"515 3 AVENUE, NEW YORK, NY 10016",515,   3 AVENUE,NEW YORK,NY,10016,Manhattan,,(212) 532-3300,125
533,GUEROS RESTAURANT INC.,,Unenclosed Sidewalk Cafe,1444657,"605 PROSPECT PLACE, BROOKLYN, NY 11238",605,PROSPECT PLACE,BROOKLYN,NY,11238,Brooklyn,,(718) 488-7253,184
534,GULLUOGLU LLC,,Unenclosed Sidewalk Cafe,1323044,"982 2ND AVE, NEW YORK, NY 10022",982, 2ND AVE,NEW YORK,NY,10022,Manhattan,,(212) 813-0500,163
535,"GUSTO GRILLED ORGANICS, INC",,Unenclosed Sidewalk Cafe,1382533,"519-523 6 AVENUE, NEW YORK, NY 10011",519-523,   6 AVENUE,NEW YORK,NY,10011,Manhattan,,(212) 202-0861,240
536,GYRO KING FOODS CORP.,,Unenclosed Sidewalk Cafe,1015214,"50 E FORDHAM RD, BRONX, NY 10468",50,E FORDHAM RD,BRONX,NY,10468,Bronx,A/K/A 2450 WALTON AVE,(718) 489-8050,127
537,"H.B RESTAURANT GROUP, INC.",,Enclosed Sidewalk Cafe,1338515,"2596 BROADWAY, NEW YORK, NY 10025",2596,BROADWAY,NEW YORK,NY,10025,Manhattan,,(212) 865-0400,344
538,HAILEY GRACE CORP,GENISIS BAR & RESTAURANT,Unenclosed Sidewalk Cafe,1219287,"1708 2ND AVE, NEW YORK, NY 10128",1708,2ND AVE,NEW YORK,NY,10128,Manhattan,,(212) 348-5500,227
539,"HAIRY MONK,CORP.",JOHNNY FOXES,Unenclosed Sidewalk Cafe,1251443,"1546 2 AVENUE, NEW YORK, NY 10028",1546,   2 AVENUE,NEW YORK,NY,10028,Manhattan,,(917) 676-7817,180
540,HAKUBAI INC,THE KITANO NEW YORK,Unenclosed Sidewalk Cafe,1379547,"66 PARK AVE, NEW YORK, NY 10016",66,PARK AVE,NEW YORK,NY,10016,Manhattan,,(212) 885-7000,478
541,"HALF PINT ON THOMPSON, LLC",THE HALF PINT,Unenclosed Sidewalk Cafe,1279573,"234 THOMPSON STREET, NEW YORK, NY 10012",234,THOMPSON STREET,NEW YORK,NY,10012,Manhattan,,(212) 260-1088,148
542,"HARMONY TERRACE, INC.",,Enclosed Sidewalk Cafe,1389476,"47-57 41 STREET, SUNNYSIDE, NY 11104",47-57,  41 STREET,SUNNYSIDE,NY,11104,Queens,,(718) 784-4651,321
543,HARRISON GREENWICH LLC,THE HARRISON,Unenclosed Sidewalk Cafe,1096353,"355 GREENWICH STREET, NEW YORK, NY 10013",355,GREENWICH STREET,NEW YORK,NY,10013,Manhattan,,(917) 415-7030,467
544,HARU AMSTERDAM AVENUE CORP.,HARU,Unenclosed Sidewalk Cafe,1027125,"433 AMSTERDAM AVE, NEW YORK, NY 10024",433,AMSTERDAM AVE,NEW YORK,NY,10024,Manhattan,,(212) 579-5655,291
545,HARU GRAMERCY PARK CORP.,HARU,Unenclosed Sidewalk Cafe,1191870,"220 PARK AVENUE SOUTH, NEW YORK, NY 10003",220,PARK AVENUE SOUTH,NEW YORK,NY,10003,Manhattan,,(646) 428-0989,257
546,HARU THIRD AVENUE CORP.,HARU,Unenclosed Sidewalk Cafe,1027124,"1329 3 AVENUE, NEW YORK, NY 10075",1329,   3 AVENUE,NEW YORK,NY,10075,Manhattan,,(212) 452-2230,249
547,"HARU TOO, INC.",HARU SAKE BAR,Unenclosed Sidewalk Cafe,1106426,"1327 3RD AVE, NEW YORK, NY 10021",1327,3RD AVE,NEW YORK,NY,10021,Manhattan,,() -,360
548,HASHI SUSHI FUSION INC,,Unenclosed Sidewalk Cafe,1395948,"5009 BROADWAY, NEW YORK, NY 10034",5009,BROADWAY,NEW YORK,NY,10034,Manhattan,,(646) 837-6888,222
549,HAVANA CENTRAL NY 3 LLC,HAVANA CENTRAL AT THE WEST END,Unenclosed Sidewalk Cafe,1225525,"2911 BROADWAY, NEW YORK, NY 10025",2911,BROADWAY,NEW YORK,NY,10025,Manhattan,,(212) 662-8830,349
550,HAVELI RESTAURANT INC.,,Unenclosed Sidewalk Cafe,1020216,"100 2 AVENUE, NEW YORK, NY 10003",100,   2 AVENUE,NEW YORK,NY,10003,Manhattan,,(212) 982-0533,179
551,"HELEDONA, INC",OLYMPIC FLAME DINER,Enclosed Sidewalk Cafe,984345,"200 WEST   60 STREET, NEW YORK, NY 10023",200,WEST   60 STREET,NEW YORK,NY,10023,Manhattan,,(212) 581-5259,328
552,HELL'S KITCHEN CREAM & SUGAR INC,,Unenclosed Sidewalk Cafe,1345738,"626 10 AVE, NEW YORK, NY 10036",626,  10 AVE,NEW YORK,NY,10036,Manhattan,,(212) 399-4450,153
553,HERSHA HOSPITALITY MANAGEMENT LP,NU HOTEL,Unenclosed Sidewalk Cafe,1390391,"85 SMITH STREET, BROOKLYN, NY 11201",85,SMITH STREET,BROOKLYN,NY,11201,Brooklyn,,(718) 468-3473,416
554,HI-LIFE SECOND AVE. LLC,HI-LIFE RESTAURANT & LOUNGE,Enclosed Sidewalk Cafe,1270176,"1503 2 AVENUE, NEW YORK, NY 10075",1503,   2 AVENUE,NEW YORK,NY,10075,Manhattan,,(917) 562-9424,481
555,"HILL COUNTRY NY, LLC",,Unenclosed Sidewalk Cafe,1247606,"30 WEST   26 STREET, NEW YORK, NY 10010",30,WEST   26 STREET,NEW YORK,NY,10010,Manhattan,,(212) 255-4544,180
556,HILLVIEW SPECIALITY FOOD INC,107 WEST RESTAURANT,Enclosed Sidewalk Cafe,1147364,"2787 BROADWAY, NEW YORK, NY 10025",2787,BROADWAY,NEW YORK,NY,10025,Manhattan,,(212) 864-1555,369
557,HL KOELN CORP,DER SCHWARZE KOELNER,Unenclosed Sidewalk Cafe,1345353,"710 FULTON STREET, BROOKLYN, NY 11217",710,FULTON STREET,BROOKLYN,NY,11217,Brooklyn,,(347) 841-4495,333
558,"HORSESHOES, NY INC.",DALTON'S BAR & GRILL,Unenclosed Sidewalk Cafe,1190049,"611 9 AVENUE, NEW YORK, NY 10036",611,   9 AVENUE,NEW YORK,NY,10036,Manhattan,,(212) 245-5511,91
559,HOT BREAD OF 104TH ST INC,HOT & CRYSPY,Unenclosed Sidewalk Cafe,1132659,"2724 BROADWAY, NEW YORK, NY 10025",2724,BROADWAY,NEW YORK,NY,10025,Manhattan,,(212) 666-4900,290
560,HPA RESTAURANT LLC,BEN & JACK'S STEAKHOUSE,Unenclosed Sidewalk Cafe,1357424,"255 5TH AVE, NEW YORK, NY 10016",255, 5TH AVE,NEW YORK,NY,10016,Manhattan,,(212) 532-7600,286
561,"HUDSON FALAFEL, INC.",HUDSON FALAFEL RESTAURANT,Unenclosed Sidewalk Cafe,1219470,"516 HUDSON ST, NEW YORK, NY 10014",516,HUDSON ST,NEW YORK,NY,10014,Manhattan,,(212) 242-3939,139
562,HUMMUS KITCHEN AMSTERDAM AVENUE INC.,HUMMUS KITCHEN,Unenclosed Sidewalk Cafe,1420049,"416 AMSTERDAM AVE, NEW YORK, NY 10024",416,AMSTERDAM AVE,NEW YORK,NY,10024,Manhattan,,(917) 731-9367,188
563,HUMMUS KITCHEN MURRAY HILL INC,HUMMUS KITCHEN,Unenclosed Sidewalk Cafe,1382017,"444 3 AVENUE, NEW YORK, NY 10016",444,   3 AVENUE,NEW YORK,NY,10016,Manhattan,,(917) 731-9367,76
564,HURRICANE STRAUSS INC,WESTVILLE,Unenclosed Sidewalk Cafe,1346238,"246 W 18TH ST, NEW YORK, NY 10011",246,W 18TH ST,NEW YORK,NY,10011,Manhattan,,(212) 741-7971,92
565,HUSSIEN ENVIRONMENT INC.,CLEOPATRAS NEEDLE.,Enclosed Sidewalk Cafe,916146,"2483 BROADWAY, NEW YORK, NY 10025",2483,BROADWAY,NEW YORK,NY,10025,Manhattan,,(212) 769-6969,228
566,I MALATESTA TRATTORIA INC,MALATESTA TRATTORIA,Unenclosed Sidewalk Cafe,1076713,"649 WASHINGTON STREET, NYC, NY 10014",649,WASHINGTON STREET,NYC,NY,10014,Manhattan,,(212) 741-1207,333
567,IANO CORP,ACQUA,Unenclosed Sidewalk Cafe,1277777,"718 AMSTERDAM AVENUE, NEW YORK, NY 10025",718,AMSTERDAM AVENUE,NEW YORK,NY,10025,Manhattan,,(212) 349-4433,324
568,IFETA CORP,DIWINE,Unenclosed Sidewalk Cafe,1311304,"41-15 31 AVENUE, ASTORIA, NY 11103",41-15,  31 AVENUE,ASTORIA,NY,11103,Queens,,(718) 777-1355,144
569,IGUANA NEW YORK LTD.,IGUANA,Unenclosed Sidewalk Cafe,1170078,"240 W 54TH ST, NEW YORK, NY 10019",240,W 54TH ST,NEW YORK,NY,10019,Manhattan,,(212) 765-5454,294
570,"IL BARETTO, LLC",,Unenclosed Sidewalk Cafe,1422759,"750 11TH AVE, NEW YORK, NY 10019",750,  11TH AVE,NEW YORK,NY,10019,Manhattan,,(212) 757-2270,172
571,IL BUCO CORP.,,Unenclosed Sidewalk Cafe,1109238,"47 BOND STREET, NEW YORK, NY 10012",47,BOND STREET,NEW YORK,NY,10012,Manhattan,,(212) 533-1932,154
572,IL BUCO VINERIA LLC,IL BUCO ALIMENTARI & VINERIA,Unenclosed Sidewalk Cafe,1422675,"53 GREAT JONES ST, NEW YORK, NY 10012",53,GREAT JONES ST,NEW YORK,NY,10012,Manhattan,,(212) 837-2622,105
573,IL COMMENDATORE RESTAURANT INC,CASA BELLA RESTAURANT,Unenclosed Sidewalk Cafe,1189682,"127 MULBERRY ST, NEW YORK, NY 10013",127,MULBERRY ST,NEW YORK,NY,10013,Manhattan,,(212) 431-4080,325
574,IL MATTONE CORP.,IL MATTONE,Unenclosed Sidewalk Cafe,1230536,"413 GREENWICH STREET, NEW YORK CITY, NY 10013",413,GREENWICH STREET,NEW YORK CITY,NY,10013,Manhattan,,(212) 343-0030,320
575,IL MELOGRANO LLC,,Unenclosed Sidewalk Cafe,1277785,"501 W 51ST ST, NEW YORK, NY 10019",501,W 51ST ST,NEW YORK,NY,10019,Manhattan,,(212) 757-9290,120
576,IL PORTO LLC,,Unenclosed Sidewalk Cafe,1310867,"37 WASHINGTON AVENUE, BROOKLYN, NY 11205",37,WASHINGTON AVENUE,BROOKLYN,NY,11205,Brooklyn,,(718) 624-0954,207
577,IL RIFUGIO INC,TARALLUCCI E VINO,Unenclosed Sidewalk Cafe,1382144,"475 COLUMBUS AVENUE, NEW YORK, NY 10024",475,COLUMBUS AVENUE,NEW YORK,NY,10024,Manhattan,,(212) 362-5454,195
578,ILION INC.,V.I.P.'S CAFE,Enclosed Sidewalk Cafe,1210814,"131 EAST GUNHILL ROAD, BRONX, NY 10467",131,EAST GUNHILL ROAD,BRONX,NY,10467,Bronx,,(718) 655-8500,169
579,INDIA FOOD INTERNATIONAL INC.,INDIAN CAFE,Enclosed Sidewalk Cafe,735569,"2791 BROADWAY, NEW YORK, NY 10025",2791,BROADWAY,NEW YORK,NY,10025,Manhattan,,(212) 749-9200,548
580,INOVATIVE RESTAURANTS LLC,INOTECA,Unenclosed Sidewalk Cafe,1141963,"133 LUDLOW STREET, NEW YORK, NY 10002",133,LUDLOW STREET,NEW YORK,NY,10002,Manhattan,98 RIVINGTON STREET,(212) 614-0473,183
581,ISLAND REST I CORP,ISLAND BURGERS & SHAKES,Unenclosed Sidewalk Cafe,1426156,"766 9TH AVE, NEW YORK, NY 10019",766,  9TH AVE,NEW YORK,NY,10019,Manhattan,,(212) 307-7934,60
582,"ITM GARDEN,INC.",,Unenclosed Sidewalk Cafe,1214291,"10 LITTLE WEST 12 ST, NEW YORK, NY 10014",10,LITTLE WEST 12 ST,NEW YORK,NY,10014,Manhattan,,(212) 226-1844,280
583,IVY'S BISTRO LLC,,Unenclosed Sidewalk Cafe,1261306,"385 GREENWICH STREET, NEW YORK, NY 10013",385,GREENWICH STREET,NEW YORK,NY,10013,Manhattan,,(212) 343-1139,172
584,IXHEL CORPORATION,CAFE FRIDA,Enclosed Sidewalk Cafe,1392090,"368 COLUMBUS AVENUE, NEW YORK, NY 10024",368,COLUMBUS AVENUE,NEW YORK,NY,10024,Manhattan,,(914) 235-7050,285
585,"J & D OPERATORS,LLC",PROHIBITION,Unenclosed Sidewalk Cafe,957290,"503 COLUMBUS AVE, NEW YORK, NY 10024",503,COLUMBUS AVE,NEW YORK,NY,10024,Manhattan,,(212) 579-3100,185
586,J OF K CORP,MOMOYA AMSTERDAM,Unenclosed Sidewalk Cafe,1265442,"427 AMSTERDAM AVENUE, NEW YORK, NY 10024",427,AMSTERDAM AVENUE,NEW YORK,NY,10024,Manhattan,,(212) 631-0049,177
587,J.J.M.A.P. CORP,VIA TRENTA,Unenclosed Sidewalk Cafe,1402273,"36-19 30TH AVE, ASTORIA, NY 11103",36-19, 30TH AVE,ASTORIA,NY,11103,Queens,,(201) 920-7558,357
588,J.M.M.T. CAFE INC,,Unenclosed Sidewalk Cafe,1225897,"360 3RD AVE, NEW YORK, NY 10016",360,3RD AVE,NEW YORK,NY,10016,Manhattan,,(212) 696-2122,103
589,"J.N.P.K.,INC",ARMONDO'S RESTAURANTE/S/C #672,Enclosed Sidewalk Cafe,832521,"74-27 37 AVENUE, JACKSON HEIGHTS, NY 11372",74-27,  37 AVENUE,JACKSON HEIGHTS,NY,11372,Queens,,(718) 898-0113,307
590,J.P.G. LLC,PHILIP MARIE,Unenclosed Sidewalk Cafe,1003313,"569 HUDSON STREET, NEW YORK, NY 10014",569,HUDSON STREET,NEW YORK,NY,10014,Manhattan,,(212) 242-6200,169
591,JADA RESTAURANT INC.,PETITE ABEILLE,Unenclosed Sidewalk Cafe,1029004,"134 W BROADWAY, NEW YORK, NY 10013",134,W BROADWAY,NEW YORK,NY,10013,Manhattan,,(212) 727-1505,214
592,JAMES-ZAC CORP.,BRUNO THE KING OF RAVIOLI,Unenclosed Sidewalk Cafe,1258099,"282-284 FIRST AVENUE, NEW YORK, NY 10009",282-284,FIRST AVENUE,NEW YORK,NY,10009,Manhattan,,(201) 646-0505,205
593,JAN CO CENTRAL INC,BURGER KING,Enclosed Sidewalk Cafe,1354338,"3451 BROADWAY, NY, NY 10031",3451,BROADWAY,NY,NY,10031,Manhattan,,(401) 946-4000,152
594,"JAPONICA-U.S.A.,INC.",JAPONICA,Enclosed Sidewalk Cafe,885853,"100 UNIVERSITY PLACE, NEW YORK, NY 10003",100,UNIVERSITY PLACE,NEW YORK,NY,10003,Manhattan,,(212) 243-7752,226
595,JEMANYA CORP,MISS FAVELA,Unenclosed Sidewalk Cafe,1331625,"57 SOUTH    5 STREET, BROOKLYN, NY 11211",57,SOUTH    5 STREET,BROOKLYN,NY,11211,Brooklyn,,(718) 230-4040,168
596,JESSICA CHELSEA CORP,TELLO'S,Unenclosed Sidewalk Cafe,1384661,"198 8 AVENUE, NEW YORK, NY 10011",198,   8 AVENUE,NEW YORK,NY,10011,Manhattan,,(212) 691-8696,332
597,"JL MEGRE CO., INC.",HAAGEN-DAZS SHOP #107,Unenclosed Sidewalk Cafe,1278108,"120 MONTAGUE ST, BROOKLYN, NY 11201",120,MONTAGUE ST,BROOKLYN,NY,11201,Brooklyn,,(718) 797-3700,62
598,JO-RACH INC,THE CAFFE PALERMO,Unenclosed Sidewalk Cafe,920440,"148 MULBERRY STREET, NY, NY 10013",148,MULBERRY STREET,NY,NY,10013,Manhattan,,(212) 431-4205,125
599,JOHN-PHIL TAVERN CORP,PARNELLS,Unenclosed Sidewalk Cafe,1219526,"350 E 53RD ST, NEW YORK, NY 10022",350,E 53RD ST,NEW YORK,NY,10022,Manhattan,,(212) 753-1761,322
600,JOS HOSPITALITY GROUP LLC,B CAFE,Unenclosed Sidewalk Cafe,1312628,"566 AMSTERDAM AVE, NEW YORK, NY 10024",566,AMSTERDAM AVE,NEW YORK,NY,10024,Manhattan,,(646) 245-3459,108
601,"JOY BURGER BAR, INC.",,Unenclosed Sidewalk Cafe,1386368,"361 AVENUE OF THE AMERICAS, NEW YORK, NY 10014",361,AVENUE OF THE AMERICAS,NEW YORK,NY,10014,Manhattan,,(212) 414-9500,296
602,JPD RESTAURANT LLC,PIG N' WHISTLE,Unenclosed Sidewalk Cafe,1368233,"202 WEST   36 STREET, NEW YORK, NY 10018",202,WEST   36 STREET,NEW YORK,NY,10018,Manhattan,,(212) 239-4820,47
603,JPS VENTURES INC.,ST. JAMES CAFE,Enclosed Sidewalk Cafe,1283643,"441 AMSTERDAM AVE, NEW YORK, NY 10024",441,AMSTERDAM AVE,NEW YORK,NY,10024,Manhattan,,(212) -,224
604,"JPS VENTURES, INC",ST. JAMES GATE,Unenclosed Sidewalk Cafe,1283635,"441 AMSTERDAM AVENUE, NEW YORK, NY 10024",441,AMSTERDAM AVENUE,NEW YORK,NY,10024,Manhattan,,(212) 362-6202,120
605,JRC GROUP INC,,Enclosed Sidewalk Cafe,1245357,"1501 2 AVENUE, NEW YORK, NY 10075",1501,   2 AVENUE,NEW YORK,NY,10075,Manhattan,,(212) 327-0582,323
606,JTN RIVIERA CORP,BISTRO 61,Unenclosed Sidewalk Cafe,1310081,"1113 FIRST AVENUE, NEW YORK, NY 10065",1113,FIRST AVENUE,NEW YORK,NY,10065,Manhattan,,(212) 223-6220,169
607,JUDEX ENTERPRISES INC.,PANGEA,Unenclosed Sidewalk Cafe,954269,"178 2 AVENUE, NEW YORK, NY 10003",178,   2 AVENUE,NEW YORK,NY,10003,Manhattan,,(212) 995-0900,237
608,"JVC PIZZERIA, INC",IL FORNAIO,Unenclosed Sidewalk Cafe,1143227,"132A MULBERRY STREET, NEW YORK, NY 10013",132A,MULBERRY STREET,NEW YORK,NY,10013,Manhattan,,(212) 226-8306,102
609,K.I.D. RESTAURANT CORP.,MANATUS RESTAURANT,Unenclosed Sidewalk Cafe,885879,"340 BLEECKER STREET, NEW YORK, NY 10014",340,BLEECKER STREET,NEW YORK,NY,10014,Manhattan,,(212) 989-7042,160
610,K.K.& D. OF 79TH ST. REST. CORP.,,Unenclosed Sidewalk Cafe,1171759,"1022 MADISON AVENUE, NEW YORK, NY 10075",1022,MADISON AVENUE,NEW YORK,NY,10075,Manhattan,,(212) 535-4115,163
611,KANG YUE USA CORP.,MOCA ASIAN BISTRO,Unenclosed Sidewalk Cafe,1312716,"107-18 70 ROAD, FOREST HILLS, NY 11375",107-18,  70 ROAD,FOREST HILLS,NY,11375,Queens,,(718) 263-3333,184
612,KARABINIS DINER CORP,OASIS DINER,Enclosed Sidewalk Cafe,1352645,"2132 FLATBUSH AVE, BROOKLYN, NY 11234",2132,FLATBUSH AVE,BROOKLYN,NY,11234,Brooklyn,,(718) 258-0043,473
613,KARAVAS FOOD LTD,KARAVAS PLACE TAVERN,Enclosed Sidewalk Cafe,1001562,"162 W 4TH ST, NY, NY 10014",162,W 4TH ST,NY,NY,10014,Manhattan,,(212) 243-8007,236
614,KATOUNA INC,PERFECTO PIZZERIA,Unenclosed Sidewalk Cafe,1278350,"2479 BROADWAY, NEW YORK, NY 10025",2479,BROADWAY,NEW YORK,NY,10025,Manhattan,,(212) 721-6130,400
615,KAZO INC,PIERRE LOTI,Unenclosed Sidewalk Cafe,1422033,"300 1/2 E 52ND ST, NEW YORK, NY 10022",300 1/2,E 52ND ST,NEW YORK,NY,10022,Manhattan,,(212) 755-5684,230
616,KEDROS LTD,,Enclosed Sidewalk Cafe,1188845,"1505 THIRD AVENUE, NEW YORK, NY 10028",1505,THIRD AVENUE,NEW YORK,NY,10028,Manhattan,,(212) 249-6505,233
617,KEM REST INC,DON GIOVANNI,Unenclosed Sidewalk Cafe,885830,"214 10 AVENUE, NEW YORK, NY 10011",214,  10 AVENUE,NEW YORK,NY,10011,Manhattan,,(212) 242-9054,390
618,KHYBER PASS CORP,BAMIYAN RESTAURANT,Enclosed Sidewalk Cafe,907217,"358 THIRD AVENUE, NEW YORK, NY 10016",358,THIRD AVENUE,NEW YORK,NY,10016,Manhattan,,(212) 481-3232,381
619,KIEFFER & NORELL LLC,PICNIC MARKET CAFE,Unenclosed Sidewalk Cafe,1189644,"2665 BROADWAY, NEW YORK, NY 10025",2665,BROADWAY,NEW YORK,NY,10025,Manhattan,,(914) 533-7176,235
620,KIKU ASIAN BISTRO CORP.,,Unenclosed Sidewalk Cafe,1421584,"2 LINCOLN PL, BROOKLYN, NY 11217",2,LINCOLN PL,BROOKLYN,NY,11217,Brooklyn,,(718) 638-3366,305
621,"KIMAN COFFEE SHOP,INC.",BIG NICK'S BURGER JOINT & PIZZA JOINT,Unenclosed Sidewalk Cafe,955758,"2173-75 BROADWAY, NEW YORK, NY 10024",2173-75,BROADWAY,NEW YORK,NY,10024,Manhattan,,(212) 513-1988,234
622,KING LUKE INC,MARLOW AND SONS,Unenclosed Sidewalk Cafe,1163028,"81 BROADWAY, BROOKLYN, NY 11249",81,BROADWAY,BROOKLYN,NY,11249,Brooklyn,,(718) 486-3077,199
623,KING SOLOMON NY INC,L'ABELLA PIZZERIA AND RESTAURANT,Enclosed Sidewalk Cafe,1413650,"69-26 MAIN STREET, FLUSHING, NY 11367",69-26,MAIN STREET,FLUSHING,NY,11367,Queens,,(718) 261-0196,508
624,"KITCHEN TABLE, INC",FRANK RESTAURANT,Unenclosed Sidewalk Cafe,1025932,"88 2 AVENUE, NEW YORK, NY 10003",88,   2 AVENUE,NEW YORK,NY,10003,Manhattan,,(212) 420-6562,187
625,KIWI'S HISTORICAL BUILDING LTD,HALLO BERLIN,Unenclosed Sidewalk Cafe,1198845,"626 10 AVENUE, NEW YORK, NY 10036",626,  10 AVENUE,NEW YORK,NY,10036,Manhattan,,(212) 977-1944,179
626,KMG GROUP LLC,MOLLY PITCHERS'S ALE HOUSE,Unenclosed Sidewalk Cafe,1254082,"1641 2 AVENUE, NEW YORK, NY 10028",1641,   2 AVENUE,NEW YORK,NY,10028,Manhattan,,(212) 249-3067,416
627,KRILIC ENTERPRISES INC.,BRICK CAFE,Unenclosed Sidewalk Cafe,1142044,"30-95 33 STREET, QUEENS, NY 11102",30-95,  33 STREET,QUEENS,NY,11102,Queens,,(718) 267-2735,498
628,"KRILIC ENTERPRISES, INC.",BRICK CAFE,Unenclosed Sidewalk Cafe,1103683,"3095 33RD ST, ASTORIA, NY 11102",3095, 33RD ST,ASTORIA,NY,11102,Queens,,(718) 267-2735,394
629,KRINIS RESTAURANT CORP,LYRIC RESTAURANT,Unenclosed Sidewalk Cafe,1420823,"283 3RD AVE, NEW YORK, NY 10010",283,   3RD AVE,NEW YORK,NY,10010,Manhattan,,(212) 213-2222,331
630,KY & YL INC,SPICE,Unenclosed Sidewalk Cafe,1430586,"104 2ND AVE, NEW YORK, NY 10003",104,2ND AVE,NEW YORK,NY,10003,Manhattan,,(212) 533-8900,205
631,L & J BRAZIL RESTAURANT INC,VIA BRAZIL,Unenclosed Sidewalk Cafe,1251386,"34 W 46TH ST, NEW YORK, NY 10036",34,W 46TH ST,NEW YORK,NY,10036,Manhattan,,(212) 643-9271,127
632,L PLUS L PRODUCTIONS LLC,OFRENDA,Unenclosed Sidewalk Cafe,1347094,"113 7TH AVE S, NEW YORK, NY 10014",113, 7TH AVE S,NEW YORK,NY,10014,Manhattan,,(646) 318-1847,207
633,L&D HOSPITALITY MANAGEMENT LLC,KINGS CLUB,Unenclosed Sidewalk Cafe,1381424,"5 KING STREET, NEW YORK, NY 10012",5,KING STREET,NEW YORK,NY,10012,Manhattan,,(917) 209-6177,628
634,"L&L FOODS OF FIRST AVENUE, LLC",MCDONALD'S RESTAURANT,Enclosed Sidewalk Cafe,1066226,"104 1ST AVE, NEW YORK, NY 10009",104,1ST AVE,NEW YORK,NY,10009,Manhattan,,(203) 656-3661,281
635,"L. SZECHUAN EAST, LTD",PIG HEAVEN RESTAURANT,Unenclosed Sidewalk Cafe,1013335,"1540 2 AVENUE, NEW YORK, NY 10028",1540,   2 AVENUE,NEW YORK,NY,10028,Manhattan,,(212) 744-4333,166
636,"L.E. GLOBE, LLC",CAFE D' ALSACE,Unenclosed Sidewalk Cafe,1214833,"1695 SECOND AVENUE, NEW YORK, NY 10128",1695,SECOND AVENUE,NEW YORK,NY,10128,Manhattan,A/K/A: 238 E 88TH STREET,(212) 722-5133,565
637,"L'ATRE ENTERPRISES, INC",,Unenclosed Sidewalk Cafe,1159486,"314 BLEECKER STREET, NEW YORK, NY 10014",314,BLEECKER STREET,NEW YORK,NY,10014,Manhattan,,(212) 675-9463,64
638,LA BOCA WINE BAR LLC,THE BODEGA,Unenclosed Sidewalk Cafe,1418171,"24 SAINT NICHOLAS AVE, BROOKLYN, NY 11237",24,SAINT NICHOLAS AVE,BROOKLYN,NY,11237,Brooklyn,,(646) 924-8488,270
639,"LA BOUCHERIE, INC.",LES HALLES,Unenclosed Sidewalk Cafe,1185970,"411-413 PARK AVENUE SOUTH, NEW YORK, NY 10016",411-413,PARK AVENUE SOUTH,NEW YORK,NY,10016,Manhattan,,(212) 679-4111,199
640,LA MELA RISTORANTE ITALIANO INC,LA MELA RISTORANTE,Unenclosed Sidewalk Cafe,1274929,"167-171 MULBERRY STREET, NEW YORK, NY 10013",167-171,MULBERRY STREET,NEW YORK,NY,10013,Manhattan,,(212) 431-9493,133
641,LA MERIDIANA 2 LTD.,NUMERO 28,Unenclosed Sidewalk Cafe,1323159,"176 2ND AVE, NEW YORK, NY 10003",176,   2ND AVE,NEW YORK,NY,10003,Manhattan,,(917) 865-9278,173
642,LA PALA LLC,,Unenclosed Sidewalk Cafe,1200156,"198 ALLEN STREET, NEW YORK, NY 10002",198,ALLEN STREET,NEW YORK,NY,10002,Manhattan,,(212) 475-1251,198
643,LA PASTA PRESTO GRILL INC.,FIGARO BISTRO GRILL,Unenclosed Sidewalk Cafe,1357151,"959 2 AVENUE, NEW YORK, NY 10022",959,   2 AVENUE,NEW YORK,NY,10022,Manhattan,,(212) 207-4795,84
644,LA RIPAILLE CORP,LA RIPAILLE RESTAURANT,Unenclosed Sidewalk Cafe,1010686,"605 HUDSON ST, NEW YORK, NY 10014",605,HUDSON ST,NEW YORK,NY,10014,Manhattan,,(212) 255-4406,129
645,"LA SCALA RESTAURANT, LLC",FIVE NAPKIN BURGER,Unenclosed Sidewalk Cafe,1277876,"630 9 AVENUE, NEW YORK, NY 10036",630,   9 AVENUE,NEW YORK,NY,10036,Manhattan,,(212) 333-23,455
646,LA VILLETTE LLC,LA VILLETTE,Unenclosed Sidewalk Cafe,1443856,"10 DOWNING ST, NEW YORK, NY 10014",10,DOWNING ST,NEW YORK,NY,10014,Manhattan,,(212) 255-0300,
647,LADL LLC.,JACK'S,Unenclosed Sidewalk Cafe,1226076,"80 UNIVERSITY PLACE, NEW YORK, NY 10003",80,UNIVERSITY PLACE,NEW YORK,NY,10003,Manhattan,,(212) 627-3706,288
648,"LAFAYETTE STREET PARTNERS, LLC",CHINATOWN BRASSERIE,Unenclosed Sidewalk Cafe,1219985,"380 LAFAYETTE STREET, NEW YORK, NY 10003",380,LAFAYETTE STREET,NEW YORK,NY,10003,Manhattan,,(212) 533-7000,962
649,LAMARCA INC,LAMARCA CHEESE SHOP,Enclosed Sidewalk Cafe,852766,"161 EAST   22 STREET, NEW YORK, NY 10010",161,EAST   22 STREET,NEW YORK,NY,10010,Manhattan,,(212) 673-7920,142
650,LARRY KEVIN K CORP,THE SNUG,Unenclosed Sidewalk Cafe,1277071,"751 9TH AVE, NEW YORK, NY 10019",751,9TH AVE,NEW YORK,NY,10019,Manhattan,,(646) 763-8924,60
651,LASAGNA RESTAURANT INC.,LASAGNA RESTAURANT,Unenclosed Sidewalk Cafe,1249445,"941 2 AVENUE, NEW YORK, NY 10022",941,   2 AVENUE,NEW YORK,NY,10022,Manhattan,,(212) 308-5853,353
652,LCN CAFE CORP.,THEATER CAFE,Unenclosed Sidewalk Cafe,1162474,"106-03 METROPOLITAN AVE, QUEENS, NY 11375",106-03,METROPOLITAN AVE,QUEENS,NY,11375,Queens,,(718) 261-0014,528
653,LE BASKET INC,,Unenclosed Sidewalk Cafe,1334388,"683 BROADWAY, NEW YORK, NY 10012",683,BROADWAY,NEW YORK,NY,10012,Manhattan,,(212) 420-9772,229
654,LE MAGNIFIQUE LLC,,Unenclosed Sidewalk Cafe,1362784,"138-140 EAST 73 STREET, NEW YORK, NY 10022",138-140,EAST 73 STREET,NEW YORK,NY,10022,Manhattan,A.K.A 1022 LEXINGTON AVENUE,(917) 945-3768,253
655,LE VIKING LLC,CHEZ LUCIENNE,Unenclosed Sidewalk Cafe,1310252,"308 LENOX AVENUE, NEW YORK, NY 10027",308,LENOX AVENUE,NEW YORK,NY,10027,Manhattan,,(212) 289-5555,337
656,LE-SE AMSTERDAM 732 RESTAURANT INC.,DIVE BAR,Unenclosed Sidewalk Cafe,1138270,"732 AMSTERDAM AVE, NEW YORK, NY 10025",732,AMSTERDAM AVE,NEW YORK,NY,10025,Manhattan,,(212) 749-4358,147
657,"LEAHLALA, LLC",ABILENE,Unenclosed Sidewalk Cafe,1221041,"442 COURT STREET, BROOKLYN, NY 11231",442,COURT STREET,BROOKLYN,NY,11231,Brooklyn,,(718) 522-6900,126
658,LEITRIM PUB INC,DJ REYNOLD'S,Unenclosed Sidewalk Cafe,1347910,"351 W 57TH ST, NEW YORK, NY 10019",351,W 57TH ST,NEW YORK,NY,10019,Manhattan,,(212) 245-2912,136
659,LEKKAS RESTAURANT CORPORATION,GREEK CORNER,Enclosed Sidewalk Cafe,920314,"322 SEVENTH AVENUE, NEW YORK, NY 10001",322,SEVENTH AVENUE,NEW YORK,NY,10001,Manhattan,,(212) 239-0760,159
660,LENNY'S 54TH STREET LLC,,Enclosed Sidewalk Cafe,1233427,"1024 SECOND AVENUE, NEW YORK, NY 10022",1024,SECOND AVENUE,NEW YORK,NY,10022,Manhattan,,(212) 355-5700,418
661,LENNY'S 74TH STREET LLC,LENNY'S,Unenclosed Sidewalk Cafe,1339241,"302 COLUMBUS AVENUE, NEW YORK, NY 10023",302,COLUMBUS AVENUE,NEW YORK,NY,10023,Manhattan,,(212) 580-8300,181
662,LENNY'S 77TH STREET LLC,,Unenclosed Sidewalk Cafe,1237547,"1481 SECOND AVENUE, NEW YORK, NY 10075",1481,SECOND AVENUE,NEW YORK,NY,10075,Manhattan,,(212) 760-2700,256
663,LENNY'S 77TH STREET LLC,LENNYS,Enclosed Sidewalk Cafe,1239318,"1481 2ND AVE, NEW YORK, NY 10075",1481,2ND AVE,NEW YORK,NY,10075,Manhattan,,(212) 760-2700,272
664,LENOX ROOM CORP,,Unenclosed Sidewalk Cafe,1136163,"1278 THIRD AVENUE, NEW YORK, NY 10021",1278,THIRD AVENUE,NEW YORK,NY,10021,Manhattan,,(212) 772-0404,85
665,LES BRASSEURS,LA MANGEOIRE,Unenclosed Sidewalk Cafe,1189247,"1008 2 AVENUE, NEW YORK, NY 10022",1008,   2 AVENUE,NEW YORK,NY,10022,Manhattan,,(212) 759-7086,213
666,"LETTA #1, LLC.",NICOLETTA,Unenclosed Sidewalk Cafe,1422450,"160 2ND AVE, NEW YORK, NY 10003",160,   2ND AVE,NEW YORK,NY,10003,Manhattan,,(347) 854-0150,349
667,LEX90 CORP,CORRADO BAKERY,Unenclosed Sidewalk Cafe,1259291,"1361 LEXINGTON AVENUE, NEW YORK, NY 10128",1361,LEXINGTON AVENUE,NEW YORK,NY,10128,Manhattan,,(212) 348-8943,158
668,LGR FIRST CORP,SIMONE ESSPRESSO & WINE BAR,Unenclosed Sidewalk Cafe,1142739,"134 1 AVENUE, NEW YORK, NY 10009",134,   1 AVENUE,NEW YORK,NY,10009,Manhattan,,(212) 982-6665,192
669,LIC SEAFOOD INC.,OFF THE HOOK,Unenclosed Sidewalk Cafe,1283835,"3210 36TH AVE, LIC, NY 11106",3210, 36TH AVE,LIC,NY,11106,Queens,,(718) 786-6015,123
670,LIGNORANTI LLC,OFICINA LATINA,Unenclosed Sidewalk Cafe,1421348,"24 PRINCE ST, NEW YORK, NY 10012",24,PRINCE ST,NEW YORK,NY,10012,Manhattan,,(646) 381-2555,29
671,LIRA OF NEW YORK INC,LUKE'S BAR & GRILL,Unenclosed Sidewalk Cafe,882869,"1394 3 AVENUE, NEW YORK, NY 10075",1394,   3 AVENUE,NEW YORK,NY,10075,Manhattan,,(212) 249-7070,98
672,LITTLE CUPCAKE CORP.,LITTLE CUPCAKE CORP BAKESHOP,Unenclosed Sidewalk Cafe,1220615,"9102 3RD AVE, BROOKLYN, NY 11209",9102, 3RD AVE,BROOKLYN,NY,11209,Brooklyn,,(718) 680-4127,123
673,LITTLE MOROCCO RESTAURANT CORP.,,Unenclosed Sidewalk Cafe,1261303,"24-39 STEINWAY STREET, QUEENS, NY 11103",24-39,STEINWAY STREET,QUEENS,NY,11103,Queens,,(718) 204-8118,420
674,LITTLE SIAM CORP,YUM YUM BANGKOK,Unenclosed Sidewalk Cafe,1277774,"658 9TH AVE, NEW YORK, NY 10036",658,9TH AVE,NEW YORK,NY,10036,Manhattan,,(212) 956-0639,219
675,LIVING BREAD LLC,CILANTRO,Unenclosed Sidewalk Cafe,1095967,"1321 1 AVENUE, NEW YORK, NY 10021",1321,   1 AVENUE,NEW YORK,NY,10021,Manhattan,,(212) 722-4242,360
676,LJ202 LLC,BOCCA DI BACCO,Unenclosed Sidewalk Cafe,1384716,"1496 2 AVENUE, NEW YORK, NY 10075",1496,   2 AVENUE,NEW YORK,NY,10075,Manhattan,,(212) 779-1700,481
677,LLB INC.,PASCALOU,Unenclosed Sidewalk Cafe,1197788,"1308 MADISON AVENUE, NEW YORK, NY 10128",1308,MADISON AVENUE,NEW YORK,NY,10128,Manhattan,,(212) 534-7522,65
678,"LNV BROADWAY, LLC",MARIA BONITA,Enclosed Sidewalk Cafe,1435387,"2672 BROADWAY, NEW YORK, NY 10025",2672,BROADWAY,NEW YORK,NY,10025,Manhattan,,(212) 866-2920,600
679,"LOCO 111, INC.",SAN LOCO,Unenclosed Sidewalk Cafe,1229855,"111 STANTON ST, NEW YORK, NY 10002",111,STANTON ST,NEW YORK,NY,10002,Manhattan,,(212) 253-9671,92
680,LOS CUATES LLC,ROSARITO RESTAURANT,Unenclosed Sidewalk Cafe,1418335,"168-170 WYTHE AVE, BROOKLYN, NY 11211",168-170,WYTHE AVE,BROOKLYN,NY,11211,Brooklyn,,(718) ???-????,485
681,"LOS POLLITOS III, INC",LA STALLA RESTAURANT,Unenclosed Sidewalk Cafe,1222976,"499 MYRTLE AVE, BROOKLYN, NY 11205",499,MYRTLE AVE,BROOKLYN,NY,11205,Brooklyn,,(718) 636-6125,348
682,LOUYA CORP,JACQUE'S BISTRO,Unenclosed Sidewalk Cafe,1173625,"204-206 EAST   85 STREET, NEW YORK, NY 10028",204-206,EAST   85 STREET,NEW YORK,NY,10028,Manhattan,,(212) 327-2272,260
683,LT & LT LLC,VIET CAFE,Unenclosed Sidewalk Cafe,1424385,"345 GREENWICH ST, NEW YORK, NY 10013",345,GREENWICH ST,NEW YORK,NY,10013,Manhattan,,(212) 431-5888,177
684,LU-ANN BAKERY SHOP INC,BRUNO BAKERY        S/C #362,Unenclosed Sidewalk Cafe,762511,"506 LA GUARDIA PL, NEW YORK, NY 10012",506,LA GUARDIA PL,NEW YORK,NY,10012,Manhattan,,(212) 982-5894,162
685,LUCIFER RESTAURANT LLC,PETITE ABEILLE,Unenclosed Sidewalk Cafe,1188068,"401 EAST   20 STREET, NEW YORK, NY 10010",401,EAST   20 STREET,NEW YORK,NY,10010,Manhattan,,(646) 418-7440,343
686,LUCKY 13 LLC,SCARPETTA,Unenclosed Sidewalk Cafe,1227073,"355 WEST   14 STREET, NEW YORK, NY 10014",355,WEST   14 STREET,NEW YORK,NY,10014,Manhattan,,(212) 691-0555,229
687,LUMA REST. INC.,LUSARDI'S RESTAURANT,Unenclosed Sidewalk Cafe,1410849,"1494 2 AVENUE, NEW YORK, NY 10075",1494,   2 AVENUE,NEW YORK,NY,10075,Manhattan,,(212) 932-7566,167
688,LUMI CORPORATION,LUMI RESTAURANT,Unenclosed Sidewalk Cafe,930600,"963 LEXINGTON AVE, NEW YORK, NY 10021",963,LEXINGTON AVE,NEW YORK,NY,10021,Manhattan,,(917) 428-5668,180
689,LUNDY'S CAFE CORPORATION,,Unenclosed Sidewalk Cafe,1433590,"3156 OCEAN AVENUE, BROOKLYN, NY 11235",3156,OCEAN AVENUE,BROOKLYN,NY,11235,Brooklyn,,(718) 616-9100,1080
690,LUNELLA RISTORANTE INC,LUNELLA RISTORANTE,Unenclosed Sidewalk Cafe,1072629,"173 MULBERRY STREET, NEW YORK, NY 10013",173,MULBERRY STREET,NEW YORK,NY,10013,Manhattan,,(212) 966-6639,110
691,"LUPE'S EAST L.A. KITCHEN, INC",,Unenclosed Sidewalk Cafe,1321335,"110 SIXTH AVENUE, NEW YORK, NY 10013",110,SIXTH AVENUE,NEW YORK,NY,10013,Manhattan,,(212) 966-1326,200
692,LX AVENUE BAGELS INC.,TAI BAGELS,Unenclosed Sidewalk Cafe,1312021,"1228 LEXINGTON AVENUE, NEW YORK, NY 10028",1228,LEXINGTON AVENUE,NEW YORK,NY,10028,Manhattan,,(917) 523-4972,35
693,M & M 28TH ST RESTAURANT LLC,,Unenclosed Sidewalk Cafe,1289251,"382 8 AVENUE, NEW YORK, NY 10001",382,   8 AVENUE,NEW YORK,NY,10001,Manhattan,,(917) 705-5119,147
694,"M AND G TOGETHER 4 EVER, LLC.",BURRITO BAR & KITCHEN,Unenclosed Sidewalk Cafe,1219900,"307 FLATBUSH AVE, BROOKLYN, NY 11217",307,FLATBUSH AVE,BROOKLYN,NY,11217,Brooklyn,,(718) 230-8646,390
695,"M STAR HONG KONG CAFE, INC",JIN JIN HONG KONG CAFE,Enclosed Sidewalk Cafe,1379042,"6224 18 AVENUE, BROOKLYN, NY 11204",6224,  18 AVENUE,BROOKLYN,NY,11204,Brooklyn,,(718) 232-6222,244
696,M&R MEDITERRANEAN CORP,MAYAHUEL,Enclosed Sidewalk Cafe,1352482,"304 E 6TH ST, NEW YORK, NY 10003",304,E 6TH ST,NEW YORK,NY,10003,Manhattan,,(212) 777-2017,132
697,M.B.R.P.REST.INC.,THE STUMBLE INN,Enclosed Sidewalk Cafe,895586,"1454 2 AVENUE, NEW YORK, NY 10021",1454,   2 AVENUE,NEW YORK,NY,10021,Manhattan,,(212) 650-0561,265
698,M.B.R.P.REST.INC.,THE STUMBLE INN,Unenclosed Sidewalk Cafe,955674,"1454 2ND AVE, NEW YORK, NY 10021",1454,2ND AVE,NEW YORK,NY,10021,Manhattan,,(212) 737-9391,212
699,"M.E.G.RESTAURANT ENTERPRISES,LTD.",NOVITA,Unenclosed Sidewalk Cafe,931051,"102 EAST   22 STREET, NEW YORK, NY 10010",102,EAST   22 STREET,NEW YORK,NY,10010,Manhattan,,(212) 677-2222,163
700,MA. VI. DO. REST. INC.,MEDITERRANEO,Unenclosed Sidewalk Cafe,1138459,"1260 2 AVENUE, NEW YORK, NY 10065",1260,   2 AVENUE,NEW YORK,NY,10065,Manhattan,,(212) 715-0701,688
701,MACELLERIA RESTAURANT INC,MACELLERIA,Unenclosed Sidewalk Cafe,1188887,"48 GANSEVOORT STREET, NEW YORK, NY 10014",48,GANSEVOORT STREET,NEW YORK,NY,10014,Manhattan,,(212) 741-2555,179
702,MADIBA CORPORATION,MADIBA,Unenclosed Sidewalk Cafe,1221167,"195 DEKALB AVENUE, BROOKLYN, NY 11205",195,DEKALB AVENUE,BROOKLYN,NY,11205,Brooklyn,,(718) 855-9190,457
703,MADISON ENTERTAINMENT ASSOCIATES LLC.,LAVO,Unenclosed Sidewalk Cafe,1349641,"625 MADISON AVE, NEW YORK, NY 10022",625,MADISON AVE,NEW YORK,NY,10022,Manhattan,,(631) 424-8480,198
704,MADISON GLOBAL LLC,NELLO'S,Unenclosed Sidewalk Cafe,1334619,"696 MADISON AVENUE, NEW YORK, NY 10065",696,MADISON AVENUE,NEW YORK,NY,10065,Manhattan,,(212) 736-8700,126
705,MADISON ON COLUMBUS CORP,CHINA FUN,Enclosed Sidewalk Cafe,1224900,"244-246 COLUMBUS AVENUE, NEW YORK, NY 10023",244-246,COLUMBUS AVENUE,NEW YORK,NY,10023,Manhattan,,(212) 580-1516,211
706,MAFRA RESTAURANT CORP,IL VIOLINO,Enclosed Sidewalk Cafe,895625,"180 COLUMBUS AVENUE, MANHATTAN, NY 10023",180,COLUMBUS AVENUE,MANHATTAN,NY,10023,Manhattan,,(212) 873-2500,411
707,MAGNOLIA COLUMBUS AVENUE LLC.,,Enclosed Sidewalk Cafe,1271565,"200 COLUMBUS AVENUE, NEW YORK, NY 10023",200,COLUMBUS AVENUE,NEW YORK,NY,10023,Manhattan,,(212) 757-1177,365
708,MANEKEN CORP.,PETITE ABEILLE,Unenclosed Sidewalk Cafe,979768,"466 HUDSON STREET, MANHATTAN, NY 10014",466,HUDSON STREET,MANHATTAN,NY,10014,Manhattan,,(212) 727-1505,140
709,MANETTA'S FINE FOOD CORP.,MANETTA'S RISTORANTE,Unenclosed Sidewalk Cafe,1229988,"1076 JACKSON AVE, QUEENS, NY 11101",1076,JACKSON AVE,QUEENS,NY,11101,Queens,,(718) 786-6171,242
710,"MANGARONI, LLC",IL BASTARDO,Unenclosed Sidewalk Cafe,1219992,"191 SEVENTH AVENUE, NEW YORK, NY 10011",191,SEVENTH AVENUE,NEW YORK,NY,10011,Manhattan,,(212) 513-1988,375
711,MANGIA INC.,,Unenclosed Sidewalk Cafe,1190733,"119 5 AVENUE, BROOKLYN, NY 11217",119,   5 AVENUE,BROOKLYN,NY,11217,Brooklyn,,(718) 636-5759,385
712,MANGIA RESTAURANT CORP,OVELIA RESTAURANT,Unenclosed Sidewalk Cafe,1238509,"34-01 30 AVENUE, ASTORIA, NY 11103",34-01,  30 AVENUE,ASTORIA,NY,11103,Queens,,(718) 721-7217,480
713,"MANHATTAN ISLAND GROUP, LLC.",FRESH SALT,Unenclosed Sidewalk Cafe,1226371,"146 BEEKMAN ST, NEW YORK, NY 10038",146,BEEKMAN ST,NEW YORK,NY,10038,Manhattan,,(212) 962-0053,162
714,MANNA 2ND AVENUE LLC,GINA LA FORNARINA,Unenclosed Sidewalk Cafe,1308601,"1575 2 AVENUE, NEW YORK, NY 10028",1575,   2 AVENUE,NEW YORK,NY,10028,Manhattan,,(212) 535-3300,170
715,MANNA AMSTERDAM AVENUE LLC,GINA LA FORNARINA,Unenclosed Sidewalk Cafe,1369548,"279 AMSTERDAM AVE, NEW YORK, NY 10023",279,AMSTERDAM AVE,NEW YORK,NY,10023,Manhattan,,(212) 595-6900,303
716,MANNA KITCHEN INC,,Unenclosed Sidewalk Cafe,1248596,"28 EAST   18 STREET, NEW YORK, NY 10003",28,EAST   18 STREET,NEW YORK,NY,10003,Manhattan,,(212) 228-1044,167
717,MANNA MADISON AVENUE LLC,GINA LA FORNARINA,Unenclosed Sidewalk Cafe,1419681,"26 E 91ST ST, NEW YORK, NY 10128",26,E 91ST ST,NEW YORK,NY,10128,Manhattan,,(212) 348-8811,130
718,"MANNAGGIA, INC.",,Unenclosed Sidewalk Cafe,1103693,"163 1ST  AVE, NEW YORK, NY 10003",163,1ST  AVE,NEW YORK,NY,10003,Manhattan,,(212) 388-1190,235
719,"MARCO POLO TAKE OUT, LLC",ENOTECA ON COURT,Unenclosed Sidewalk Cafe,1316170,"347 COURT STREET, BROOKLYN, NY 11231",347,COURT STREET,BROOKLYN,NY,11231,Brooklyn,,(718) 243-1000,99
720,MARE MARE INC.,BISTRO CASSIS,Unenclosed Sidewalk Cafe,982077,"225 COLUMBUS AVENUE, NEW YORK, NY 10023",225,COLUMBUS AVENUE,NEW YORK,NY,10023,Manhattan,,(631) 367-1156,168
721,MARIA LOUISA RESTAURANT INC,RESTAURANT 101,Unenclosed Sidewalk Cafe,1190559,"10018 FOURTH AVENUE, BROOKLYN, NY 11209",10018,FOURTH AVENUE,BROOKLYN,NY,11209,Brooklyn,,(718) 833-1313,254
722,MARKT ON LADIES MILE LLC,,Unenclosed Sidewalk Cafe,1254298,"676 6 AVENUE, NEW YORK, NY 10010",676,   6 AVENUE,NEW YORK,NY,10010,Manhattan,,(212) 727-3314,222
723,"MARLOW, INC.",THE DINER,Unenclosed Sidewalk Cafe,1027923,"85 BROADWAY, BROOKLYN, NY 11249",85,BROADWAY,BROOKLYN,NY,11249,Brooklyn,,(718) 486-3077,337
724,MAROLLES LLC,BXL EAST,Unenclosed Sidewalk Cafe,1353195,"210 E 51TH ST, NEW YORK, NY 10022",210,E 51TH ST,NEW YORK,NY,10022,Manhattan,,(917) 582-3016,77
725,MARYANN'S 353 MEX. INC,MARYANN'S,Unenclosed Sidewalk Cafe,1354785,"353 GREENWICH ST, NEW YORK, NY 10013",353,GREENWICH ST,NEW YORK,NY,10013,Manhattan,,(212) 766-0911,446
726,MASANIELLO RESTAURANT CORP.,PEPERONCINO,Unenclosed Sidewalk Cafe,1243143,"72 5TH AVE, BROOKLYN, NY 11217",72,5TH AVE,BROOKLYN,NY,11217,Brooklyn,,(718) 638-4760,157
727,MAVIMA RESTAURANT INC.,BRIO,Unenclosed Sidewalk Cafe,1184384,"786 LEXINGTON AVENUE, NEW YORK, NY 10065",786,LEXINGTON AVENUE,NEW YORK,NY,10065,Manhattan,A/K/A 137 EAST 61 STREET,(212) 980-2300,135
728,MAZ MEZCAL INC.,,Unenclosed Sidewalk Cafe,1311123,"316 EAST   86 STREET, NEW YORK, NY 10028",316,EAST   86 STREET,NEW YORK,NY,10028,Manhattan,,(631) 424-8480,208
729,"MCCONNER STREET HOLDING, LLC",MC 104,Unenclosed Sidewalk Cafe,1247774,"2726 BROADWAY, NEW YORK, NY 10025",2726,BROADWAY,NEW YORK,NY,10025,Manhattan,AT 104TH ST,(212) 222-8553,153
730,MDV BROADWAY LLC,TIME CAFE,Unenclosed Sidewalk Cafe,1255573,"44-18 BROADWAY, ASTORIA, NY 11103",44-18,BROADWAY,ASTORIA,NY,11103,Queens,,(718) 606-0500,364
731,"ME'KONG DELTA, INC.",REPUBLIC RESTAURANT,Unenclosed Sidewalk Cafe,950183,"37 UNION SQUARE WEST, NEW YORK, NY 10003",37,UNION SQUARE WEST,NEW YORK,NY,10003,Manhattan,,(212) 627-7172,193
732,MEATH TRAILS INC.,DEMPSEYS PUB,Unenclosed Sidewalk Cafe,1282650,"61 2ND AVE, NEW YORK, NY 10003",61,2ND AVE,NEW YORK,NY,10003,Manhattan,,(212) 388-0662,149
733,"MEATPACKING RESTAURANT,LLC.",THE DINER,Unenclosed Sidewalk Cafe,1219795,"44 9TH AVE, NEW YORK, NY 10011",44,   9TH AVE,NEW YORK,NY,10011,Manhattan,,(917) 282-2843,442
734,MEDPARK 30 LLC,WINE 30,Unenclosed Sidewalk Cafe,1354206,"41 E 30TH ST, NEW YORK, NY 10016",41,E 30TH ST,NEW YORK,NY,10016,Manhattan,,(212) 481-0197,102
735,MEM REST CORP,,Unenclosed Sidewalk Cafe,1389775,"4029 EAST TREMONT AVENUE, BRONX, NY 10465",4029,EAST TREMONT AVENUE,BRONX,NY,10465,Bronx,,(718) 829-4400,225
736,MENDARED LLC,LE SOUK HAREM,Unenclosed Sidewalk Cafe,1354717,"510 LAGUARDIA PLACE, NEW YORK, NY 10012",510,LAGUARDIA PLACE,NEW YORK,NY,10012,Manhattan,,(212) 677-1120,368
737,"MERMAID 88, LLC",THE MERMAID INN,Unenclosed Sidewalk Cafe,1273996,"568 AMSTERDAM AVENUE, NEW YORK, NY 10024",568,AMSTERDAM AVENUE,NEW YORK,NY,10024,Manhattan,,(212) 799-7400,160
738,MESTIZO INC,GOOD RESTAURANT,Unenclosed Sidewalk Cafe,1160579,"89 GREENWICH AVE, NEW YORK, NY 10014",89,GREENWICH AVE,NEW YORK,NY,10014,Manhattan,,(212) 691-8080,189
739,MESTOLA CAFFE CORP.,VINO,Unenclosed Sidewalk Cafe,907977,"1268 2 AVENUE, NEW YORK, NY 10065",1268,   2 AVENUE,NEW YORK,NY,10065,Manhattan,,(212) 715-0701,252
740,"MESTRE, INC",LE ZIE 2000,Unenclosed Sidewalk Cafe,1035729,"172 SEVENTH AVENUE, NEW YORK, NY 10011",172,SEVENTH AVENUE,NEW YORK,NY,10011,Manhattan,,(212) 206-8686,153
741,MEXICALI ENTERPRISES LTD,RODEO BAR AND GRILL,Enclosed Sidewalk Cafe,955462,"375 3 AVENUE, NEW YORK, NY 10016",375,   3 AVENUE,NEW YORK,NY,10016,Manhattan,,(212) 683-6500,420
742,MEXICO LINDO RESTAURANT INC,MEXICO LINDO        E/S/C #431,Enclosed Sidewalk Cafe,782187,"459 2 AVENUE, NEW YORK, NY 10010",459,   2 AVENUE,NEW YORK,NY,10010,Manhattan,,(212) 679-3665,227
743,MEZCALS OF 5TH AVE REST CORP.,MESCALS REST.,Unenclosed Sidewalk Cafe,1163793,"223 5TH AVE, BROOKLYN, NY 11215",223,5TH AVE,BROOKLYN,NY,11215,Brooklyn,,(718) 783-3276,318
744,MEZZALUNA ASSOCIATES,MEZZALUNA,Unenclosed Sidewalk Cafe,811193,"1295 3 AVENUE, NEW YORK, NY 10021",1295,   3 AVENUE,NEW YORK,NY,10021,Manhattan,,(212) 535-9600,63
745,MHBK ASSOCIATES INC.,THE TANGLED VINE,Unenclosed Sidewalk Cafe,1357136,"434 AMSTERDAM AVE, NEW YORK, NY 10024",434,AMSTERDAM AVE,NEW YORK,NY,10024,Manhattan,,(646) 863-3896,346
746,MICADO BROOKLYN LLC,THE ANCHORED INN,Unenclosed Sidewalk Cafe,1425047,"57 WATERBURY ST, BROOKLYN, NY 11206",57,WATERBURY ST,BROOKLYN,NY,11206,Brooklyn,,(718) 576-3927,242
747,MICHAEL KING INC.,FINNEGANS WAKE,Unenclosed Sidewalk Cafe,935481,"1361 1 AVENUE, NEW YORK, NY 10021",1361,   1 AVENUE,NEW YORK,NY,10021,Manhattan,GR.FL,(212) 737-3664,180
748,MIDAN REST INC.,MORAN'S,Unenclosed Sidewalk Cafe,1142522,"146 10 AVENUE, NEW YORK, NY 10011",146,  10 AVENUE,NEW YORK,NY,10011,Manhattan,,(212) 627-3030,489
749,"MIDWEST TOMATO,INC",PUTTANESCA,Unenclosed Sidewalk Cafe,955853,"859 9 AVENUE, NEW YORK, NY 10019",859,   9 AVENUE,NEW YORK,NY,10019,Manhattan,,(212) 581-4177,200
750,MILL KOREAN RESTAURANT INC.,,Unenclosed Sidewalk Cafe,1035738,"2895 BROADWAY, NEW YORK, NY 10025",2895,BROADWAY,NEW YORK,NY,10025,Manhattan,,(212) 666-7653,168
751,MIMI'S RESTAURANT CORP.,                    E/S/C #255,Enclosed Sidewalk Cafe,697987,"984 2 AVENUE, NEW YORK, NY 10022",984,   2 AVENUE,NEW YORK,NY,10022,Manhattan,,(212) 688-4692,429
752,MJAJ FOOD CORP,EATS,Enclosed Sidewalk Cafe,1388513,"1055 LEXINGTON AVE, NEW YORK, NY 10021",1055,LEXINGTON AVE,NEW YORK,NY,10021,Manhattan,,(212) 396-,371
753,MNY CHELSEA LLC,MERCHANTS NY,Unenclosed Sidewalk Cafe,1160931,"112 SEVENTH AVENUE, NEW YORK, NY 10011",112,SEVENTH AVENUE,NEW YORK,NY,10011,Manhattan,,(212) 366-7267,140
754,"MNY HOLDINGS ASSOCIATES, LLC",BAKER STREET,Enclosed Sidewalk Cafe,1074420,"1152 1 AVENUE, NEW YORK, NY 10065",1152,   1 AVENUE,NEW YORK,NY,10065,Manhattan,,(212) 871-4000,333
755,"MOHECO,INC.",CAFE-BAR,Unenclosed Sidewalk Cafe,959237,"32-90 36 STREET, QUEENS, NY 11106",32-90,  36 STREET,QUEENS,NY,11106,Queens,,(718) 204-5273,289
756,MOLLY PICON LLC,JACK'S WIFE FREDA,Unenclosed Sidewalk Cafe,1426863,"224 LAFAYETTE ST, NEW YORK, NY 10012",224,LAFAYETTE ST,NEW YORK,NY,10012,Manhattan,,(212) 510-8550,124
757,MOTTSU CUISINE INC,MOTTSU,Unenclosed Sidewalk Cafe,1376493,"285 MOTT ST, NEW YORK, NY 10012",285,MOTT ST,NEW YORK,NY,10012,Manhattan,,(646) 479-8384,86
758,"MOULINAS, LLC",,Unenclosed Sidewalk Cafe,1101185,"128 SMITH STREET, BROOKLYN, NY 11201",128,SMITH STREET,BROOKLYN,NY,11201,Brooklyn,,(718) 923-0918,384
759,"MOUQUINHO ENTERPRISES,INC.",PJ CHARLTON,Unenclosed Sidewalk Cafe,1225847,"549 GREENWICH STREET, NEW YORK, NY 10013",549,GREENWICH STREET,NEW YORK,NY,10013,Manhattan,,(212) 924-9532,110
760,MOZ RESTAURANT INC,MEME,Unenclosed Sidewalk Cafe,1347167,"581 HUDSON STREET, NEW YORK, NY 10014",581,HUDSON STREET,NEW YORK,NY,10014,Manhattan,,(646) 692-8450,160
761,MR. BIGGS BAR & GRILL INC.,MR. BIGGS BAR & GRILL,Unenclosed Sidewalk Cafe,1345747,"596 10TH AVE, NEW YORK, NY 10036",596,  10TH AVE,NEW YORK,NY,10036,Manhattan,,(212) 246-4744,472
762,MRG RESTAURANT CORP,POSITANO,Unenclosed Sidewalk Cafe,1135770,"122 MULBERRY STREET, NEW YORK, NY 10013",122,MULBERRY STREET,NEW YORK,NY,10013,Manhattan,,(718) 591-8112,36
763,MS RESTAURANT CORP,AGNANTI,Unenclosed Sidewalk Cafe,1360424,"19-06 DITMARS BLVD, ASTORIA, NY 11105",19-06,DITMARS BLVD,ASTORIA,NY,11105,Queens,,(718) 545-4554,254
764,MS RESTAURANT OWNERS LLC,MORNING STAR RESTAURANT,Enclosed Sidewalk Cafe,1415773,"879 9 AVENUE, NEW YORK, NY 10019",879,   9 AVENUE,NEW YORK,NY,10019,Manhattan,AKA: 401 WEST 57TH STREET,(718) 274-4300,191
765,"MSD ENTERPRISES,INC",VIRAGE,Unenclosed Sidewalk Cafe,955847,"118 2ND AVE, NEW YORK, NY 10003",118,2ND AVE,NEW YORK,NY,10003,Manhattan,,(212) 253-0425,379
766,MULBERRY STREET BAR LLC,,Unenclosed Sidewalk Cafe,1164852,"176 1/2 MULBERRY STREET, NEW YORK, NY 10013",176 1/2,MULBERRY STREET,NEW YORK,NY,10013,Manhattan,,(212) 226-9345,112
767,MUNDO MUNDO CORP.,MUNDO TAPAS,Unenclosed Sidewalk Cafe,1250569,"31-18 BROADWAY, ASTORIA, NY 11106",31-18,BROADWAY,ASTORIA,NY,11106,Queens,STORE # E,(718) 777-2829,175
768,MUSSELS & MORE LTD.,,Unenclosed Sidewalk Cafe,1360728,"510 80TH ST, BROOKLYN, NY 11209",510, 80TH ST,BROOKLYN,NY,11209,Brooklyn,,(718) 680-4500,432
769,"MXCO CAFE, LLC",,Enclosed Sidewalk Cafe,1384455,"1491 SECOND AVENUE, NEW YORK, NY 10075",1491,SECOND AVENUE,NEW YORK,NY,10075,Manhattan,,(212) 765-4842,390
770,"MXCO CAFE, LLC",,Unenclosed Sidewalk Cafe,1384460,"1491 SECOND AVENUE, NEW YORK, NY 10075",1491,SECOND AVENUE,NEW YORK,NY,10075,Manhattan,,(212) 765-4842,207
771,MY MOST FAVORITE 72ND ST. CORP.,MY MOST FAVORITE FOOD,Enclosed Sidewalk Cafe,1379700,"247 WEST   72 STREET, NEW YORK, NY 10023",247,WEST   72 STREET,NEW YORK,NY,10023,Manhattan,,(212) 580-5130,350
772,"MZ RESTAURANT GROUP, LLC",BURGER CLUB,Unenclosed Sidewalk Cafe,1418049,"3202 30 AVE, ASTORIA, NY 11102",3202,  30 AVE,ASTORIA,NY,11102,Queens,,(347) 556-3527,466
773,N & J OTTO BROS CORP,OTTOMANELLI GRILL,Unenclosed Sidewalk Cafe,1389811,"1325 5 AVENUE, NEW YORK, NY 10029",1325,   5 AVENUE,NEW YORK,NY,10029,Manhattan,,(212) 772-8423,132
774,N.N.M. REST. CORP.,BRASSERIE 360,Enclosed Sidewalk Cafe,1106438,"200 E 60TH ST, NEW YORK, NY 10022",200,E 60TH ST,NEW YORK,NY,10022,Manhattan,,(212) 688-8868,309
775,"N.Y. RESTAURANT SUPPLIES,INC.",AROUND THE CLOCK CAFE,Unenclosed Sidewalk Cafe,911530,"8 STUYVESANT ST, NEW YORK, NY 10003",8,STUYVESANT ST,NEW YORK,NY,10003,Manhattan,1ST FLOOR,(212) 674-2516,202
776,"NABUCCO, LLC",SALUMERIA ROSI,Unenclosed Sidewalk Cafe,1321660,"283 AMSTERDAM AVE, NEW YORK, NY 10023",283,AMSTERDAM AVE,NEW YORK,NY,10023,Manhattan,,(917) 328-0964,138
777,"NAHM, INC.",ROOM SERVICE,Unenclosed Sidewalk Cafe,1310316,"690 NINTH AVENUE, NEW YORK, NY 10036",690,NINTH AVENUE,NEW YORK,NY,10036,Manhattan,,(646) 331-8738,84
778,NANOOSH BROADWAY L.L.C.,NANOOSH,Unenclosed Sidewalk Cafe,1282959,"2012 BROADWAY, NEW YORK, NY 10023",2012,BROADWAY,NEW YORK,NY,10023,Manhattan,,(212) 362-7922,143
779,NARGIS CORP,NARGIS CAFE,Unenclosed Sidewalk Cafe,1287835,"2818 CONEY ISLAND AVE, BROOKLYN, NY 11235",2818,CONEY ISLAND AVE,BROOKLYN,NY,11235,Brooklyn,,(718) 872-7888,143
780,NARITA JAPANESE RESTAURANT INC.,,Unenclosed Sidewalk Cafe,1135863,"107-08 70 ROAD, FOREST HILLS, NY 11375",107-08,  70 ROAD,FOREST HILLS,NY,11375,Queens,,(718) 263-2999,220
781,NECF INC.,MR. DENNEHY'S,Unenclosed Sidewalk Cafe,1188879,"63 CARMINE STREET, NEW YORK, NY 10014",63,CARMINE STREET,NEW YORK,NY,10014,Manhattan,,(212) 414-1223,249
782,NECTAR RESTAURANT CORP,,Enclosed Sidewalk Cafe,699252,"1090 MADISON AVENUE, NY, NY 10028",1090,MADISON AVENUE,NY,NY,10028,Manhattan,,(212) 772-0916,170
783,NERA CORP.,CAFE PICK ME UP,Unenclosed Sidewalk Cafe,960517,"145 AVENUE A, NEW YORK, NY 10009",145,AVENUE A,NEW YORK,NY,10009,Manhattan,,(212) 673-7231,61
784,NEW BELLA LUNA INC,BELLA LUNA,Unenclosed Sidewalk Cafe,851262,"584 COLUMBUS AVENUE, NEW YORK, NY 10024",584,COLUMBUS AVENUE,NEW YORK,NY,10024,Manhattan,,(212) 877-2267,264
785,NEW KO-SUSHI JAPANESE RESTAURANT INC,KOSUSHI JAPANAESE RESTAURANT,Enclosed Sidewalk Cafe,1285670,"1329 2ND AVE, NEW YORK, NY 10021",1329,2ND AVE,NEW YORK,NY,10021,Manhattan,,(212) 439-1678,497
786,NEW MEKONG RESTAURANT CORP.,,Unenclosed Sidewalk Cafe,1234468,"16-18 KING ST, NEW YORK, NY 10014",16-18,KING ST,NEW YORK,NY,10014,Manhattan,,(212) 343-8169,260
787,NEW ORGANICO INC.,CAFFE ORGANICO,Unenclosed Sidewalk Cafe,1308502,"89 7 AVENUE SOUTH, NEW YORK, NY 10014",89,   7 AVENUE SOUTH,NEW YORK,NY,10014,Manhattan,,(646) 221-6545,290
788,NEW RESTART INC,MAMBO,Unenclosed Sidewalk Cafe,1342588,"145 MULBERRY STREET, NEW YORK, NY 10013",145,MULBERRY STREET,NEW YORK,NY,10013,Manhattan,,(646) 221-6545,98
789,NEW YORK BEER CO LLC.,JACOB'S PICKELS,Unenclosed Sidewalk Cafe,1416762,"509 AMSTERDAM AVE, NEW YORK, NY 10024",509,AMSTERDAM AVE,NEW YORK,NY,10024,Manhattan,,(212) 574-8181,207
790,"NEW YORK FAST GOURMET PREMIER, LLC",,Enclosed Sidewalk Cafe,1350374,"470 W 23RD ST, NEW YORK, NY 10011",470,W 23RD ST,NEW YORK,NY,10011,Manhattan,,(347) 495-6777,762
791,NICA RESTAURANT CORP,NICA TRATTORIA,Unenclosed Sidewalk Cafe,1253201,"354 EAST   84 STREET, NEW YORK, NY 10028",354,EAST   84 STREET,NEW YORK,NY,10028,Manhattan,,(212) 472-5040,83
792,NILO INC.& VIOLA CONSULTING LLC,MEZZOGIORNO ASSOC.,Unenclosed Sidewalk Cafe,832737,"195 SPRING STREET, NEW YORK, NY 10012",195,SPRING STREET,NEW YORK,NY,10012,Manhattan,,(212) 334-2112,175
793,NINO'S TRIBECA RESTAURANT LTD,OSSO BUCO,Unenclosed Sidewalk Cafe,1057301,"1662 3 AVENUE, NEW YORK, NY 10128",1662,   3 AVENUE,NEW YORK,NY,10128,Manhattan,,(212) 426-5422,154
794,NINTH AVE. KITCHEN CORP.,YUM YUM TOO,Unenclosed Sidewalk Cafe,1323532,"662 9TH AVE, NEW YORK, NY 10036",662,   9TH AVE,NEW YORK,NY,10036,Manhattan,,(212) 247-228,237
795,NITEHAWK BROOKLYN LLC,NITEHAWK CINEMA,Unenclosed Sidewalk Cafe,1394178,"136 METROPOLITAN AVENUE, BROOKLYN, NY 11211",136,METROPOLITAN AVENUE,BROOKLYN,NY,11211,Brooklyn,,(718) 963-2917,266
796,NLAM INC,MOLE,Unenclosed Sidewalk Cafe,1389004,"178 KENT AVENUE, BROOKLYN, NY 11211",178,KENT AVENUE,BROOKLYN,NY,11211,Brooklyn,,(917) 539-3431,247
797,NO MOORE OYSTERS LLC,SMITH & MILLS,Unenclosed Sidewalk Cafe,1420047,"71 N MOORE ST, NEW YORK, NY 10013",71,N MOORE ST,NEW YORK,NY,10013,Manhattan,,(212) ???-????,81
798,NOHO STAR INC.,THE NOHO STAR,Unenclosed Sidewalk Cafe,931822,"330 LAFAYETTE STREET, NEW YORK, NY 10012",330,LAFAYETTE STREET,NEW YORK,NY,10012,Manhattan,,(212) 925-0070,397
799,NONNA RESTUARANT CORP,ROC RESTUARANT,Unenclosed Sidewalk Cafe,1200802,"190A DUANE ST, NEW YORK, NY 10013",190A,DUANE ST,NEW YORK,NY,10013,Manhattan,,(212) 625-3333,382
800,NOOR EL HADA CORP,,Unenclosed Sidewalk Cafe,1224578,"24-25 STEINWAY STREET, QUEENS, NY 11103",24-25,STEINWAY STREET,QUEENS,NY,11103,Queens,,(718) 721-9010,228
801,NOROC LLC,BUCHAREST RESTAURANT,Unenclosed Sidewalk Cafe,1322918,"4345 40TH ST, SUNNYSIDE, NY 11104",4345,40TH ST,SUNNYSIDE,NY,11104,Queens,,(718) 389-2300,172
802,NOTEWORTHY CAFE CORP,,Enclosed Sidewalk Cafe,1187200,"200 ALLEN ST, NEW YORK, NY 10002",200,ALLEN ST,NEW YORK,NY,10002,Manhattan,,(212) 260-1122,340
803,NPK DONUT INC,COURT DELI,Enclosed Sidewalk Cafe,1244698,"96 E 161TH ST, BRONX, NY 10451",96,E 161TH ST,BRONX,NY,10451,Bronx,,(718) 993-1380,556
804,NYS LEE INCORPORATED,SKINNY'S CANTINA,Unenclosed Sidewalk Cafe,1422486,"4705 CENTER BLVD, QUEENS, NY 11109",4705,CENTER BLVD,QUEENS,NY,11109,Queens,,(917) 613-2058,405
805,O'FLYNN ENTERPRISES LLC,LE GRAINNE CAFE,Unenclosed Sidewalk Cafe,1347356,"183 NINTH AVENUE, NEW YORK, NY 10011",183,NINTH AVENUE,NEW YORK,NY,10011,Manhattan,,(203) 246-7806,122
806,OLD VIENNA CAFE LLC,,Unenclosed Sidewalk Cafe,1389928,"108-22 QUEENS BOULEVARD, QUEENS, NY 11375",108-22,QUEENS BOULEVARD,QUEENS,NY,11375,Queens,,(917) 474-9799,318
807,OLIO RESTAURANTS LLC,OLIO,Unenclosed Sidewalk Cafe,1344146,"3 GREENWICH AVENUE, NEW YORK, NY 10014",3,GREENWICH AVENUE,NEW YORK,NY,10014,Manhattan,,(212) 243-6546,449
808,"OLIVER KING ENTERPRISES, INC.",EMPIRE SZECHWAN VILLAGE,Enclosed Sidewalk Cafe,1007220,"173 7TH AVE S, NEW YORK, NY 10014",173,   7TH AVE S,NEW YORK,NY,10014,Manhattan,,(212) 243-6046,272
809,OLIVIA AVA CORP,EDGAR'S II,Unenclosed Sidewalk Cafe,1352255,"650 AMSTERDAM AVENUE, NEW YORK, NY 10025",650,AMSTERDAM AVENUE,NEW YORK,NY,10025,Manhattan,,(212) 595-6261,117
810,OLYMPIAN SUMMIT INC.,STEINWAY BILLARDS & CAFE,Unenclosed Sidewalk Cafe,1160619,"35-25 STEINWAY STREET, LONG ISLND CITY, NY 11101",35-25,STEINWAY STREET,LONG ISLND CITY,NY,11101,Queens,,(718) 472-2124,241
811,OMONIA CAFE INC.,"OMONIA CAFE,",Enclosed Sidewalk Cafe,1072286,"32-20 BROADWAY, QUEENS, NY 11106",32-20,BROADWAY,QUEENS,NY,11106,Queens,,(718) 274-6650,497
812,"ONE 29 PARK, LLC",ASELLINA,Unenclosed Sidewalk Cafe,1384241,"420 PARK AVENUE SOUTH, NEW YORK, NY 10016",420,PARK AVENUE SOUTH,NEW YORK,NY,10016,Manhattan,,(212) 513-1988,318
813,ORESTE INC.,TRATTORIA ORESTE,Unenclosed Sidewalk Cafe,1163792,"64 CARMINE ST, NEW YORK, NY 10014",64,CARMINE ST,NEW YORK,NY,10014,Manhattan,,(212) 675-8736,162
814,OSTERIA CASANO LLC,INATESSO PIZZABAR CASANO,Unenclosed Sidewalk Cafe,1312044,"28 WEST STREET, NEW YORK, NY 10006",28,WEST STREET,NEW YORK,NY,10006,Manhattan,,(212) 267-8000,320
815,OSTERIA LAGUNA LLC,OSTERIA LAGUNA,Unenclosed Sidewalk Cafe,1356304,"209 E 42ND ST, NEW YORK, NY 10017",209,E 42ND ST,NEW YORK,NY,10017,Manhattan,,(212) 557-0001,155
816,P & A 665 RESTAURANT CORP.,GALAXY DINER,Unenclosed Sidewalk Cafe,1249100,"665 9 AVENUE, NEW YORK, NY 10036",665,   9 AVENUE,NEW YORK,NY,10036,Manhattan,,(212) 586-4885,364
817,P. M. W. INC.,,Unenclosed Sidewalk Cafe,1193198,"62 SPRING STREET, NEW YORK, NY 10012",62,SPRING STREET,NEW YORK,NY,10012,Manhattan,,(212) 966-0290,420
818,P.E.C GROUP LTD.,PEPOLINO'S,Unenclosed Sidewalk Cafe,1023699,"281 WEST BROADWAY, NEW YORK, NY 10013",281,WEST BROADWAY,NEW YORK,NY,10013,Manhattan,,(212) 966-9983,99
819,P.J.COFFEE SHOP INC,CLARKE'S RESTAURANT,Enclosed Sidewalk Cafe,623018,"80 CLARK STREET, BROOKLYN, NY 11201",80,CLARK STREET,BROOKLYN,NY,11201,Brooklyn,,(718) 855-5484,479
820,PAESANO REST. CORP.,PAESANO OF MULBERRY STREET,Unenclosed Sidewalk Cafe,1240086,"136 MULBERRY ST, NEW YORK, NY 10013",136,MULBERRY ST,NEW YORK,NY,10013,Manhattan,,(212) 965-1188,97
821,PALEROS INC,GRAND CAFE,Unenclosed Sidewalk Cafe,1197298,"37-01 30 AVENUE, ASTORIA, NY 11103",37-01,  30 AVENUE,ASTORIA,NY,11103,Queens,,(718) 777-7321,620
822,PALOMBO INC.,PALOMBO PASTRY SHOP,Unenclosed Sidewalk Cafe,1253520,"2400 ARTHUR AVE, BRONX, NY 10458",2400,ARTHUR AVE,BRONX,NY,10458,Bronx,,(718) 329-8800,237
823,PANDBAKERY INC,LEFKOS PIRGOS COFFEE,Unenclosed Sidewalk Cafe,1166911,"22-85 31 STREET, QUEENS, NY 11105",22-85,  31 STREET,QUEENS,NY,11105,Queens,,(718) 932-4423,475
824,PANEANTICO BAKERY CAFE INC,PANEANTICO BAKERY CAFE,Unenclosed Sidewalk Cafe,1079876,"9124 3 AVENUE, BROOKLYN, NY 11209",9124,   3 AVENUE,BROOKLYN,NY,11209,Brooklyn,,(718) 680-2347,427
825,PANINI RESOURCES LLC,CORSINO,Unenclosed Sidewalk Cafe,1345390,"637 HUDSON ST, NEW YORK, NY 10014",637,HUDSON ST,NEW YORK,NY,10014,Manhattan,,(212) 242-3093,185
826,"PANZI ENTERPRISES, LLC",PANCA,Unenclosed Sidewalk Cafe,1250013,"92 7 AVENUE SOUTH, NEW YORK, NY 10014",92,   7 AVENUE SOUTH,NEW YORK,NY,10014,Manhattan,,(212) 488-3900,340
827,PAOLA'S RETAURANT GROUP LLC,PAOLA'S RETAURANT,Unenclosed Sidewalk Cafe,1313851,"1295 MADISON AVENUE, NEW YORK, NY 10128",1295,MADISON AVENUE,NEW YORK,NY,10128,Manhattan,,(212) 794-1890,216
828,PAPPARDELLA REST CORP,PAPPARDELLA,Unenclosed Sidewalk Cafe,1395732,"316 COLUMBUS AVE, NEW YORK, NY 10023",316,COLUMBUS AVE,NEW YORK,NY,10023,Manhattan,,(646) 595-7909,283
829,"PARADIS 5, INC.",MOUTARDE,Unenclosed Sidewalk Cafe,1191275,"239 5 AVENUE, BROOKLYN, NY 11215",239,   5 AVENUE,BROOKLYN,NY,11215,Brooklyn,,(718) 623-3600,231
830,PARIS CUISINE INC,26 SEATS,Unenclosed Sidewalk Cafe,1387010,"168 AVE B, NEW YORK, NY 10009",168,AVE B,NEW YORK,NY,10009,Manhattan,,(212) 677-4787,32
831,PARISIENNE CAFE INCORPORATED,,Unenclosed Sidewalk Cafe,1336537,"2339 ARTHUR AVENUE, BRONX, NY 10458",2339,ARTHUR AVENUE,BRONX,NY,10458,Bronx,,(646) 402-0758,104
832,"PARK SLOPE MP COMPANY, INC",TUTTA PASTA,Unenclosed Sidewalk Cafe,1278297,"160 7TH AVE, BROOKLYN, NY 11215",160,   7TH AVE,BROOKLYN,NY,11215,Brooklyn,,(718) 788-9500,125
833,PASSIONE RISTORANTE LLC,,Unenclosed Sidewalk Cafe,1289261,"1590 LEXINGTON AVE, NEW YORK, NY 10029",1590,LEXINGTON AVE,NEW YORK,NY,10029,Manhattan,,(212) 643-2616,209
834,PASTA BISTRO GRILL INC.,PASTA BISTRO GRILL,Unenclosed Sidewalk Cafe,1311319,"93 MACDOUGAL ST, NEW YORK, NY 10012",93,MACDOUGAL ST,NEW YORK,NY,10012,Manhattan,,(212) 260-5679,98
835,PASTABAR CAFE CORP,,Unenclosed Sidewalk Cafe,1383047,"127 AVENUE C, NEW YORK, NY 10009",127,AVENUE C,NEW YORK,NY,10009,Manhattan,,(212) 203-7900,163
836,PAUL'S CORNER INC.,MON PETIT CAFE,Unenclosed Sidewalk Cafe,1420012,"801 LEXINGTON AVE, NEW YORK, NY 10065",801,LEXINGTON AVE,NEW YORK,NY,10065,Manhattan,,(212) 355-2233,108
837,PAZZIA LLC,PANORAMA CAFE NEW YORK,Unenclosed Sidewalk Cafe,1400054,"1574 2 AVENUE, NEW YORK, NY 10028",1574,   2 AVENUE,NEW YORK,NY,10028,Manhattan,,(212) 772-2220,230
838,PEARLSTONE BURGER CORPORATION,BURGER BURGER,Unenclosed Sidewalk Cafe,1280649,"77 PEARL STREET, NEW YORK, NY 10004",77,PEARL STREET,NEW YORK,NY,10004,Manhattan,,(212) 269-9100,87
839,PECKSLIP RESTAURANT CORP.,MEADE'S,Unenclosed Sidewalk Cafe,1245534,"22 PECK SLIP, NEW YORK, NY 10038",22,PECK SLIP,NEW YORK,NY,10038,Manhattan,,(212) 791-1818,234
840,"PEDRO'S BAR & RESTAURANT, INC",,Unenclosed Sidewalk Cafe,1418616,"73 JAY STREET, BROOKLYN, NY 11201",73,JAY STREET,BROOKLYN,NY,11201,Brooklyn,,(718) 797-2851,280
841,"PEE WEE & TYSON, LTD",CAFE GITANE,Unenclosed Sidewalk Cafe,1011960,"242 MOTT STREET, NEW YORK, NY 10003",242,MOTT STREET,NEW YORK,NY,10003,Manhattan,,(212) 965-0918,103
842,PEPE'S REST. GROUP LLC.,LAS RAMBLAS,Unenclosed Sidewalk Cafe,1221449,"170 W 4TH ST, NEW YORK, NY 10014",170,W 4TH ST,NEW YORK,NY,10014,Manhattan,,(646) 415-7924,33
843,PEPRICO INC.,CACIO & PEPE,Unenclosed Sidewalk Cafe,1189217,"182 2 AVENUE, NEW YORK, NY 10003",182,   2 AVENUE,NEW YORK,NY,10003,Manhattan,,(212) 505-5931,116
844,PER TAVERN CORP,THE KETTLE BLACK,Enclosed Sidewalk Cafe,1179946,"8622 3 AVENUE, BROOKLYN, NY 11209",8622,   3 AVENUE,BROOKLYN,NY,11209,Brooklyn,,(718) 680-7862,346
845,"PERFECT TOUCH CUISINE II, INC",,Unenclosed Sidewalk Cafe,1423678,"1148 NOSTRAND AVE, BROOKLYN, NY 11225",1148,NOSTRAND AVE,BROOKLYN,NY,11225,Brooklyn,,(347) 915-2777,213
846,"PGGS GOURMET, INC",,Unenclosed Sidewalk Cafe,1111397,"261 COLUMBUS AVENUE, NEW YORK, NY 10023",261,COLUMBUS AVENUE,NEW YORK,NY,10023,Manhattan,,(212) 721-7800,234
847,PGT REST. CORP.,SLAINTE,Unenclosed Sidewalk Cafe,1318806,"304 BOWERY, NEW YORK, NY 10012",304,BOWERY,NEW YORK,NY,10012,Manhattan,,(212) 253-7030,170
848,PHILLIES PIZZERIA II INC,PHILLIES PIZZA,Enclosed Sidewalk Cafe,1270105,"7402 ELIOT AVE, QUEENS, NY 11379",7402,ELIOT AVE,QUEENS,NY,11379,Queens,,(718) 397-1340,350
849,PHILLIPOS RESTAURANT INC.,BARKING DOG LUNCHEONETTE,Unenclosed Sidewalk Cafe,1222470,"1678 3 AVE, NEW YORK, NY 10128",1678,   3 AVE,NEW YORK,NY,10128,Manhattan,,(212) 831-1800,451
850,PIADAPLANET INC.,IL PAIOLO,Unenclosed Sidewalk Cafe,1413002,"106 NORTH    6 STREET, BROOKLYN, NY 11211",106,NORTH    6 STREET,BROOKLYN,NY,11211,Brooklyn,,(718) 218-7080,132
851,PISTICCI RESTAURANT CORP,PISTICCI RESTAURANT,Unenclosed Sidewalk Cafe,1133801,"125 LASALLE STREET, NEW YORK, NY 10027",125,LASALLE STREET,NEW YORK,NY,10027,Manhattan,,(212) 932-3500,295
852,PIZZERIA UNO OF FOREST HILLS INC,UNO CHICAGO GRILL,Unenclosed Sidewalk Cafe,1352650,"107-16 70TH RD, FOREST HILLS, NY 11375",107-16,70TH RD,FOREST HILLS,NY,11375,Queens,,(718) 793-6700,214
853,PJ'S OF LITTLE ITALY INC,PELLEGRINOS,Unenclosed Sidewalk Cafe,1343750,"138 MULBERRY ST, NEW YORK, NY 10013",138,MULBERRY ST,NEW YORK,NY,10013,Manhattan,,(212) 343-7000,65
854,PK & SON LLC,MATCH 65,Unenclosed Sidewalk Cafe,1200796,"27 EAST   65 STREET, NEW YORK, NY 10065",27,EAST   65 STREET,NEW YORK,NY,10065,Manhattan,,(212) 737-4400,102
855,"PLAZA PATISSERIE, INC.",,Unenclosed Sidewalk Cafe,1219506,"29-20 30TH AVE, QUEENS, NY 11102",29-20, 30TH AVE,QUEENS,NY,11102,Queens,,(718) 726-2447,476
856,"PLOUTARXOS, INC.",AGORA TARERNA,Unenclosed Sidewalk Cafe,1385297,"70-09 AUSTIN STREET, RIDGEWOOD, NY 11375",70-09,AUSTIN STREET,RIDGEWOOD,NY,11375,Queens,,(718) 793-7300,481
857,PMC CORP,VERTIGO,Enclosed Sidewalk Cafe,1190138,"354 THIRD AVENUE, NEW YORK, NY 10010",354,THIRD AVENUE,NEW YORK,NY,10010,Manhattan,,(212) 696-1011,336
858,POINT JUDITH LLC,MERMAID INN,Unenclosed Sidewalk Cafe,1188827,"96 2 AVENUE, NEW YORK, NY 10003",96,   2 AVENUE,NEW YORK,NY,10003,Manhattan,,(212) 465-9500,146
859,POLLOS MARIO WOODHAVEN CORP.,POLLOS MARIO,Enclosed Sidewalk Cafe,1305734,"6320 WOODHAVEN BLVD, QUEENS, NY 11374",6320,WOODHAVEN BLVD,QUEENS,NY,11374,Queens,,(718) 565-2055,412
860,POMODORO RESTAURANT & PIZZERIA INC,,Unenclosed Sidewalk Cafe,884882,"51 SPRING STREET, NEW YORK, NY 10012",51,SPRING STREET,NEW YORK,NY,10012,Manhattan,,(212) 966-9229,145
861,PONENTE LLC,NIZZA,Unenclosed Sidewalk Cafe,1248301,"628 NINTH AVENUE, NEW YORK, NY 10036",628,NINTH AVENUE,NEW YORK,NY,10036,Manhattan,,(212) 956-1800,249
862,PORTICI RESTAURANT INC,44 SOUTHWEST,Unenclosed Sidewalk Cafe,1163815,"621 9TH AVE, NEW YORK, NY 10036",621,   9TH AVE,NEW YORK,NY,10036,Manhattan,,(212) 315-4582,268
863,PORTO RESTAURANT INC.,HOLLYWOOD DINER,Unenclosed Sidewalk Cafe,1221677,"574 6TH AVE, NEW YORK, NY 10011",574,6TH AVE,NEW YORK,NY,10011,Manhattan,,(212) 691-8465,185
864,POSTO INC.,,Unenclosed Sidewalk Cafe,1172166,"310 SECOND AVENUE, NEW YORK, NY 10003",310,SECOND AVENUE,NEW YORK,NY,10003,Manhattan,,(212) 807-7800,273
865,"POUNDS & OUNCES, LLC",POUNDS & OUNCES,Unenclosed Sidewalk Cafe,1424891,"160 8TH AVE, NEW YORK, NY 10011",160,8TH AVE,NEW YORK,NY,10011,Manhattan,,(917) 957-1022,498
866,POUPETTO INC.,LE BILBOQUET,Unenclosed Sidewalk Cafe,1169925,"25 E 63TH ST, NEW YORK, NY 10021",25,E 63TH ST,NEW YORK,NY,10021,Manhattan,,(212) 751-3036,151
867,"POY LAUNG THAI RESTAURANT,INC.",TAI THAI,Unenclosed Sidewalk Cafe,1349191,"206 BEDFORD AVENUE, BROOKLYN, NY 11211",206,BEDFORD AVENUE,BROOKLYN,NY,11211,Brooklyn,,(718) 599-5556,52
868,PPB PUB LTD,,Unenclosed Sidewalk Cafe,1381569,"37-11/13 30TH AVENUE, ASTORIA, NY 11103",37-11/13,30TH AVENUE,ASTORIA,NY,11103,Queens,,(718) 626-0033,390
869,"PQ 53RD STREET, INC.",LE PAIN QUOTIDIEN,Unenclosed Sidewalk Cafe,1414267,"7 EAST   53 STREET, NEW YORK, NY 10022",7,EAST   53 STREET,NEW YORK,NY,10022,Manhattan,,(212) 359-9000,48
870,PQ 550 HUDSON INC,LE PAIN QUOTIDIEN,Unenclosed Sidewalk Cafe,1274769,"550 HUDSON ST, NEW YORK, NY 10014",550,HUDSON ST,NEW YORK,NY,10014,Manhattan,,(212) 359-9000,328
871,PQ CARNEGIE HILL INC,,Unenclosed Sidewalk Cafe,1381014,"1309 LEXINGTON AVENUE, NEW YORK, NY 10128",1309,LEXINGTON AVENUE,NEW YORK,NY,10128,Manhattan,,(212) 359-9000,126
872,PQ CHELSEA INC,LE PAIN QUOTIDIEN,Unenclosed Sidewalk Cafe,1251800,"124 7 AVENUE, NEW YORK, NY 10011",124,   7 AVENUE,NEW YORK,NY,10011,Manhattan,,(212) 359-9000,198
873,PQ FIRST INC,LE PAIN QUOTIDIEN,Unenclosed Sidewalk Cafe,1251803,"1270 1 AVENUE, NEW YORK, NY 10065",1270,   1 AVENUE,NEW YORK,NY,10065,Manhattan,,(212) 359-9000,126
874,PQ MEATPACKING DISTRICT INC,LE PAIN QUOTIDIEN,Unenclosed Sidewalk Cafe,1384166,"52 9 AVENUE, NEW YORK, NY 10011",52,   9 AVENUE,NEW YORK,NY,10011,Manhattan,,(212) 359-9000,90
875,"PQ UNION SQUARE, INC",LE PAIN QUOTIDIEN,Unenclosed Sidewalk Cafe,1380933,"801 BROADWAY, NEW YORK, NY 10003",801,BROADWAY,NEW YORK,NY,10003,Manhattan,,(212) 359-9000,529
876,PQ UPPER WEST INC,LE PAIN QUOTIDIEN,Unenclosed Sidewalk Cafe,1277778,"2463 BROADWAY, NEW YORK, NY 10025",2463,BROADWAY,NEW YORK,NY,10025,Manhattan,,(212) 359-9000,171
877,"PQ WEST 84TH, INC.",LE PAIN QUOTIDIEN,Unenclosed Sidewalk Cafe,1207810,"494 AMSTERDAM AVE, NEW YORK, NY 10024",494,AMSTERDAM AVE,NEW YORK,NY,10024,Manhattan,,(212) 359-9000,202
878,PROGETTO INC.,ETCETERA ETCETERA RESTAURANT,Unenclosed Sidewalk Cafe,1289268,"352 W 44TH ST, NEW YORK, NY 10036",352,W 44TH ST,NEW YORK,NY,10036,Manhattan,,(212) 399-4141,106
879,PRY RESTAURANT CORP,DRESNERS,Enclosed Sidewalk Cafe,1292658,"1479 YORK AVENUE, NEW YORK, NY 10075",1479,YORK AVENUE,NEW YORK,NY,10075,Manhattan,,(212) 988-5153,189
880,"PS BROTHERS GOURMET, INC.",INDUS VALLEY,Enclosed Sidewalk Cafe,1169442,"2636 BROADWAY, NEW YORK, NY 10025",2636,BROADWAY,NEW YORK,NY,10025,Manhattan,,(212) 222-9222,200
881,PSSP NY INC,SOFIA'S LITTLE ITALY,Unenclosed Sidewalk Cafe,1383044,"143 MULBERRY STREET, NEW YORK, NY 10013",143,MULBERRY STREET,NEW YORK,NY,10013,Manhattan,,(212) 219-9799,61
882,QUALITY EDIBLES LLC,GELATO TI AMO,Unenclosed Sidewalk Cafe,1420814,"68 2ND AVE, NEW YORK, NY 10003",68,   2ND AVE,NEW YORK,NY,10003,Manhattan,,(718) 607-8306,89
883,R ANGEL INC,MCDONALD'S,Enclosed Sidewalk Cafe,970546,"5725 ROOSEVELT AVE, WOODSIDE, NY 11377",5725,ROOSEVELT AVE,WOODSIDE,NY,11377,Queens,,(631) 698-4788,176
884,R&A EAST 16TH ASSOCIATES,CHAT 'N CHEW,Unenclosed Sidewalk Cafe,943587,"10 EAST   16 STREET, NEW YORK, NY 10003",10,EAST   16 STREET,NEW YORK,NY,10003,Manhattan,,(212) 661-1313,85
885,RAGUBOY CORP.,SUPPER,Unenclosed Sidewalk Cafe,1097153,"156 E 2ND ST, NEW YORK, NY 10009",156,E 2ND ST,NEW YORK,NY,10009,Manhattan,,(212) 477-7600,162
886,"RAJMAR HOLDINGS, INC.",HUDSON BAR AND BOOKS,Unenclosed Sidewalk Cafe,1092103,"636 HUDSON STREET, NEW YORK, NY 10014",636,HUDSON STREET,NEW YORK,NY,10014,Manhattan,,(212) 355-9888,80
887,RAM EATS LLC,BLOCKHEADS BURRITOS,Unenclosed Sidewalk Cafe,1277938,"951 AMSTERDAM AVE, NEW YORK, NY 10025",951,AMSTERDAM AVE,NEW YORK,NY,10025,Manhattan,,(212) 662-8226,137
888,RAMBLING HOUSE INC,TARA HILL,Unenclosed Sidewalk Cafe,1192697,"4292 KATONAH AVENUE, BRONX, NY 10470",4292,KATONAH AVENUE,BRONX,NY,10470,Bronx,,(718) 798-4510,300
889,RARO INC,RAFELE,Unenclosed Sidewalk Cafe,1419407,"29 7 AVE S, NEW YORK, NY 10014",29,   7 AVE S,NEW YORK,NY,10014,Manhattan,,(212) 253-1373,351
890,RAYNICK CORP,MOLE,Unenclosed Sidewalk Cafe,1281981,"205 ALLEN ST, NEW YORK, NY 10002",205,ALLEN ST,NEW YORK,NY,10002,Manhattan,,(212) 289-8226,54
891,RAYRAY THAI INC.,NATIONAL THAI RESTAURANT,Unenclosed Sidewalk Cafe,1425803,"723 FULTON ST, BROOKLYN, NY 11217",723,FULTON ST,BROOKLYN,NY,11217,Brooklyn,,(718) 522-3510,160
892,RBG VILLAGE LLC,TAVERN ON 3RD,Unenclosed Sidewalk Cafe,1217616,"380 3RD AVE, NEW YORK, NY 10016",380,3RD AVE,NEW YORK,NY,10016,Manhattan,,(917) 589-7089,138
893,RDK RESTAURANT CORP.,BISTRO LES AMIS,Unenclosed Sidewalk Cafe,1101999,"180 SPRING STREET, NEW YORK, NY 10012",180,SPRING STREET,NEW YORK,NY,10012,Manhattan,,(212) 226-8645,298
894,RE SPEC CORP,JACKSON HOLE        S/C #594,Unenclosed Sidewalk Cafe,812902,"517 COLUMBUS AVENUE, NEW YORK, NY 10024",517,COLUMBUS AVENUE,NEW YORK,NY,10024,Manhattan,,(212) 362-5177,453
895,REBA REALTY CORP.,WALKER'S,Unenclosed Sidewalk Cafe,1116343,"16 N MOORE ST, NEW YORK, NY 10013",16,N MOORE ST,NEW YORK,NY,10013,Manhattan,,(212) 941-0142,237
896,RECTOR STREET FOOD ENTERPRISES LTD.,GEORGE'S,Unenclosed Sidewalk Cafe,1315977,"11 RECTOR STREET, NEW YORK, NY 10006",11,RECTOR STREET,NEW YORK,NY,10006,Manhattan,87-89 GREENWICH STREET,(212) 269-8026,140
897,"RED BAMBOO ON 7TH AVENUE, INC",,Enclosed Sidewalk Cafe,1301309,"47-49 7 AVENUE SOUTH, NEW YORK, NY 10014",47-49,   7 AVENUE SOUTH,NEW YORK,NY,10014,Manhattan,,(212) 255-2848,735
898,RED MULBERRY LTD,SAMBUCA'S,Unenclosed Sidewalk Cafe,1158751,"105 MULBERRY STREET, NEW YORK, NY 10013",105,MULBERRY STREET,NEW YORK,NY,10013,Manhattan,,(212) 431-0408,145
899,"RED ROOSTER HARLEM, LLC",,Unenclosed Sidewalk Cafe,1385339,"310 LENOX AVENUE, NEW YORK, NY 10027",310,LENOX AVENUE,NEW YORK,NY,10027,Manhattan,,(212) 792-9001,493
900,REGIONAL THAI LTD,REGIONAL THAI,Unenclosed Sidewalk Cafe,1135513,"208 7TH AVE, NEW YORK, NY 10011",208,   7TH AVE,NEW YORK,NY,10011,Manhattan,,(212) 807-9872,105
901,REMEDY BAR GROUP LLC,UPTOWN,Unenclosed Sidewalk Cafe,1161913,"1576 3RD AVE, NEW YORK, NY 10128",1576,3RD AVE,NEW YORK,NY,10128,Manhattan,,(212) 858-1388,190
902,RENOLTA LLC,NICE MATIN,Unenclosed Sidewalk Cafe,1125981,"201 WEST   79 STREET, NEW YORK, NY 10024",201,WEST   79 STREET,NEW YORK,NY,10024,Manhattan,,(212) 573-1988,820
903,RESTAURANT 101 INC.,DYCKMAN EXPRESS RESTAURANT,Unenclosed Sidewalk Cafe,1281025,"101B DYCKMAN ST, NEW YORK, NY 10040",101B,DYCKMAN ST,NEW YORK,NY,10040,Manhattan,,(212) 567-2288,311
904,RESTAURANT 597 INC.,BUS STOP,Unenclosed Sidewalk Cafe,918358,"597 HUDSON ST, NEW YORK, NY 10014",597,HUDSON ST,NEW YORK,NY,10014,Manhattan,,(212) 206-1100,297
905,"RESTAURANT VENTURES OF NY,INC.",SAVORE RISTORANTE,Unenclosed Sidewalk Cafe,920983,"200 SPRING ST, NEW YORK, NY 10012",200,SPRING ST,NEW YORK,NY,10012,Manhattan,,(212) 431-1212,293
906,RIGOLETTO LLC,5 NAPKIN BURGER,Unenclosed Sidewalk Cafe,1356065,"3501 36 STREET, L.I.C., NY 11106",3501,  36 STREET,L.I.C.,NY,11106,Queens,,(212) 333-2323,778
907,RIOMAR CORP,KANA,Unenclosed Sidewalk Cafe,1003195,"324 SPRING STREET, SOHO, NY 10013",324,SPRING STREET,SOHO,NY,10013,Manhattan,,(212) 343-8180,119
908,RIVER BARREL INC,MRS. KIM'S,Unenclosed Sidewalk Cafe,1346892,"87 KENT ST, BROOKLYN, NY 11222",87,KENT ST,BROOKLYN,NY,11222,Brooklyn,,(718) 349-3263,175
909,RIZ BAGELS INC.,,Enclosed Sidewalk Cafe,1252836,"57-20 WOODSIDE AVENUE, WOODSIDE, NY 11377",57-20,WOODSIDE AVENUE,WOODSIDE,NY,11377,Queens,,(718) 803-3595,306
910,"ROCCO'S ITALIAN CAFETERIA,INC.",ROCCO'S ITALIAN CAFETERIA,Unenclosed Sidewalk Cafe,1008741,"6408 FORT HAMILTON PARKWAY, BROOKLYN, NY 11219",6408,FORT HAMILTON PARKWAY,BROOKLYN,NY,11219,Brooklyn,,(718) 833-2109,402
911,ROLL-N-ROASTER CORP.,,Enclosed Sidewalk Cafe,698346,"2901 EMMONS AVENUE, BROOKLYN, NY 11235",2901,EMMONS AVENUE,BROOKLYN,NY,11235,Brooklyn,,(718) 769-5831,260
912,ROMAGICA CORP,CELESTE,Enclosed Sidewalk Cafe,1429718,"502 AMSTERDAM AVENUE, NEW YORK, NY 10024",502,AMSTERDAM AVENUE,NEW YORK,NY,10024,Manhattan,,(212) 874-4559,
913,ROMANOS FAMOUS PIZZA CORP.,,Unenclosed Sidewalk Cafe,1277441,"32-21 BROADWAY, LIC, NY 11106",32-21,BROADWAY,LIC,NY,11106,Queens,,(718) 626-5292,423
914,ROMY EAST LLC,SHALIZAR,Unenclosed Sidewalk Cafe,1314788,"1420 3 AVENUE, NEW YORK, NY 10028",1420,   3 AVENUE,NEW YORK,NY,10028,Manhattan,,(212) 288-0012,54
915,"ROTHMANN'S 54TH STREET, LLC",ROTHMANN'S,Unenclosed Sidewalk Cafe,1348207,"3 EAST   54 STREET, NEW YORK, NY 10022",3,EAST   54 STREET,NEW YORK,NY,10022,Manhattan,,(212) 319-550,147
916,S & K HALAL CHINESE FUSION INC,,Unenclosed Sidewalk Cafe,1324320,"18422 HORACE HARDING EXPRESSWAY, FRESH MEADOWS, NY 11365",18422,HORACE HARDING EXPRESSWAY,FRESH MEADOWS,NY,11365,Queens,,(917) 415-6515,213
917,S. G. M. G. CORP.,FULL MOON PIZZERIA,Unenclosed Sidewalk Cafe,1315889,"600 EAST  187 STREET, BRONX, NY 10458",600,EAST  187 STREET,BRONX,NY,10458,Bronx,,(718) 584-3451,349
918,"S. R. G. RESTAURANT GROUP, LLC",WHISKEY PARK,Unenclosed Sidewalk Cafe,1387126,"100 CENTRAL PARK SOUTH, NEW YORK, NY 10022",100,CENTRAL PARK SOUTH,NEW YORK,NY,10022,Manhattan,,(212) 307-9222,352
919,S.A.V. ASSOCIATES INC.,TURKVAZ,Unenclosed Sidewalk Cafe,1280169,"2637 BROADWAY, NEW YORK, NY 10025",2637,BROADWAY,NEW YORK,NY,10025,Manhattan,,(212) 665-1141,264
920,"S.I.A.E.A.1,INC.",K H AMAZON CAFE,Unenclosed Sidewalk Cafe,1134143,"1123 QUENTIN RD, BROOKLYN, NY 11229",1123,QUENTIN RD,BROOKLYN,NY,11229,Brooklyn,,(718) 382-8360,160
921,"SABOR LATINO I,CORP",SABOR LATINORESTAURANT,Unenclosed Sidewalk Cafe,1311161,"95-35 40TH RD, QUEENS, NY 11373",95-35,  40TH RD,QUEENS,NY,11373,Queens,,(718) 457-3966,315
922,SABROSURA RESTAURANT INC.,SABROSURA RESTAURANT INC,Enclosed Sidewalk Cafe,1311514,"1200 CASTLE HILL AVE, BRONX, NY 10462",1200,CASTLE HILL AVE,BRONX,NY,10462,Bronx,,(718) 597-1344,603
923,SAC'S PIZZA PLACE INC.,SAC'S PLACE,Enclosed Sidewalk Cafe,974443,"25-41 BROADWAY, ASTORIA, NY 11106",25-41,BROADWAY,ASTORIA,NY,11106,Queens,,(718) 204-5002,346
924,SAGI RESTAURANT CORP,FRANCESA LA VELA CUCINA ITALIANA,Unenclosed Sidewalk Cafe,1416326,"373 AMSTERDAM AVENUE, NEW YORK, NY 10024",373,AMSTERDAM AVENUE,NEW YORK,NY,10024,Manhattan,,(212) 877-7718,140
925,SAL & VIK CORP.,BELLA VIA RESTAURANT,Unenclosed Sidewalk Cafe,1165566,"47-46 VERNON BOULEVARD, LIC, NY 11101",47-46,VERNON BOULEVARD,LIC,NY,11101,Queens,,(718) 361-7510,392
926,SALERNITANI LTD,,Unenclosed Sidewalk Cafe,1391390,"1739 2 AVENUE, NEW YORK, NY 10128",1739,   2 AVENUE,NEW YORK,NY,10128,Manhattan,,(212) 426-6943,107
927,SALSA SALON INC,,Unenclosed Sidewalk Cafe,1252203,"47 EAST   12 STREET, NEW YORK, NY 10003",47,EAST   12 STREET,NEW YORK,NY,10003,Manhattan,,(212) 253-7594,71
928,SALVATORE'S CORP.,COPPOLAS,Unenclosed Sidewalk Cafe,1233901,"378 THIRD AVENUE, NEW YORK, NY 10016",378,THIRD AVENUE,NEW YORK,NY,10016,Manhattan,,(212) 679-0070,109
929,SALVATORES OF SOHO INC,SALVATORES OF SOHO,Unenclosed Sidewalk Cafe,1377344,"3738 RIVERDALE AVE, BRONX, NY 10463",3738,RIVERDALE AVE,BRONX,NY,10463,Bronx,,(917) 578-5461,380
930,SAMMY'S S.B. REST. CORP.,SAMMY'S ORIGNAL SHRIMP BOX,Unenclosed Sidewalk Cafe,1251412,"64 CITY ISLAND AVENUE, BRONX, NY 10464",64,CITY ISLAND AVENUE,BRONX,NY,10464,Bronx,,(718) 885-3200,426
931,SANGE REST. INC.,TIO PEPE            S/C #215,Enclosed Sidewalk Cafe,693313,"168 WEST    4 STREET, NEW YORK, NY 10014",168,WEST    4 STREET,NEW YORK,NY,10014,Manhattan,,(212) 675-5097,129
932,"SANTORINI FOOD, INC.",,Enclosed Sidewalk Cafe,1413270,"108-40 CORONA AVENUE, QUEENS, NY 11368",108-40,CORONA AVENUE,QUEENS,NY,11368,Queens,,(212) 513-1988,
933,"SARABETH'S TRIBECA, LLC",SARABETH'S,Unenclosed Sidewalk Cafe,1384470,"339 GREENWICH STREET, NEW YORK, NY 10013",339,GREENWICH STREET,NEW YORK,NY,10013,Manhattan,,(212) 513-1988,368
934,SATO INC,MOLE BY TACO TACO,Unenclosed Sidewalk Cafe,1389784,"1735 2 AVENUE, NEW YORK, NY 10128",1735,   2 AVENUE,NEW YORK,NY,10128,Manhattan,,(917) 539-3431,138
935,SBAFO NYC LLC,LIEVITO PIZZERIA,Unenclosed Sidewalk Cafe,1381707,"581 HUDSON STREET, NEW YORK, NY 10014",581,HUDSON STREET,NEW YORK,NY,10014,Manhattan,,(212) 645-5811,188
936,"SBCPS,LLC",SARABETH'S,Unenclosed Sidewalk Cafe,1189655,"40 CENTRAL PARK SOUTH, NEW YORK, NY 10019",40,CENTRAL PARK SOUTH,NEW YORK,NY,10019,Manhattan,,(212) 826-5959,256
937,SCENIC ROUTE 66 CAFE INC,ROUTE 66 CAFE,Unenclosed Sidewalk Cafe,1254413,"858 9TH AVE, NEW YORK, NY 10019",858, 9TH AVE,NEW YORK,NY,10019,Manhattan,,(212) 977-7600,115
938,SCHATZI CORP.,WALLSE,Unenclosed Sidewalk Cafe,1257073,"342-344 WEST   11 STREET, NEW YORK, NY 10014",342-344,WEST   11 STREET,NEW YORK,NY,10014,Manhattan,,(212) 352-2300,270
939,SCODITTI CONSULTING GROUP INC,BRIO DOWNTOWN NYC,Unenclosed Sidewalk Cafe,1387415,"920 BROADWAY, NEW YORK, NY 10010",920,BROADWAY,NEW YORK,NY,10010,Manhattan,,(212) 673-4818,380
940,"SDNY 19 MAD PARK, LLC",SD26,Unenclosed Sidewalk Cafe,1394111,"19 EAST   26 STREET, NEW YORK, NY 10010",19,EAST   26 STREET,NEW YORK,NY,10010,Manhattan,,(212) 265-5959,148
941,SEA BREEZE PHARMACY & MEDICAL SUPPLY INC,SEA BREEZE PHARMACY,Unenclosed Sidewalk Cafe,1326438,"1129 BRIGHTON BEACH AVENUE, BROOKLYN, NY 11235",1129,BRIGHTON BEACH AVENUE,BROOKLYN,NY,11235,Brooklyn,,(718) 646-0660,174
942,SEAN OG ENTERPRISES LLC,SEAN OG'S,Unenclosed Sidewalk Cafe,1310982,"60-02 WOODSIDE AVENUE, QUEENS, NY 11377",60-02,WOODSIDE AVENUE,QUEENS,NY,11377,Queens,,(718) 899-3499,342
943,SELVAM CORP,,Unenclosed Sidewalk Cafe,1380992,"222 DEKALB AVENUE, BROOKLYN, NY 11205",222,DEKALB AVENUE,BROOKLYN,NY,11205,Brooklyn,,(718) 222-1888,77
944,SENGUPTA FOOD SERVICES LLC,SOHO PARK,Unenclosed Sidewalk Cafe,1277362,"62 PRINCE ST, NEW YORK, NY 10012",62,PRINCE ST,NEW YORK,NY,10012,Manhattan,,(212) 219-2129,255
945,"SERAFINA 77 WEST, LLC",SERAFINA,Unenclosed Sidewalk Cafe,1418144,"2178 BROADWAY, NEW YORK, NY 10024",2178,BROADWAY,NEW YORK,NY,10024,Manhattan,,(631) 424-8480,847
946,SERAFINA BROADWAY LTD,,Unenclosed Sidewalk Cafe,1169547,"210 W 55TH ST, NEW YORK, NY 10019",210,W 55TH ST,NEW YORK,NY,10019,Manhattan,,(212) 315-1700,537
947,SERAFINA MEATPACKING LLC,,Unenclosed Sidewalk Cafe,1418637,"7 9TH AVE, NEW YORK, NY 10014",7, 9TH AVE,NEW YORK,NY,10014,Manhattan,,(631) 424-8480,405
948,SERVICE CORP,JACQUES RESTAURANT,Unenclosed Sidewalk Cafe,1173208,"20 PRINCE ST, NEW YORK, NY 10012",20,PRINCE ST,NEW YORK,NY,10012,Manhattan,,(212) 966-8886,118
949,SEVEN A CAFE INC,,Unenclosed Sidewalk Cafe,811344,"109 AVE A, NEW YORK, NY 10009",109,AVE A,NEW YORK,NY,10009,Manhattan,,(212) 673-6583,251
950,"SEVENTH AVENUE TOMATO,INC.",RESTIVO RISTORANTE,Unenclosed Sidewalk Cafe,936261,"209 7 AVENUE, NEW YORK, NY 10011",209,   7 AVENUE,NEW YORK,NY,10011,Manhattan,,(212) 366-4133,272
951,SHAKE SHACK 366 COLUMBUS LLC,SHAKE SHACK,Enclosed Sidewalk Cafe,1282506,"366 COLUMBUS AVE, NEW YORK, NY 10024",366,COLUMBUS AVE,NEW YORK,NY,10024,Manhattan,,(212) 227-1771,431
952,"SHAKE SHACK FULTON STREET BROOKLYN, LLC",SHAKE SHACK,Enclosed Sidewalk Cafe,1389508,"409 FULTON STREET, BROOKLYN, NY 11201",409,FULTON STREET,BROOKLYN,NY,11201,Brooklyn,,(646) 747-7212,613
953,SHALIZAR LLC,PERSEPOLIS,Unenclosed Sidewalk Cafe,1361517,"1407 2ND AVE, NEW YORK, NY 10021",1407, 2ND AVE,NEW YORK,NY,10021,Manhattan,,(212) 535-1100,195
954,SHANGRILA DELI CORP,SHANGRILA DELI,Enclosed Sidewalk Cafe,1251807,"228 FORT WASHINGTON AVENUE, NEW YORK, NY 10032",228,FORT WASHINGTON AVENUE,NEW YORK,NY,10032,Manhattan,,(212) 927-6685,262
955,SHANNON CAFE LLC,PIG N WHISTLE ON 2ND,Unenclosed Sidewalk Cafe,1277414,"951 2ND AVE, NEW YORK, NY 10022",951,2ND AVE,NEW YORK,NY,10022,Manhattan,,(917) 543-2948,113
956,"SHARAKU, INC",,Enclosed Sidewalk Cafe,1323624,"14 STUYVESANT ST, NEW YORK, NY 10003",14,STUYVESANT ST,NEW YORK,NY,10003,Manhattan,,(212) 598-0403,254
957,"SHELBURNE BAR AND GRILL, INC.",THE IRISH PUB,Unenclosed Sidewalk Cafe,1424846,"837 7TH AVE, NEW YORK, NY 10019",837,   7TH AVE,NEW YORK,NY,10019,Manhattan,,(212) 664-9364,192
958,SHIRT RESTAURANT CORP,,Unenclosed Sidewalk Cafe,1191523,"1305 MADISON AVENUE, NEW YORK, NY 10128",1305,MADISON AVENUE,NEW YORK,NY,10128,Manhattan,,(212) 996-1200,83
959,SHNY RESTAURANT GROUP LLC,SOUTHERN HOSPITALITY,Unenclosed Sidewalk Cafe,1415822,"645 9TH AVE, NEW YORK, NY 10036",645,   9TH AVE,NEW YORK,NY,10036,Manhattan,,(212) 201-0719,102
960,SIBECA CORPORATION,POLLOS MARIO,Enclosed Sidewalk Cafe,978206,"40-19 BROADWAY, ASTORIA, NY 11103",40-19,BROADWAY,ASTORIA,NY,11103,Queens,,(718) 932-2424,366
961,SIGGY'S GOOD FOOD L.L.C.,,Unenclosed Sidewalk Cafe,1277182,"76 HENRY ST, BROOKLYN, NY 11201",76,HENRY ST,BROOKLYN,NY,11201,Brooklyn,,(718) 237-3199,158
962,SIGNATURE 102 NORTH END AVE LLC,NORTH END GRILL,Unenclosed Sidewalk Cafe,1433949,"102 N END AVE, NEW YORK, NY 10282",102,N END AVE,NEW YORK,NY,10282,Manhattan,,(646) 747-1600,462
963,SILVER MOON BAKERY INC.,,Unenclosed Sidewalk Cafe,1222176,"2740 BROADWAY, NEW YORK, NY 10025",2740,BROADWAY,NEW YORK,NY,10025,Manhattan,,(212) 866-4717,261
964,SIX LOUNGE LLC,HARLEM FOOD BAR,Unenclosed Sidewalk Cafe,1420812,"2100 FREDERICK DOUGLASS BOULEVARD, NEW YORK, NY 10026",2100,FREDERICK DOUGLASS BOULEVARD,NEW YORK,NY,10026,Manhattan,,(917) 582-4214,261
965,SKDL CORP,LIDO,Unenclosed Sidewalk Cafe,1387872,"2168 FREDERICK DOUGLAS BLVD, NEW YORK, NY 10026",2168,FREDERICK DOUGLAS BLVD,NEW YORK,NY,10026,Manhattan,,(212) 490-8575,300
966,SKIPWELL CORP,BISTRO TEN-18,Unenclosed Sidewalk Cafe,1133929,"1018 AMSTERDAM AVENUE, NEW YORK, NY 10025",1018,AMSTERDAM AVENUE,NEW YORK,NY,10025,Manhattan,,(212) 662-7600,271
967,SL & H BAGEL INC.,BAGAL EXPRESS II,Unenclosed Sidewalk Cafe,1286845,"1228 2ND AVE, NEW YORK, NY 10065",1228, 2ND AVE,NEW YORK,NY,10065,Manhattan,,(212) 879-3960,208
968,"SLICE WEST VILLAGE, LTD.","SLICE, THE PERFECT FOOD",Unenclosed Sidewalk Cafe,1346838,"535 HUDSON ST, NEW YORK, NY 10014",535,HUDSON ST,NEW YORK,NY,10014,Manhattan,,(212) 929-2920,193
969,SMITHFIELD ASSOCIATES LLC,PASTIS,Unenclosed Sidewalk Cafe,1186742,"9-19 9 AVENUE, NEW YORK, NY 10014",9-19,   9 AVENUE,NEW YORK,NY,10014,Manhattan,,(212) 989-4244,1010
970,SMOKE CITY ENTERPRISES LLC,NATIVE,Unenclosed Sidewalk Cafe,1159785,"161 LENOX AVE, NEW YORK, NY 10026",161,LENOX AVE,NEW YORK,NY,10026,Manhattan,101 W 118TH ST,(212) 665-2525,503
971,SMORGAS CHEF WEST VILLAGE LLC,,Unenclosed Sidewalk Cafe,1233131,"283 WEST   12 STREET, NEW YORK, NY 10014",283,WEST   12 STREET,NEW YORK,NY,10014,Manhattan,,(646) 209-9633,275
972,SNOWDAY LLC,THE SKYLARK,Unenclosed Sidewalk Cafe,1420950,"477 5TH AVE, BROOKLYN, NY 11215",477,5TH AVE,BROOKLYN,NY,11215,Brooklyn,,(347) 564-3364,236
973,SO-TAUN ENTERPRISES LLC,WAVE THAI,Unenclosed Sidewalk Cafe,1277928,"21-37 31ST ST, ASTORIA, NY 11105",21-37, 31ST ST,ASTORIA,NY,11105,Queens,,(718) 777-6789,129
974,SOH PEACE INC,FUKUROU,Unenclosed Sidewalk Cafe,1452982,"87 MACDOUGAL ST, NEW YORK, NY 10012",87,MACDOUGAL ST,NEW YORK,NY,10012,Manhattan,,(646) 244-6911,108
975,SOI 30 INC.,SOI 30 THAI,Enclosed Sidewalk Cafe,1375450,"430 3RD AVE, NEW YORK, NY 10016",430,   3RD AVE,NEW YORK,NY,10016,Manhattan,,(212) 481-5211,233
976,SOL Y SOMBRE LTD,,Unenclosed Sidewalk Cafe,1218320,"462 AMSTERDAM AVE, NEW YORK, NY 10024",462,AMSTERDAM AVE,NEW YORK,NY,10024,Manhattan,,(212) 400-4036,120
977,"SOL'S RESTAURANT,INC",IL SOLE,Unenclosed Sidewalk Cafe,1224759,"233 DYCKMAN ST, NEW YORK, NY 10034",233,DYCKMAN ST,NEW YORK,NY,10034,Manhattan,,(212) 544-0406,542
978,SONNY LOU INC,,Unenclosed Sidewalk Cafe,1351690,"253 10 AVE, NEW YORK, NY 10001",253,  10 AVE,NEW YORK,NY,10001,Manhattan,,(646) 552-9587,91
979,SOUP KITCHEN ASSOC. LTD.,BISTRO 33,Unenclosed Sidewalk Cafe,1250759,"19-33 DITMARS BOULEVARD, ASTORIA, NY 11105",19-33,DITMARS BOULEVARD,ASTORIA,NY,11105,Queens,,(718) 721-1933,555
980,SOUTH ELLIOTT BK LLC, BERLYN,Unenclosed Sidewalk Cafe,1422648,"25 LAFAYETTE AVE, BROOKLYN, NY 11217",25,LAFAYETTE AVE,BROOKLYN,NY,11217,Brooklyn,,(718) 222-5800,315
981,SOUTH LAKE HOSPITALITY GROUP INC,HARLEM PUBLIC,Unenclosed Sidewalk Cafe,1428232,"3612 BROADWAY, NEW YORK, NY 10031",3612,BROADWAY,NEW YORK,NY,10031,Manhattan,,(201) 230-2574,113
982,SPARTAN SOUVLAKI CORP,SPARTAN SOUVLAKI,Unenclosed Sidewalk Cafe,1142568,"6818 8 AVENUE, BROOKLYN, NY 11220",6818,   8 AVENUE,BROOKLYN,NY,11220,Brooklyn,,(718) 748-5838,361
983,SPICE CORNER 236 INC,,Unenclosed Sidewalk Cafe,1378222,"1479 1 AVENUE, NEW YORK, NY 10075",1479,   1 AVENUE,NEW YORK,NY,10075,Manhattan,,(212) 744-6374,92
984,"SPOONBREAD, INC",MISS MAMIES,Unenclosed Sidewalk Cafe,1039389,"364 WEST  110 STREET, NEW YORK, NY 10025",364,WEST  110 STREET,NEW YORK,NY,10025,Manhattan,,(212) 865-0700,149
985,SPRING NATURAL CORP,SPRING NATURAL KITCHEN,Unenclosed Sidewalk Cafe,1415817,"474-476 COLUMBUS AVE, NEW YORK, NY 10024",474-476,COLUMBUS AVE,NEW YORK,NY,10024,Manhattan,,(201) 280-1978,233
986,"SPUNTO, INC.",,Unenclosed Sidewalk Cafe,1325458,"65 CARMINE STREET, NEW YORK, NY 10014",65,CARMINE STREET,NEW YORK,NY,10014,Manhattan,,(212) 242-1200,320
987,ST MARKS CAFE INC,RAY PIZZA & BAGEL,Unenclosed Sidewalk Cafe,1075404,"2 ST MARKS PLACE, NEW YORK, NY 10003",2,ST MARKS PLACE,NEW YORK,NY,10003,Manhattan,,(212) 533-6656,268
988,ST. JAMES ASSOCIATES LP,SMITH & WOLLENSKY,Unenclosed Sidewalk Cafe,978960,"201 E 49TH ST, NEW YORK, NY 10017",201,E 49TH ST,NEW YORK,NY,10017,Manhattan,,(212) 753-1530,214
989,"ST. JAMES ASSOCIATES, LP",SMITH & WOLLENSKY,Enclosed Sidewalk Cafe,978961,"201 EAST   49 STREET, NEW YORK, NY 10017",201,EAST   49 STREET,NEW YORK,NY,10017,Manhattan,,(212) 753-1530,334
990,"ST. JUDE ENTERPRISES, LLC",BENITO ONE,Unenclosed Sidewalk Cafe,1394721,"174 MULBERRY STREET, NEW YORK, NY 10013",174,MULBERRY STREET,NEW YORK,NY,10013,Manhattan,,(212) 226-9171,66
991,STAGE DELICATESSEN & RESTAURANT INC.,                    E/S/C #294,Enclosed Sidewalk Cafe,733469,"832 7 AVENUE, NEW YORK, NY 10019",832,   7 AVENUE,NEW YORK,NY,10019,Manhattan,832-834 7 AVE,(212) 245-7850,500
992,STANTON RESTAURANT CORP,EPSTEIN BAR,Unenclosed Sidewalk Cafe,1189213,"82 STANTON STREET, NEW YORK, NY 10002",82,STANTON STREET,NEW YORK,NY,10002,Manhattan,,(212) 477-2232,241
993,STARBUCKS CORPORATION,STARBUCKS COFFEE,Unenclosed Sidewalk Cafe,1233396,"145 2ND AVE, NEW YORK, NY 10003",145,2ND AVE,NEW YORK,NY,10003,Manhattan,,(718) 921-2736,232
994,STARBUCKS CORPORATION,STARBUCKS COFFEE CO. #818,Enclosed Sidewalk Cafe,924263,"1559 2 AVENUE, NEW YORK, NY 10028",1559,   2 AVENUE,NEW YORK,NY,10028,Manhattan,,(206) 318-4048,439
995,STARBUCKS CORPORATION,STARBUCKS COFFEE COMPANY,Enclosed Sidewalk Cafe,924582,"454 LAFAYETTE ST, NEW YORK, NY 10003",454,LAFAYETTE ST,NEW YORK,NY,10003,Manhattan,STORE #825_AKA 13-25 ASTOR PLACE,(206) 318-4048,947
996,STARBUCKS CORPORATION,STARBUCKS COFFEE COMPANY,Enclosed Sidewalk Cafe,1237141,"7419 3 AVENUE, BROOKLYN, NY 11209",7419,   3 AVENUE,BROOKLYN,NY,11209,Brooklyn,,(212) 613-1280,260
997,STARBUCKS CORPORATION,STARBUCKS COFFEE COMPANY,Unenclosed Sidewalk Cafe,1427775,"1515 YORK AVE, NEW YORK, NY 10028",1515,YORK AVE,NEW YORK,NY,10028,Manhattan,AKA 443 E 80TH ST,(212) 982-3566,671
998,STEELBAR 180 INCORPORATED,PERCY'S TAVERN,Unenclosed Sidewalk Cafe,1385066,"210 AVENUE A, NEW YORK, NY 10009",210,AVENUE A,NEW YORK,NY,10009,Manhattan,,(212) 473-7770,240
999,STEVEN JAY LLC,PARLOR STEAKHOUSE,Enclosed Sidewalk Cafe,1287124,"1600 THIRD AVENUE, NEW YORK, NY 10128",1600,THIRD AVENUE,NEW YORK,NY,10128,Manhattan,,(212) 423-5888,300
1000,"STEVEN JAY, LLC",PARLOR,Unenclosed Sidewalk Cafe,1306814,"1600 3 AVENUE, NEW YORK, NY 10128",1600,   3 AVENUE,NEW YORK,NY,10128,Manhattan,,(914) 476-588,308
1001,"STINKY VINE, LLC",THE JAKEWALK,Unenclosed Sidewalk Cafe,1308519,"282 SMITH STREET, BROOKLYN, NY 11231",282,SMITH STREET,BROOKLYN,NY,11231,Brooklyn,,(718) 875-1500,190
1002,STOKES & MCGINLEY INC,ALFIE'S,Unenclosed Sidewalk Cafe,1435075,"800 9TH AVE, NEW YORK, NY 10019",800,9TH AVE,NEW YORK,NY,10019,Manhattan,,(917) 929-0363,
1003,STRATOS BAKERY CORP,BOCADO BAKERY CAFE,Enclosed Sidewalk Cafe,1433213,"1297 LEXINGTON AVENUE, NEW YORK, NY 10128",1297,LEXINGTON AVENUE,NEW YORK,NY,10128,Manhattan,,(917) 902-6607,
1004,STROKOS GOURMET DELI INC,,Enclosed Sidewalk Cafe,1026510,"1090 AMSTERDAM AVENUE, NEW YORK, NY 10025",1090,AMSTERDAM AVENUE,NEW YORK,NY,10025,Manhattan,,(212) 666-2121,301
1005,STRONGFIVE LLC,BLAUE GANS,Unenclosed Sidewalk Cafe,1353480,"139 DUANE ST, NEW YORK, NY 10013",139,DUANE ST,NEW YORK,NY,10013,Manhattan,,(212) 513-1988,180
1006,STS RESTAURANT CORP,CINEMA CAFE,Unenclosed Sidewalk Cafe,1172205,"505 3 AVENUE, NEW YORK, NY 10016",505,   3 AVENUE,NEW YORK,NY,10016,Manhattan,,(212) 689-9022,453
1007,STS RESTAURANT CORP.,CINEMA CAFE,Unenclosed Sidewalk Cafe,1034243,"505 3 AVENUE, NEW YORK, NY 10016",505,   3 AVENUE,NEW YORK,NY,10016,Manhattan,,(212) 689-9022,95
1008,SUBLIME PORTE LLC,TURKS & FROGS TRIBECA,Unenclosed Sidewalk Cafe,1314914,"458 GREENWICH STREET, NEW YORK, NY 10013",458,GREENWICH STREET,NEW YORK,NY,10013,Manhattan,,(212) 966-4774,101
1009,SUGAR FREAK LLC,SUGAR FREAK,Unenclosed Sidewalk Cafe,1427125,"3618 30TH AVE, ASTORIA, NY 11103",3618,30TH AVE,ASTORIA,NY,11103,Queens,,(718) 726-5850,119
1010,SULLIVAN RESTAURANT LLC,COMPANY,Unenclosed Sidewalk Cafe,1316751,"230 9 AVENUE, NEW YORK, NY 10001",230,   9 AVENUE,NEW YORK,NY,10001,Manhattan,,(212) 243-1105,57
1011,SUMMIT OF THE WORLD INC.,BONE LICK PARK,Unenclosed Sidewalk Cafe,1343308,"75 GREENWICH AVE, NEW YORK, NY 10014",75,GREENWICH AVE,NEW YORK,NY,10014,Manhattan,,(212) 647-9600,200
1012,"SUN OF MAY, LLC",LENOX SOCIAL,Unenclosed Sidewalk Cafe,1418169,"321 LENOX AVE, NEW YORK, NY 10027",321,LENOX AVE,NEW YORK,NY,10027,Manhattan,,(917) 691-3630,411
1013,SUPER DUMPLING CORP,,Unenclosed Sidewalk Cafe,1430023,"251 E 45TH ST, NEW YORK, NY 10017",251,E 45TH ST,NEW YORK,NY,10017,Manhattan,,(212) 254-2868,156
1014,"SUPER NOODLE, INC.",OLD TOWN HOT POT,Unenclosed Sidewalk Cafe,1391722,"70 7TH AVE S, NEW YORK, NY 10014",70,7TH AVE S,NEW YORK,NY,10014,Manhattan,,(212) 929-2188,230
1015,"SURTIC, INC",CITRUS,Unenclosed Sidewalk Cafe,1025224,"320 AMSTERDAM AVE, NEW YORK, NY 10023",320,AMSTERDAM AVE,NEW YORK,NY,10023,Manhattan,,(212) 595-0500,585
1016,SUTOL OPERATING COMPANY LLC,ABE & ARTHUR'S RESTAURANT,Unenclosed Sidewalk Cafe,1345894,"409 W 14TH ST, NEW YORK, NY 10014",409,W 14TH ST,NEW YORK,NY,10014,Manhattan,,(212) 627-1235,251
1017,SWEET ATHENS CAFE INC,,Enclosed Sidewalk Cafe,1439584,"3207 30TH AVE, ASTORIA, NY 11102",3207,30TH AVE,ASTORIA,NY,11102,Queens,,(718) 626-2164,
1018,SYLVIA WOODS INC,,Unenclosed Sidewalk Cafe,1323280,"328 LENOX AVENUE, NEW YORK, NY 10027",328,LENOX AVENUE,NEW YORK,NY,10027,Manhattan,AKA MALCOLM X BLVD,(212) 966-0660,533
1019,SYMPATOCH CAFE INC.,DANDANA CAFE,Unenclosed Sidewalk Cafe,1221132,"42-21 BROADWAY, QUEENS, NY 11103",42-21,BROADWAY,QUEENS,NY,11103,Queens,,(718) 204-6811,319
1020,SYVROS RESTAURANT CORP.,ZORBA'S,Unenclosed Sidewalk Cafe,1169199,"2905 23RD AVE, ASTORIA, NY 11105",2905,23RD AVE,ASTORIA,NY,11105,Queens,,(718) 956-7266,187
1021,"T BURGER, LLC",,Unenclosed Sidewalk Cafe,1253169,"67 LAFAYETTE AVENUE, BROOKLYN, NY 11217",67,LAFAYETTE AVENUE,BROOKLYN,NY,11217,Brooklyn,,(718) 797-3790,138
1022,"T,M & P RESTAURANT LLC",ECO TABLE,Unenclosed Sidewalk Cafe,1388915,"33-20 31 AVENUE, ASTORIA, NY 11106",33-20,  31 AVENUE,ASTORIA,NY,11106,Queens,,(646) 764-3066,464
1023,"T. HOSPITALITY, INC.",SEA,Unenclosed Sidewalk Cafe,1425422,"835 WASHINGTON ST, NEW YORK, NY 10014",835,WASHINGTON ST,NEW YORK,NY,10014,Manhattan,,(212) 243-3339,577
1024,TABOON RESTAURANT CORP.,TABOON,Unenclosed Sidewalk Cafe,1253585,"773 10 AVENUE, NEW YORK, NY 10019",773,  10 AVENUE,NEW YORK,NY,10019,Manhattan,,(212) 713-0271,196
1025,TAJIN RESTAURANT CORP,,Unenclosed Sidewalk Cafe,1422914,"83-85 GREENWICH ST, NEW YORK, NY 10006",83-85,GREENWICH ST,NEW YORK,NY,10006,Manhattan,,(212) 509-5017,193
1026,TAKATSUKI CORPORATION,SHIMA JAPANESE RESTAURANT,Unenclosed Sidewalk Cafe,1004472,"188-190 2ND AVE, NEW YORK, NY 10003",188-190,2ND AVE,NEW YORK,NY,10003,Manhattan,,(212) 260-6303,199
1027,TALIA'S RESTAURANT GROUP LLC,TALIA'S STEAKHOUSE & BAR,Unenclosed Sidewalk Cafe,1139454,"668 AMSTERDAM AVENUE, NEW YORK, NY 10025",668,AMSTERDAM AVENUE,NEW YORK,NY,10025,Manhattan,,(212) 580-3770,360
1028,"TANOREEN CATERERS, INC",TANOREEN,Enclosed Sidewalk Cafe,1360215,"7523 3 AVENUE, BROOKLYN, NY 11209",7523,   3 AVENUE,BROOKLYN,NY,11209,Brooklyn,,(718) 748-5600,222
1029,"TAPAS FOOD AND WINE, INC.",BARCIBO ENOTECA,Unenclosed Sidewalk Cafe,1308014,"2020 BROADWAY, NEW YORK, NY 10023",2020,BROADWAY,NEW YORK,NY,10023,Manhattan,,(212) 595-2805,246
1030,"TAPPO, INC",,Unenclosed Sidewalk Cafe,1385967,"49 WEST 24TH STREET, NEW YORK, NY 10010",49,WEST 24TH STREET,NEW YORK,NY,10010,Manhattan,,(646) 454-9051,140
1031,"TARO REST, INC",DUE,Unenclosed Sidewalk Cafe,835262,"1396 3RD AVE, NEW YORK, NY 10075",1396,3RD AVE,NEW YORK,NY,10075,Manhattan,,(212) 249-7070,84
1032,TAZZINI CORP.,TAZZA,Unenclosed Sidewalk Cafe,1319786,"311 HENRY STREET, BROOKLYN, NY 11201",311,HENRY STREET,BROOKLYN,NY,11201,Brooklyn,,(718) 243-0487,285
1033,TB 584 AMSTERDAM REST. CORP.,BODRUM,Unenclosed Sidewalk Cafe,1247422,"584 AMSTERDAM AVENUE, NEW YORK, NY 10024",584,AMSTERDAM AVENUE,NEW YORK,NY,10024,Manhattan,,(646) 863-6275,280
1034,TECTON CAFE INC,ESTANCIA STREET,Unenclosed Sidewalk Cafe,1359208,"460 GREENWICH ST, NEW YORK, NY 10013",460,GREENWICH ST,NEW YORK,NY,10013,Manhattan,,(212) 431-5093,79
1035,TEN ELEVEN HOLDINGS L.L.C.,PENCIL FACTORY,Unenclosed Sidewalk Cafe,1133916,"142 FRANKLIN STREET, BROOKLYN, NY 11222",142,FRANKLIN STREET,BROOKLYN,NY,11222,Brooklyn,,(718) 609-5858,298
1036,"TEN JAPANESE CUISINE, CORP.",,Unenclosed Sidewalk Cafe,1345473,"440 7 AVENUE, BROOKLYN, NY 11215",440,   7 AVENUE,BROOKLYN,NY,11215,Brooklyn,,(718) 768-9888,140
1037,TENZAN NEW YORK CORP,TENZAN JAPANESE RESTAURANT,Unenclosed Sidewalk Cafe,1343003,"285 COLUMBUS AVE, NEW YORK, NY 10023",285,COLUMBUS AVE,NEW YORK,NY,10023,Manhattan,,(212) 580-7300,350
1038,TENZAN SUSHI CORP,,Unenclosed Sidewalk Cafe,1381672,"1714 2 AVENUE, NEW YORK, NY 10128",1714,   2 AVENUE,NEW YORK,NY,10128,Manhattan,,(212) 369-3600,243
1039,"TERMINUS RESTAURANT ASSOCIATES, LLC",ORSAY RESTAURANT,Enclosed Sidewalk Cafe,1022739,"1057 LEXINGTON AVENUE, NEW YORK, NY 10021",1057,LEXINGTON AVENUE,NEW YORK,NY,10021,Manhattan,,(212) 517-4296,371
1040,TERRA MIA ENTERPRISES INC,EOLO,Unenclosed Sidewalk Cafe,1378680,"190 7TH AVE, NEW YORK, NY 10011",190,7TH AVE,NEW YORK,NY,10011,Manhattan,,(917) 544-3972,215
1041,"TESSA & LUCHO, INC",BAR BRUNO,Unenclosed Sidewalk Cafe,1422856,"520 HENRY STREET, BROOKLYN, NY 11231",520,HENRY STREET,BROOKLYN,NY,11231,Brooklyn,,(347) 763-0850,197
1042,TGD GROUP INC,BOTTEGA,Unenclosed Sidewalk Cafe,1418174,"233 E 70TH ST, NEW YORK, NY 10021",233,E 70TH ST,NEW YORK,NY,10021,Manhattan,AKA 1331 2ND AVE,(646) 875-0178,456
1043,THAFATH INC,DEUX AMIS RESTAURANT,Unenclosed Sidewalk Cafe,1174880,"356 E 51TH ST, NEW YORK, NY 10022",356,E 51TH ST,NEW YORK,NY,10022,Manhattan,,(516) 641-8924,166
1044,THAI MARKET INC.,,Unenclosed Sidewalk Cafe,1275484,"960 AMSTERDAM AVE, NEW YORK, NY 10025",960,AMSTERDAM AVE,NEW YORK,NY,10025,Manhattan,,(212) 280-4575,232
1045,THE 8801 CORP,CEBU,Unenclosed Sidewalk Cafe,1139335,"8801 3RD AVE, BROOKLYN, NY 11209",8801,3RD AVE,BROOKLYN,NY,11209,Brooklyn,,(718) 492-5095,575
1046,THE ATTIC CORPORATION OF DOUGLASTON,LOCALE,Unenclosed Sidewalk Cafe,1220794,"33-02 34 AVENUE, QUEENS, NY 11106",33-02,  34 AVENUE,QUEENS,NY,11106,Queens,,(718) 729-9080,239
1047,THE BORDON AVE REST. INC,WATERFRONT CRABHOUSEE/S/C #530,Enclosed Sidewalk Cafe,804849,"2-03 BORDEN AVE, LONG ISLND CITY, NY 11101",2-03,BORDEN AVE,LONG ISLND CITY,NY,11101,Queens,,(718) 729-4862,375
1048,"THE ELEMENT RESTAURANT GROUP, INC.",181 CABRINI,Unenclosed Sidewalk Cafe,1349596,"854 W 181ST ST, NEW YORK, NY 10033",854,W 181ST ST,NEW YORK,NY,10033,Manhattan,,(212) 363-0032,334
1049,THE EMERA GROUP INCORPORATED,DUNKIN DONUTS & BASKIN-ROBBINS,Unenclosed Sidewalk Cafe,1277636,"610 10TH AVE, NEW YORK, NY 10036",610,10TH AVE,NEW YORK,NY,10036,Manhattan,,(212) 969-9100,140
1050,"THE FUTABA CORPORATION, INC.",CHOSHI JAPANESE RESTAURANT,Unenclosed Sidewalk Cafe,851080,"77 IRVING PLACE, NEW YORK, NY 10003",77,IRVING PLACE,NEW YORK,NY,10003,Manhattan,STORE #1 AND #2,(212) 420-1419,180
1051,THE GLEF LTD.,TEDDY'S BAR & GRILL,Unenclosed Sidewalk Cafe,1418758,"96 BERRY ST, BROOKLYN, NY 11211",96,BERRY ST,BROOKLYN,NY,11211,Brooklyn,,(718) 384-9787,294
1052,THE HOLY GRAIL INC.,DOWNTOWN BAR & GRILL,Unenclosed Sidewalk Cafe,1226454,"160 COURT STREET, BROOKLYN, NY 11201",160,COURT STREET,BROOKLYN,NY,11201,Brooklyn,,(718) 625-2835,309
1053,THE HUMMUS & PITA COMPANY LLC,THE HUMMUS & PITA CO,Unenclosed Sidewalk Cafe,1429816,"585 AVE OF THE AMERICAS, NEW YORK, NY 10011",585,AVE OF THE AMERICAS,NEW YORK,NY,10011,Manhattan,,(212) 510-7405,90
1054,THE MEATBALL SHOP LLC,THE MEATBALL SHOP,Unenclosed Sidewalk Cafe,1352656,"84 STANTON ST, NEW YORK, NY 10002",84,STANTON ST,NEW YORK,NY,10002,Manhattan,,(415) 378-8420,89
1055,THE ODEON INC,THE ODEON,Unenclosed Sidewalk Cafe,920717,"145 WEST BROADWAY, NEW YORK, NY 10013",145,WEST BROADWAY,NEW YORK,NY,10013,Manhattan,,(917) 747-6481,371
1056,"THE ORIGINAL VINCENT'S, ESTABLISHED 1904 INC.",VINCENT'S,Unenclosed Sidewalk Cafe,1139678,"119 MOTT STREET, NEW YORK, NY 10013",119,MOTT STREET,NEW YORK,NY,10013,Manhattan,,(212) 226-8133,355
1057,THE OTHEROOM INC.,,Unenclosed Sidewalk Cafe,1110366,"143 PERRY STREET, NEW YORK, NY 10014",143,PERRY STREET,NEW YORK,NY,10014,Manhattan,,(212) 645-9758,63
1058,"THE PIZZA BOX RESTAURANT -PIZZERIA-CAFE, INC.",GENERICO'S PIZZERIA AND CAFE,Unenclosed Sidewalk Cafe,1421503,"3535 RIVERDALE AVE, BRONX, NY 10463",3535,RIVERDALE AVE,BRONX,NY,10463,Bronx,,(718) 601-9000,121
1059,THE SHOREHAM LLC,THE SHOREHAM HOTEL,Unenclosed Sidewalk Cafe,1298516,"39 W 55TH ST, NEW YORK, NY 10019",39,W 55TH ST,NEW YORK,NY,10019,Manhattan,,(212) 957-8300,190
1060,THE SMOKE JOINT LLC,THE SMOKE JOINT,Enclosed Sidewalk Cafe,1245257,"87 S ELLIOTT PL, BROOKLYN, NY 11217",87,S ELLIOTT PL,BROOKLYN,NY,11217,Brooklyn,,(718) 797-1011,161
1061,THE WESTSIDE OF BROADWAY RESTAURANT GROUP INC.,TOAST,Unenclosed Sidewalk Cafe,1109932,"2737 BROADWAY, NEW YORK, NY 10025",2737,BROADWAY,NEW YORK,NY,10025,Manhattan,,(212) 663-7010,481
1062,THIERRY INC.,LE CHARIOT,Unenclosed Sidewalk Cafe,1167909,"19 EAST   69 STREET, NEW YORK, NY 10021",19,EAST   69 STREET,NEW YORK,NY,10021,Manhattan,,(212) 794-1628,137
1063,THINK BLEECKER LLC,THINK COFFEE,Unenclosed Sidewalk Cafe,1277645,"1 BLEECKER ST, NEW YORK, NY 10012",1,BLEECKER ST,NEW YORK,NY,10012,Manhattan,,(917) 692-2571,233
1064,THIRD AVE CAFE LLC,BANC CAFE,Unenclosed Sidewalk Cafe,1348205,"431 3 AVENUE, NEW YORK, NY 10016",431,   3 AVENUE,NEW YORK,NY,10016,Manhattan,,(212) 252-0146,540
1065,"THIRD AVE. REST.,INC.",JAKE'S DILEMMA,Unenclosed Sidewalk Cafe,1096363,"430 AMSTERDAM AVENUE, NEW YORK, NY 10024",430,AMSTERDAM AVENUE,NEW YORK,NY,10024,Manhattan,,(212) 580-0556,197
1066,THIRD AVENUE RESTAURANT CORP.,VILLAGE POURHOUSE,Unenclosed Sidewalk Cafe,1248146,"64 3RD AVE, NEW YORK, NY 10003",64, 3RD AVE,NEW YORK,NY,10003,Manhattan,,(212) 375-1396,153
1067,THOMPSON REST. INC,DON GIOVANNI,Unenclosed Sidewalk Cafe,1283822,"358 WEST   44 STREET, NEW YORK, NY 10036",358,WEST   44 STREET,NEW YORK,NY,10036,Manhattan,,(212) 807-0916,235
1068,THREE BEANS INC,BENNY'S BURRITO,Unenclosed Sidewalk Cafe,853927,"93 AVENUE A, NEW YORK, NY 10009",93,AVENUE A,NEW YORK,NY,10009,Manhattan,,(212) 234-2054,410
1069,"THREE DECKER RESTAURANT,LTD",THREE DECKER RESTAURANT,Enclosed Sidewalk Cafe,949696,"1746 2 AVENUE, NEW YORK, NY 10128",1746,   2 AVENUE,NEW YORK,NY,10128,Manhattan,,(212) 289-9936,414
1070,"THREE STAR ON FIRST, INC.",THREE STAR DINER,Enclosed Sidewalk Cafe,1219509,"1462 FIRST AVENUE, NEW YORK, NY 10075",1462,FIRST AVENUE,NEW YORK,NY,10075,Manhattan,,(212) 861-7500,359
1071,"TIRAMISU RESTAURANT, LLC",TIRAMISU REST.,Unenclosed Sidewalk Cafe,1282359,"1410 THIRD AVENUE, NEW YORK, NY 10028",1410,THIRD AVENUE,NEW YORK,NY,10028,Manhattan,,(212) 988-9780,287
1072,TJ 104 RESTAURANT CORP.,TIMMY'S BY THE RIVER.,Unenclosed Sidewalk Cafe,1295832,"1737 YORK AVENUE, NEW YORK, NY 10128",1737,YORK AVENUE,NEW YORK,NY,10128,Manhattan,,(212) 860-9191,467
1073,TK REST. CORP.,,Unenclosed Sidewalk Cafe,1166759,"33 LEONARD ST, NEW YORK, NY 10013",33,LEONARD ST,NEW YORK,NY,10013,Manhattan,,(212) 925-7188,316
1074,TOBSK LLC,MCCOY,Unenclosed Sidewalk Cafe,1432085,"89 MACDOUGAL ST, NEW YORK, NY 10012",89,MACDOUGAL ST,NEW YORK,NY,10012,Manhattan,,(516) 946-6389,420
1075,TOBY'S PUBLIC HOUSE II LLC,,Unenclosed Sidewalk Cafe,1431897,"86 KENMARE ST, NEW YORK, NY 10012",86,KENMARE ST,NEW YORK,NY,10012,Manhattan,,(917) 450-4988,118
1076,TORTILLA FLATS INC,TORTILLA FLATS,Unenclosed Sidewalk Cafe,805433,"767 WASHINGTON STREET, NEW YORK, NY 10014",767,WASHINGTON STREET,NEW YORK,NY,10014,Manhattan,,(212) 243-1053,226
1077,TOSCA COAL BURNING OVEN INC,,Enclosed Sidewalk Cafe,1268609,"4038 EAST TREMONT AVENUE, BRONX, NY 10465",4038,EAST TREMONT AVENUE,BRONX,NY,10465,Bronx,,(718) 402-0872,814
1078,TOTORE PIZZERIA & RESTUARANT INC.,TOTORE PIZZERIA & RESTUARANT INC.,Enclosed Sidewalk Cafe,851667,"36-20 DITMARS BOULEVARD, ASTORIA, NY 11105",36-20,DITMARS BOULEVARD,ASTORIA,NY,11105,Queens,,(718) 932-5924,395
1079,"TRATTORIA ROMANA, INC",,Unenclosed Sidewalk Cafe,1232567,"1476 HYLAN BLVD, STATEN ISLAND, NY 10305",1476,HYLAN BLVD,STATEN ISLAND,NY,10305,Staten Island,,(718) 980-3113,369
1080,"TRE-GIOVANI,INC",TRE GIOVANI PIZZA & PASTA,Unenclosed Sidewalk Cafe,997686,"548 LA GUARDIA PLACE, NEW YORK, NY 10012",548,LA GUARDIA PLACE,NEW YORK,NY,10012,Manhattan,,(212) 475-7420,95
1081,TREL RESTAURANT INC,,Unenclosed Sidewalk Cafe,1334107,"800 SEVENTH AVENUE, NEW YORK, NY 10019",800,SEVENTH AVENUE,NEW YORK,NY,10019,Manhattan,,(212) -,382
1082,"TRES DE MEXICO, LLC",MESA COYOACAN,Unenclosed Sidewalk Cafe,1346116,"372 GRAHAM AVENUE, BROOKLYN, NY 11211",372,GRAHAM AVENUE,BROOKLYN,NY,11211,Brooklyn,,(718) 782-8171,75
1083,"TRIBECA GRAND HOTEL, INC",TRIBECA GRAND HOTEL,Unenclosed Sidewalk Cafe,1418818,"32 WHITE ST, NEW YORK, NY 10013",32,WHITE ST,NEW YORK,NY,10013,Manhattan,AKA 2 AVE OF THE AMERICAS,(212) 965-3000,575
1084,TRIM CASTLE CORP.,COOPERS CRAFT AND KITCHEN,Enclosed Sidewalk Cafe,1414471,"87 2 AVENUE, NEW YORK, NY 10003",87,   2 AVENUE,NEW YORK,NY,10003,Manhattan,AKK: 239 EAST 5TH STREET,(917) 716-4590,246
1085,TRIPTI INC,MOTI MAHAL DELUX,Enclosed Sidewalk Cafe,1438010,"1149 1ST AVE, NEW YORK, NY 10065",1149,1ST AVE,NEW YORK,NY,10065,Manhattan,,(212) 371-3535,269
1086,TRUMLIN REST.CORP.,DIVINO RISTORANTE,Unenclosed Sidewalk Cafe,908218,"1556 2 AVENUE, NEW YORK, NY 10028",1556,   2 AVENUE,NEW YORK,NY,10028,Manhattan,,(212) 861-1096,145
1087,TS3 HOSPITALITY LLC,THE SMITH,Unenclosed Sidewalk Cafe,1422807,"1900 BROADWAY, NEW YORK, NY 10023",1900,BROADWAY,NEW YORK,NY,10023,Manhattan,,(212) 966-3250,686
1088,TSM RESTAURANT LLC,BUTTERMILK CHANNEL,Unenclosed Sidewalk Cafe,1276639,"524 COURT ST, BROOKLYN, NY 11231",524,COURT ST,BROOKLYN,NY,11231,Brooklyn,,(718) 781-5445,144
1089,TTT BROKLYN INC.,JOLIE CANTINA,Unenclosed Sidewalk Cafe,1391334,"241 SMITH STREET, BROOKLYN, NY 11231",241,SMITH STREET,BROOKLYN,NY,11231,Brooklyn,,(917) 609-0241,266
1090,TUTTO BENE RESTAURANT INC.,CHELSEA TRATTORIA,Unenclosed Sidewalk Cafe,1338890,"108 8 AVENUE, NEW YORK, NY 10011",108,   8 AVENUE,NEW YORK,NY,10011,Manhattan,,(212) 924-7786,126
1091,TWELFTH STREET CORP,VILLAGE DEN RESTAURANT,Unenclosed Sidewalk Cafe,1035310,"225 WEST   12 STREET, NEW YORK, NY 10011",225,WEST   12 STREET,NEW YORK,NY,10011,Manhattan,,(212) 691-0303,185
1092,TWIST IT TOP IT FROZEN YOGURT LLC,,Unenclosed Sidewalk Cafe,1438861,"15818A CROSSBAY BLVD, HOWARD BEACH, NY 11414",15818A,CROSSBAY BLVD,HOWARD BEACH,NY,11414,Queens,,(917) 797-5730,140
1093,TWO & EIGHT GOURMET LTD.,DALLAS BBQ,Unenclosed Sidewalk Cafe,804523,"132 2ND AVE, MANHATTAN, NY 10003",132,2ND AVE,MANHATTAN,NY,10003,Manhattan,,(212) 529-2563,535
1094,UKATOSH CORP,,Enclosed Sidewalk Cafe,987452,"36-02 31 STREET, ASTORIA, NY 11106",36-02,  31 STREET,ASTORIA,NY,11106,Queens,"A/K/A 31-02, 36 STREET",(718) 433-2191,167
1095,UNCLE ABIES DELI ON FIRST INC.,2ND AVENUE DELI,Enclosed Sidewalk Cafe,1398066,"1442 1 AVENUE, NEW YORK, NY 10021",1442,   1 AVENUE,NEW YORK,NY,10021,Manhattan,,(212) 300-7117,565
1096,UNGS FOOD SERVICES INC.,UNCLE GEORGES TAVERN,Enclosed Sidewalk Cafe,1277458,"33-19 BROADWAY, ASTORIA, NY 11106",33-19,BROADWAY,ASTORIA,NY,11106,Queens,,(718) 626-0593,607
1097,UNION SQUARE CATERING FACILITY INC.,COFFEE SHOP,Unenclosed Sidewalk Cafe,1157684,"29 UNION SQ W, NEW YORK, NY 10003",29,UNION SQ W,NEW YORK,NY,10003,Manhattan,,(212) 243-7969,812
1098,UNION STREET PROVISIONS LLC,FORT RENO,Unenclosed Sidewalk Cafe,1421725,"669 UNION ST, BROOKLYN, NY 11215",669,UNION ST,BROOKLYN,NY,11215,Brooklyn,,(347) 227-7777,350
1099,"UNO OF ASTORIA, INC.",PIZZERIA UNO,Unenclosed Sidewalk Cafe,1157157,"37-11 35 AVENUE, QUEENS, NY 11101",37-11,  35 AVENUE,QUEENS,NY,11101,Queens,,(718) 706-8800,320
1100,UPPER WEST REST. CORP.,FRED'S,Unenclosed Sidewalk Cafe,1218332,"476 AMSTERDAM AVE, NEW YORK, NY 10024",476,AMSTERDAM AVE,NEW YORK,NY,10024,Manhattan,,(212) 579-3076,504
1101,URBAN RUSTIC LLC,LODGE,Unenclosed Sidewalk Cafe,1189835,"318 GRAND STREET, BROOKLYN, NY 11211",318,GRAND STREET,BROOKLYN,NY,11211,Brooklyn,,(718) 486-9400,242
1102,"V & T RESTAURANT, INC",,Unenclosed Sidewalk Cafe,1028336,"1024 AMSTERDAM AVENUE, NEW YORK, NY 10025",1024,AMSTERDAM AVENUE,NEW YORK,NY,10025,Manhattan,,(212) 663-1708,365
1103,V EATERY LLC,VEATERY,Unenclosed Sidewalk Cafe,1417881,"1700 2ND AVE, NEW YORK, NY 10128",1700,   2ND AVE,NEW YORK,NY,10128,Manhattan,,(646) 641-2514,204
1104,"VAI UWS, LLC",,Unenclosed Sidewalk Cafe,1421365,"429 AMSTERDAM AVE, NEW YORK, NY 10024",429,AMSTERDAM AVE,NEW YORK,NY,10024,Manhattan,,(347) 393-5409,236
1105,VALDOME INC,I TRULLI RESTAURANT,Unenclosed Sidewalk Cafe,1318462,"122 EAST   27 STREET, NEW YORK, NY 10016",122,EAST   27 STREET,NEW YORK,NY,10016,Manhattan,,(212) 213-8771,203
1106,VANETT INC.,JIMMY RYAN'S,Unenclosed Sidewalk Cafe,1198574,"3005 MIDDLETOWN ROAD, BRONX, NY 10461",3005,MIDDLETOWN ROAD,BRONX,NY,10461,Bronx,,(718) 863-5687,133
1107,VELVET ROPE LOUNGE CORP,,Unenclosed Sidewalk Cafe,1359448,"3212-3214 CONEY ISLAND AVE, BROOKLYN, NY 11235",3212-3214,CONEY ISLAND AVE,BROOKLYN,NY,11235,Brooklyn,,(347) 554-8511,288
1108,"VERB, INC.",VERB CAFE,Unenclosed Sidewalk Cafe,1103409,"218 BEDFORD AVE, BROOKLYN, NY 11211",218,BEDFORD AVE,BROOKLYN,NY,11211,Brooklyn,,(718) 599-0977,168
1109,VERO MIDTOWN LLC,,Unenclosed Sidewalk Cafe,1289202,"1004 2ND AVE, NEW YORK, NY 10022",1004,2ND AVE,NEW YORK,NY,10022,Manhattan,,(212) 533-6700,390
1110,"VESELKA BOWERY, LLC",VESELKA BOWERY,Unenclosed Sidewalk Cafe,1422694,"9 E 1ST ST, NEW YORK, NY 10003",9,E 1ST ST,NEW YORK,NY,10003,Manhattan,,(917) 613-0494,264
1111,VESELKA ENTERPRISES LTD,VESELKA RESTAURANT,Unenclosed Sidewalk Cafe,933853,"144 2 AVENUE, NEW YORK, NY 10003",144,   2 AVENUE,NEW YORK,NY,10003,Manhattan,,(212) 228-9682,386
1112,"VEZZO, INC.",,Unenclosed Sidewalk Cafe,1230929,"178 LEXINGTON AVENUE, NEW YORK, NY 10016",178,LEXINGTON AVENUE,NEW YORK,NY,10016,Manhattan,,(212) 807-7800,342
1113,VFB CORP.,THE STELLAN,Unenclosed Sidewalk Cafe,1436323,"2 W 35TH ST, NEW YORK, NY 10001",2,W 35TH ST,NEW YORK,NY,10001,Manhattan,,(212) 594-9343,220
1114,VIAND RESTAURANT INC,,Enclosed Sidewalk Cafe,976475,"300 E 86TH ST, NEW YORK, NY 10028",300,E 86TH ST,NEW YORK,NY,10028,Manhattan,,(212) 879-9425,148
1115,VICTORY SWEET SHOP LTD,,Unenclosed Sidewalk Cafe,1445109,"21-69 STEINWAY STREET, ASTORIA, NY 11105",21-69,STEINWAY STREET,ASTORIA,NY,11105,Queens,,(718) 274-2087,195
1116,VIDA CAFE INC.,MAMAJUANA CAFE,Unenclosed Sidewalk Cafe,1208262,"247 DYCKMAN ST, NEW YORK, NY 10034",247,DYCKMAN ST,NEW YORK,NY,10034,Manhattan,,(917) 295-3360,822
1117,VIDA MEXICANA INC.,PAPASITO MEXICAN GRILL,Unenclosed Sidewalk Cafe,1347915,"223 DYCKMAN ST, NEW YORK, NY 10034",223,DYCKMAN ST,NEW YORK,NY,10034,Manhattan,,(631) 327-2500,438
1118,VILLAGE CANTINA CORP,,Unenclosed Sidewalk Cafe,1313487,"170 BLEECKER STREET, NEW YORK, NY 10012",170,BLEECKER STREET,NEW YORK,NY,10012,Manhattan,,(212) 253-8226,39
1119,VINO FIVE GROUP LLC,VINO 313,Unenclosed Sidewalk Cafe,1339224,"201 EAST   31 STREET, NEW YORK, NY 10016",201,EAST   31 STREET,NEW YORK,NY,10016,Manhattan,,(212) 728-8466,253
1120,VINO POSTO CORP,LA CAVA,Unenclosed Sidewalk Cafe,1384218,"939 2 AVENUE, NEW YORK, NY 10022",939,   2 AVENUE,NEW YORK,NY,10022,Manhattan,,(212) 223-1206,92
1121,WASABI LOBBY JAPANESE RESTAURANT INC.,,Unenclosed Sidewalk Cafe,1204660,"1584 2 AVENUE, NEW YORK, NY 10028",1584,   2 AVENUE,NEW YORK,NY,10028,Manhattan,AKA 301 EAST 82ND STREET,(212) 988-8882,147
1122,WATAWA INC,WATAWA JAPANESE REST,Unenclosed Sidewalk Cafe,1318210,"33-10 DITMARS BLVD, ASTORIA, NY 11105",33-10,DITMARS BLVD,ASTORIA,NY,11105,Queens,,(718) 545-9596,252
1123,WEST 62 OPERATING LLC,ROSA MEXICANO AT LINCOLN CENTER,Unenclosed Sidewalk Cafe,1190070,"61 COLUMBUS AVENUE, NEW YORK, NY 10023",61,COLUMBUS AVENUE,NEW YORK,NY,10023,Manhattan,,(212) 397-0666,330
1124,"WEST BROADWAY MANAGEMENT, LLC.",LANDMARC,Unenclosed Sidewalk Cafe,1223457,"179 W BROADWAY, NEW YORK, NY 10013",179,W BROADWAY,NEW YORK,NY,10013,Manhattan,,(212) 343-3883,139
1125,"WEST SIDE STEAKHOUSE, LLC",WEST SIDE STEAKHOUSE,Unenclosed Sidewalk Cafe,1428086,"597 10TH AVE, NEW YORK, NY 10036",597, 10TH AVE,NEW YORK,NY,10036,Manhattan,,(212) 564-4803,157
1126,WESTVILLE RESTAURANT INC,WESTVILLE,Unenclosed Sidewalk Cafe,1350510,"173 AVE A, NEW YORK, NY 10009",173,AVE A,NEW YORK,NY,10009,Manhattan,,(212) 677-2033,80
1127,WKNAPP LTD,TABLE D'MOTE,Unenclosed Sidewalk Cafe,1430367,"44 E 92ND ST, NEW YORK, NY 10128",44,E 92ND ST,NEW YORK,NY,10128,Manhattan,,(212) 348-8125,47
1128,"WOGIE'S, INC.",WOGIES,Unenclosed Sidewalk Cafe,1160623,"39 GREENWICH AVENUE, NEW YORK, NY 10014",39,GREENWICH AVENUE,NEW YORK,NY,10014,Manhattan,,(212) 229-2171,357
1129,WORKHORSE RESTAURANT INC.,REGIONAL,Unenclosed Sidewalk Cafe,1345744,"2607 BROADWAY, NEW YORK, NY 10025",2607,BROADWAY,NEW YORK,NY,10025,Manhattan,,(212) 666-1915,157
1130,"WOW BRIGDE CAFE, LLC",,Unenclosed Sidewalk Cafe,1277457,"168 BORINQUEN PL, BROOKLYN, NY 11211",168,BORINQUEN PL,BROOKLYN,NY,11211,Brooklyn,,(718) 344-1147,176
1131,"WUCOM, INC",SUSHID,Unenclosed Sidewalk Cafe,1221200,"207 DEKALB AVE, BROOKLYN, NY 11205",207,DEKALB AVE,BROOKLYN,NY,11205,Brooklyn,,(718) 858-0058,280
1132,Y.N.L.C. CAFE CORP.,AVENUE CAFE,Unenclosed Sidewalk Cafe,1133602,"3527 30TH AVE, ASTORIA, NY 11103",3527,30TH AVE,ASTORIA,NY,11103,Queens,,(718) 278-6967,862
1133,"YALLOS REST, INC",,Unenclosed Sidewalk Cafe,1347538,"776 9 AVENUE, NEW YORK, NY 10019",776,   9 AVENUE,NEW YORK,NY,10019,Manhattan,,(212) 246-9873,96
1134,YIANNI'S CAFE INC,LITE BITES & GRILL,Enclosed Sidewalk Cafe,1120325,"31-91 STEINWAY STREET, ASTORIA, NY 11103",31-91,STEINWAY STREET,ASTORIA,NY,11103,Queens,,(718) 728-1133,210
1135,YUCA BAR & RESTAURANT INC.,YUCA BAR & RESTAURANT,Unenclosed Sidewalk Cafe,1168148,"111 AVENUE A, NEW YORK, NY 10009",111,AVENUE A,NEW YORK,NY,10009,Manhattan,,(212) 982-9533,200
1136,YUNHUA ON COLUMBUS INC.,,Unenclosed Sidewalk Cafe,1216111,"193 COLUMBUS AVE, NEW YORK, NY 10023",193,COLUMBUS AVE,NEW YORK,NY,10023,Manhattan,,(212) 496-8778,188
1137,ZESTFUL MANAGEMENT CORP.,BAR SIX,Unenclosed Sidewalk Cafe,919619,"502 AVE OF THE AMERICAS, NEW YORK, NY 10011",502,AVE OF THE AMERICAS,NEW YORK,NY,10011,Manhattan,6TH AVE,(212) 691-1363,89
1138,ZONOR REST CORP,RIVIERA CAFE,Enclosed Sidewalk Cafe,629616,"225 WEST    4 STREET, NEW YORK, NY 10014",225,WEST    4 STREET,NEW YORK,NY,10014,Manhattan,,(212) 929-3250,366
1139,ZONOR REST CORP.,RIVIERA CAFE,Unenclosed Sidewalk Cafe,922650,"225 W 4TH ST, NEW YORK, NY 10014",225,W 4TH ST,NEW YORK,NY,10014,Manhattan,,(212) 929-3250,718
1140,"ZORROR ASIAN, INC.",TENDA ASIAN BISTRO,Unenclosed Sidewalk Cafe,1309948,"118 MONTAGUE STREET, BROOKLYN, NY 11201",118,MONTAGUE STREET,BROOKLYN,NY,11201,Brooklyn,,(718) 855-8688,122
1141,ZOSSIMA INC,DOMA NA ROHU,Unenclosed Sidewalk Cafe,1424566,"27 1/2 MORTON ST, NEW YORK, NY 10014",27 1/2,MORTON ST,NEW YORK,NY,10014,Manhattan,,(212) 929-0004,133
1142,ZUCCA TRATTORIA INC.,ZUCCA TRATTORIA,Enclosed Sidewalk Cafe,1326701,"95 7 AVENUE SOUTH, NEW YORK, NY 10014",95,   7 AVENUE SOUTH,NEW YORK,NY,10014,Manhattan,,(212) 255-1980,309
1143,ZUMSCHNEIDER CORP,ZUMSCHNEIDER,Unenclosed Sidewalk Cafe,1102989,"107-109 AVENUE C, NEW YORK, NY 10009",107-109,AVENUE C,NEW YORK,NY,10009,Manhattan,,(212) 598-1098,532
1144,"ZUTTO SQUARED, LLC",ZUTTO,Unenclosed Sidewalk Cafe,1419821,"77 HUDSON ST, NEW YORK, NY 10013",77,HUDSON ST,NEW YORK,NY,10013,Manhattan,,(212) 233-,133
1145,"ZVAH, INC.",LES ENFANTS TERRIBLES,Unenclosed Sidewalk Cafe,1169146,"37 CANAL STREET, NEW YORK, NY 10002",37,CANAL STREET,NEW YORK,NY,10002,Manhattan,,(212) 777-7518,134
