Market,Company Name,Address,City,State,Zip,Telephone
BMM,5600 MARKET CORP.,5600 FIRST AVENUE,BROOKLYN,NY,11220,(718) 491-9324
BMM,"A. STEIN MEAT PRODUCTS, INC.",5600 FIRST AVENUE,BROOKLYN,NY,11220,(718) 492-0760
BMM,AGRI STAR DISTRIBUTION LLC,5600 1ST AVENUE,BROOKLYN,NY,11210,(718) 748-1721
BMM,"ALEX MEAT & PROVISION, INC.",126 12TH STREET,BROOKLYN,NY,11215,(718) 499-7821
BMM,ALEX'S MEAT DISTRIBUTORS CORP,5600 FIRST AVENUE BLDG. A-35,BROOKLYN,NY,11220,(718) 238-7033
BMM,"CHOW TRADING CO., INC.",5600 FIRST AVENUE UNIT B14,BROOKLYN,NY,11220,(718) 238-8766
BMM,"CHOWS BROTHERS WHOLESALE MEAT CO., INC.",5600 FIRST AVENUE A9,BROOKLYN,NY,11220,(718) 836-8159
BMM,CREPINI LLC,5600 FIRST AVENUE,BROOKLYN,NY,11220,(718) 372-0505
BMM,"E & G FOODS, INC.",5600 FIRST AVENUE,BROOKLYN,NY,11220,(718) 680-1300
BMM,FORT MEAT INC.,5600 FIRST AVENUE,BROOKLYN,NY,11220,(718) 439-8375
BMM,HERCULES FOOD CORP.,5600 1ST AVENUE,BROOKLYN,NY,11220,(718) 491-2773
BMM,INTERNATIONAL KOSHER MEAT PROCESSING CORP.,5600 FIRST AVENUE,BROOKLYN,NY,11220,(718) 630-5555
BMM,"KING SOLOMON FOODS, INC.",5600 FIRST AVENUE,BROOKLYN,NY,11220,(718) 439-5410
BMM,L DONTIS PRODUCE CO. INC.,5600 FIRST AVENUE,BROOKLYN,NY,11220,(718) 439-9096
BMM,"LANCASTER QUALITY PORK, INC.",5600 FIRST AVENUE,BROOKLYN,NY,11220,(718) 439-8822
BMM,MJ PACKING CORP,5600 1ST AVE B-8,BROOKLYN,NY,11220,(718) 567-8240
BMM,NISSIM GOURMET KOSHER FOOD CORP.,5600 1ST AVENUE,BROOKLYN,NY,11220,(718) 921-1211
BMM,"ORAZIO & SONS MEATS, INC.",5600 FIRST AVENUE,BROOKLYN,NY,11220,(718) 439-4574
BMM,PIERLESS FISH CORP.,"BROOKLYN NAVY YARD, BUILDING # 7",BROOKLYN,NY,11205,(718) 222-4441
BMM,R&C BEEF & POULTRY INC.,56 MERCURY AVENUE,EAST PATCHOGUE,NY,11772,(631) 665-5522
BMM,RUBY FREEMAN INC.,5600 FIRST AVENUE,BROOKLYN,NY,11220,(718) 492-9676
BMM,WEST WASHINGTON MEATS,5600 FIRST AVENUE,BROOKLYN,NY,11220,(718) 921-9858
BMM,WIEN LEE CORP.,5600 FIRST AVENUE,BROOKLYN,NY,11220,(718) 680-7676
FFM,ALASKAN FEAST INC.,800 FOOD CENTER DRIVE UNIT22,BRONX,NY,10474,(718) 842-2288
FFM,ANDREW ADAMS INC,48 GAINSBOROUGH RD,SCARSDALE,NY,10583,(914) 552-1052
FFM,ARS FISH CO.,800 FOOD CENTER DR UNIT 81,BRONX,NY,10474,(914) 937-4770
FFM,BEYER LIGHTNING FISH CO. INC.,800 FOOD CENTER DRIVE UNIT#117,BRONX,NY,10474,(718) 860-6323
FFM,BLUE RIBBON FISH CO.,800 FOOD CENTER DRIVE UNIT#67,BRONX,NY,10474,(718) 620-8580
FFM,BOULIKE LLC  D/B/A THE MENU SOURCE,17 NORTH HOWELLS POINT ROAD,BELLPORT,NY,11713,(631) 838-0779
FFM,"CALEB HALEY & CO., LLC.",800 FOOD CENTER DRIVE UNIT 100,BRONX,NY,10474,(718) 617-7474
FFM,"CAPTAIN BLUE, LLC.","800 FOOD CENTER DRIVE, UNITS#10,12",BRONX,NY,10474,(718) 617-1110
FFM,CARLS SEAFOOD INC.,800 FOOD CENTER DRIVE,BRONX,NY,10474,(718) 620-8260
FFM,CLEARWATER FISH CO. INC.,800 FOOD CENTER DRIVE UNIT#115,BRONX,NY,10474,(718) 943-7051
FFM,CROWN FISH COMPANY,800 FOOD CENTER DRIVE UNIT#86,BRONX,NY,10474,(718) 943-7056
FFM,DISTINGUISHED SEAFOOD LLC,800 FOOD CENTER DRIVE UNIT 51,BRONX,NY,10474,(718) 419-6111
FFM,EMERALD SEAFOOD CO. INC.,800 FOOD CENTER DRIVE #59,BRONX,NY,10474,(718) 620-8414
FFM,FAIR FISH CO. INC.,800 FOOD CENTER DRIVE UNIT#21/22/23,BRONX,NY,10474,(718) 378-4590
FFM,"FIVE STAR SEAFOOD, INC.",15 GREYSTONE COURT,WARWICK,NY,10990,(888) 330-9996
FFM,FRANK W. WILKISSON INC.,800 FOOD CENTER DRIVE UN.#98,BRONX,NY,100474,(718) 589-5280
FFM,FULTON CAFÃ‰ INC,800 FOOD CENTER DRIVE 97A,BRONX,NY,10474,(718) 589-2233
FFM,G & G SEAFOOD DBA UNIVERSAL,800 FOOD CENTER DRIVE UNIT#36,BRONX,NY,10474,(718) 842-2200
FFM,GNY FILET FISH CO. INC.,800 FOOD CENTER DRIVE UNIT 108,BRONX,NY,10474,(516) 876-0441
FFM,J & K SEAFOOD INC.,"800 FOOD CENTER DRIVE, UNIT 94",BRONX,NY,10474,(917) 359-5990
FFM,JMS SEASONAL SEAFOOD CORP.,800 FOOD CENTER DRIVE UNIT#52,BRONX,NY,10474,(718) 991-0000
FFM,JOE MONANI FISH CO.,800 FOOD CENTER DRIVE UNIT#60,BRONX,NY,10474,(718) 617-7900
FFM,"LOCKWOOD & WINANT SEAFOOD, LLC.",800 FOOD CENTER DRIVE UNITS#99-113,BRONX,NY,10474,(718) 620-8400
FFM,LOU'S FISH MARKET INC.,800 FOOD CENTER DRIVE UNIT#83,BRONX,NY,10474,(718) 328-4313
FFM,M. SLAVIN & SONS LTD.,800 FOOD CENTER DRIVE UNIT#66,BRONX,NY,10474,(718) 732-4800
FFM,"MEAT WITHOUT FEET, LLC.",800 FOOD CENTER DRIVE UNIT 99,BRONX,NY,10465,(718) 893-0066
FFM,MERMAID SEA PRODUCTS INC.,800 FOOD CENTER UNIT # 93,Bronx,NY,10474,(718) 854-7384
FFM,MOE BEHRENS SEAFOOD INC.,800 FOOD CENTER DRIVE UNIT # 93,BRONX,NY,10474,(631) 661-3060
FFM,MONTAUK SEAFOOD CO. INC.,800 FOOD CENTER DRIVE UNIT#81,BRONX,NY,10474,(718) 508-0407
FFM,MONTES SEAFOOD EMPORIUM INC.,800 FOOD CENTER DRIVE UNIT#27,BRONX,NY,10474,(718) 860-1472
FFM,MT. SINAI FISH,800 FOOD CENTER DRIVE UNIT#26 & 28,BRONX,NY,10474,(718) 620-4400
FFM,NEW FULTON FISH MARKET COOPERATIVE AT HUNTS POINT,800 FOOD CENTER DRIVE UNIT 65B,BRONX,NY,10474,(718) 378-2356
FFM,NEW FULTON FISH MARKET COOPERATIVE AT HUNTS POINT,800 FOOD CENTER DRIVE ROOM 65B,BRONX,NY,10474,(718) 378-2356
FFM,PACIFIC GOLD SEAFOOD INC,800 FOOD CENTER DR UNIT 51,BRONX,NY,10454,(646) 334-4777
FFM,"SERRANTONIO & SONS, LLC",301 AMBER STREET,STATEN ISLAND,NY,10306,(718) 351-7380
FFM,SLIP KIDS LOADING INC.,78 MASSACHUSETTS STREET,STATEN ISLAND,NY,10307,(718) 948-4914
FFM,"SOHO SEAFOOD, INC.",800 FOOD CENTER DRIVE UNIT 2,BRONX,NY,10474,(718) 989-3918
FFM,SOUTH STREET SEAFOOD CORP.,800 FOOD CENTER DRIVE UNIT#51,BRONX,NY,10474,(718) 328-2728
FFM,THIRD GENERATION SEAFOOD INC.,"800 FOOD CENTER DRIVE UNIT#30, 32",BRONX,NY,10474,(718) 991-6660
FFM,TONY CRAB KING INC.,"800 FOOD CENTER DRIVE UNIT#93,95",BRONX,NY,10474,(718) 860-4320
FFM,"WORLD WIDE DIRECT SEAFOOD, LLC.",800 FOOD CENTER DRIVE UNITS 13/15,BRONX,NY,10474,(914) 403-4907
GMM,7M FOOD CORP.,93 GANSEVOORT STREET,NEW YORK,NY,10014,(212) 229-2733
GMM,J. T. JOBBAGY INC.,832 WASHINGTON STREET,NEW YORK,NY,10014,(212) 633-0130
GMM,JOHN W. WILLIAMS INC.,48 LITTLE WEST 12TH STREET,NEW YORK,NY,10014,(212) 242-1293
GMM,LONDON MANHATTAN CORP.,56 LITTLE WEST 12TH STREET,NEW YORK,NY,10014,(212) 255-2135
GMM,LOUIS ZUCKER CO. INC.,830 WASHINGTON AVENUE,New York,NY,10014,(212) 242-4474
GMM,RELIABLE WHOLESALE MEAT INC,826 WASHINGTON STREET,NEW YORK,NY,10014,(212) 242-3408
GMM,"WEICHSEL BEEF CO., INC.",525 WEST STREET,NEW YORK,NY,10014,(212) 675-8270
HPA,"A 1 FOOD DISTRIBUTOR, LLC",1195 SPOFFORD AVE,BRONX,NY,10474,(718) 617-4867
HPA,ABARROTES MEXICANO WHOLESALE INC,1170 RANDALL AVE,BRONX,NY,10474,(718) 861-3089
HPA,AGRITILITY U.S. LTD.,426 BARRETO STREET,BRONX,NY,10474,(718) 328-3888
HPA,AGROSUN,700 WHITTIER STREET,BRONX,NY,10474,(718) 991-8895
HPA,ARAMEX GLOBAL TRADING INC,534 DRAKE STREET,BRONX,NY,10474,(718) 618-7300
HPA,ASSOCIATED PRODUCE ROUTE LLC,350 CASANOVA STREET,BRONX,NY,10474,(347) 862-5374
HPA,"BEL CANTO FOODS, LLC.",240 FOOD CENTER DRIVE,BRONX,NY,10474,(718) 497-3888
HPA,BEST POINT TROPICALS CORP,727 DRAKE STREET,BRONX,NY,10474,(347) 590-0699
HPA,BLUE STAR MEAT CORP / LUCKY MEAT,530 CRAVEN STREET,BRONX,NY,10474,(718) 861-2900
HPA,C H K CORP,1290 OAKPOINT AVE,BRONX,NY,10474,(718) 378-2222
HPA,"C. KENNETH IMPORTS, INC",250 COSTER STREET,BRONX,NY,10474,(718) 378-8400
HPA,CARAVEO PAPAYAS INC,1257 RANDELL AVE  2ND FLOOR,BRONX,NY,10474,(718) 617-2213
HPA,CARIBBEAN PRODUCE INC,1360 LAFAYETTE AVE,BRONX,NY,10474,(718) 292-8497
HPA,"CARIVE IMPORTS, INC",1251 RANDALL AVE,BRONX,NY,10474,(718) 328-9600
HPA,DAIRYLAND USA CORPORATION,1300 VIELE AVENUE,BRONX,NY,10474,(718) 842-8700
HPA,DELICES N.Y. CORP.,1312 A RANDALL AVE,BRONX,NY,10474,(347) 577-6677
HPA,FAJARO PRODUCE CORP,1350 LAFAYETTE AVE,BRONX,NY,10474,(718) 378-0874
HPA,FIVE STAR ICE CREAM CORP / OMANJA,547 MANIDA STREET,BRONX,NY,10474,(718) 542-0900
HPA,"FLAMINGO SMOKED MEATS, INC.",542 CRAVEN STREET,BRONX,NY,10474,(718) 589-5145
HPA,FLM RADICCHOP KING INC,1301 OAK POINT AVE,BRONX,NY,10474,(718) 620-2177
HPA,G. FRESH CORP,1240 OAKPOINT AVE,BRONX,NY,10474,(718) 589-4989
HPA,"GOURMET GURU, INC",1123 WORTHEN STREET,BRONX,NY,10474,(718) 842-2828
HPA,GURUM CORP,1365 LAFAYETTE AVE,BRONX,NY,10474,(718) 861-5500
HPA,HST PRODUCE INC.,1312 RANDELL AVENUE,BRONX,NY,10474,(713) 892-9001
HPA,HUNTS POINT FLOWER MARKET,1152 RANDALL AVE,BRONX,NY,10474,(718) 328-3263
HPA,INVERSIONISTAS UNIDOS CORP.,95-20 63RD STE H,REGO PARK,NY,11374,(718) 592-1076
HPA,J & J NY DISTRIBUTORS CORP.,1343 LAFAYETTE AVE,BRONX,NY,10474,(718) 589-0517
HPA,JENRAM BAKERY D/B/A IL FORNO BAKERY,521 FAILE STREET,BRONX,NY,10474,(718) 861-1042
HPA,"JOHN  GEORGALLAS BANANA DISTRIBUTORS OF NY, INC",750 DRAKE STREET,BRONX,NY,10474,(718) 893-4111
HPA,"JUST BAGELS MFG., INC",527 CASANOVA STREET,BRONX,NY,10474,(718) 328-9700
HPA,K & T WHOLESALE FLORIST INC,509 MANIDA STREET,BRONX,NY,10474,(718) 823-3360
HPA,"KLEEN GREEN OPERATING, LLC",1261A RANDALL AVE,BROOKLYN,NY,10474,(718) 684-2283
HPA,LA SQUISITA FOOD CORP,819 GARRISON AVE,BRONX,NY,10474,(914) 667-8795
HPA,LITTLE MEXICO WHOLESALE INC.,1240 RANDALL AVENUE,BRONX,NY,10474,(718) 618-7399
HPA,LOBOY FOODS,341 COSTER STREET,BRONX,NY,10474,(718) 617-6611
HPA,LUCERO PRODUCE II CORP.,1250 RANDELL AVENUE,BRONX,NY,10474,(718) 590-9683
HPA,MIRON PRODUCE INC,129 SOUTH 8TH STREET,BROOKLYN,NY,11211,(718) 534-4340
HPA,MORNING FRESH POTATO AND ONION,1312 RANDELL AVE,BRONX,NY,10474,(718) 893-6800
HPA,"NEW ERA PRODUCE, INC",1261 A RANDELL AVE,BRONX,NY,10474,(718) 328-3288
HPA,"NEW YORK PRODUCE, INC",125 SEAVIEW DRIVE,SECAUCUS,NJ,7094,(201) 223-0909
HPA,NICHLOSI BROTHERS LLC,,SWEDESBORO,NJ,8085,(856) 467-3494
HPA,NYC TRUCKING CORP.,547 MANIDA STREET,BRONX,NY,10474,(718) 450-8438
HPA,OMEGA INTERNATIONAL FOODS,1234 RANDELL AVE,BRONX,NY,10474,(718) 842-8600
HPA,P. EAST TRADING CORP,327 FONGFELLOW AVE,BRONX,NY,10474,(718) 991-6070
HPA,"PRIMIZIE FINE FOODS, LLC",330 CASANOVA AVE,BRONX,NY,10474,(347) 702-9764
HPA,REYES PRODUCE CORP.,1280 RANDALL AVE,BRONX,NY,10474,(718) 328-3500
HPA,RIDGE PRODUCE INC,531 TIFFANY STREET,BRONX,NY,10474,(718) 861-7555
HPA,"SNOW FRESH FOODS, INC.",1245 RANDALL AVENUE,BRONX,NY,10474,(718) 378-6300
HPA,SUPER PRODUCE INC,510 FAILE STREET,BRONX,NY,10474,(718) 328-2640
HPA,"YAHAIRA PRODUCE, CORP.",490 HUNTS POINT AVE,BRONX,NY,10474,(347) 270-5714
HPM,"ANGUS AMERICA, INC",40 W 116TH STREET A1102,NEW YORK,NY,10026,(718) 644-5387
HPM,"BERLIN & DENMAR DISTRIBUTORS, INC.",E-1 HUNTS POINT TERMINAL MARKET,BRONX,NY,10474,(718) 328-1040
HPM,C & C MEATS CORPORATION,355 FOOD CTR. DR. H.P MKT BLDG. F4,BRONX,NY,10474,(718) 328-9550
HPM,DESOLA PROVISIONS CORP.,B-18 HUNTS POINT MARKET,BRONX,NY,10474,(718) 542-9500
HPM,"ENDICOTT MEATS, INC.",355 FOOD CENTER DR.B-23 HTS PT MRKT,BRONX,NY,10474,(718) 893-7318
HPM,"FANCY FOODS, INC.",B-12 HUNTS POINT COOPERATIVE MARKET,BRONX,NY,10474,(718) 617-3000
HPM,FOOD BANK FOR NEW YORK CITY INC.,355 FOOD CTR DR. H.P.C. MARKET,BRONX,NY,10474,(718) 991-4300
HPM,"FOODIRECT, INC.",355 FOOD CENTER DRIVE #C-6,BRONX,NY,10474,(718) 589-2300
HPM,"GARDEN MANOR FARMS, INC.",355 FOOD CENTER DR UNIT F11 F12 E12,BRONX,NY,10474,(718) 893-5350
HPM,"GIRANDOLA & SHUTKIND CONST., CORP.","355 FOOD CENTER DRIVE, F -101",BRONX,NY,10474,(718) 842-4471
HPM,HUNTS POINT COOPERATIVE MARKET INC.,355 FOOD CENTER DRIVE C-101,BRONX,NY,10474,(718) 842-7466
HPM,KALIVIA FOOD CORP.,355 FOOD CENTER DRIVE,BRONX,NY,10474,(718) 542-2900
HPM,KIM'S PROVISION INC./DBA US MEATS INC.,355 FOOD CENTER DR. UNIT G-2,BRONX,NY,10474,(718) 378-5900
HPM,"LOUIS SPAGNOLI, INC.","355 FOOD CENTER DRIVE, B-22",BRONX,NY,10474,(718) 991-3099
HPM,"MARKET MEATS, INC.",A-6 HUNTS POINT MEAT CO-OP MARKET,BRONX,NY,10474,(718) 991-5800
HPM,MASTER PURVEYORS INC,355 FOOD CENTER DRIVE,BRONX,NY,10474,(718) 542-1000
HPM,"MEAT INOVATIONS, INC.",355 FOOD CENTER DRIVE,BRONX,NY,10474,(718) 764-6647
HPM,"MOORE'S WHOLESALE MEATS, INC.",355 FOOD CENTER DRIVE  B-20,BRONX,NY,10474,(718) 328-3255
HPM,MOUNTAIN STATES/ROSEN LLC,355 FOOD CENTER DR. C-16 HUNTS  PT,BRONX,NY,10474,(800) 872-5262
HPM,"MTV FOODS, INC./ DBA AUSTIN MEAT CO",355 FOOD CENTER DRIVE,BRONX,NY,10474,(718) 842-6767
HPM,"MURRAY BERKOWITZ & SONS, INC.",E-10 HUNTS POINT CO-OP MARKET,BRONX,NY,10474,(718) 328-2000
HPM,"NATION'S BEST MEAT WHOLESALERS, INC.","HUNTS POINT COOP MARKET, #D-7",BRONX,NY,10474,(201) 842-7400
HPM,"NEBRASKALAND, INC.",HUNTS POINT CO-OP MARKET BLDG.#G,BRONX,NY,10474,(718) 842-0700
HPM,"NEW YORK MEAT, INC.",A-19 HUNTS POINT CO-OP MARKET,BRONX,NY,10474,(718) 542-4600
HPM,"NGF, INC.",40 W. 116TH STREET A1102,NEW YORK,NY,10026,(718) 644-5387
HPM,"PLAUT & STERN, INC.","355 FOOD CENTER DRIVE UNIT D9,10/11",BRONX,NY,10474,(718) 589-7000
HPM,"PLYMOUTH BEEF CO.,INC.",355  FOOD CENTER DRIVE HTS. PT. COP,BRONX,NY,10474,(718) 589-8600
HPM,"PORK KING SAUSAGE, INC.",F-22 HUNTS POINT CO-OP MARKET,BRONX,NY,10474,(718) 542-2810
HPM,R & W PROVISIONS CO. INC.,"355 FOOD CENTER DRIVE, UNIT E-7",BRONX,NY,10474,(212) 924-0988
HPM,SCHUSTER MEAT CORP.,D-22 HUNTS POINT CO-OP MARKET,BRONX,NY,10474,(718) 589-1818
HPM,SUPREME KOSHER MEAT,"HUNTS POINT CO-OP MARKET, D-12",BRONX,NY,10474,(718) 860-5300
HPM,"TONY'S FISH & SEAFOOD, CORP.",A-1 HUNTS POINT CO-OP MARKET,BRONX,NY,10474,(718) 328-5200
HPM,VISTA FOOD EXCHANGE INC.,B-101 HUNTS POINT CO-OP MARKET,BRONX,NY,10474,(718) 542-4401
HPM,"WALLACE & COOK FOOD SALES, INC.",355 FOOD CENTER DRIVE BLDG E-20,BRONX,NY,10474,(718) 617-7600
HPM,"WEST- CONN. MEAT CO., INC.",F-16 HUNTS POINT CO-OP MARKET,BRONX,NY,10474,(718) 617-6600
HPM,WESTERN WHOLESALE MEATS INC.,F-1 HUNTS POINT MKT,BRONX,NY,10474,(718) 589-8900
HPM,"WESTSIDE FOODS, INC.","355 FOOD CTR DR, E BLDG H.P.C. MKT",BRONX,NY,10474,(718) 842-8500
HPM,"WORLD-WIDE FISH PRODUCTS, INC.",F-5 HUNTS POINT COOPERATIVE MARKET,BRONX,NY,10474,(718) 328-7222
HPP,A & J PRODUCE,"114-6,138-44 ROW A HUNTS PT TERM MT",BRONX,NY,10474,(718) 589-7877
HPP,A J TRUCCO INC.,343-344 HUNTS PT TERMINAL MKT,BRONX,NY,10474,(718) 893-3060
HPP,AFL HOT HOUSE PRODUCE CORP.,110 A HUNTS POINT MARKET,BRONX,NY,10474,(718) 542-3777
HPP,ALBEE TOMATO COMPANY INC,118-120 ROW A HUNTS POINT MARKET,BRONX,NY,10474,(718) 542-6054
HPP,"BEST TROPICAL ISLAND, INC.",237 ROW B NYC TERMINAL MARKET,BRONX,NY,10474,(718) 861-3131
HPP,BOGOPA ENTERPISES INC.,650 FOUNTAIN AVE.,BKLYN,NY,11208,(718) 346-6500
HPP,C AND J BROTHERS,238-241 HUNTS POINT TERMINAL MKT,BRONX,NY,10474,(718) 991-5050
HPP,CANYON SALES COMPANY,346 - B NYC TERMINAL MARKET,BRONX,NY,10474,(718) 589-0790
HPP,CM PRODUCE LLC.,NYC TERM. MKT. HT PT. UNITS 123-125,BRONX,NY,10474-7303,(718) 330-1188
HPP,COOSEMANS NEW YORK INC.,249-B NEW YORK CITY TERMINAL MARKET,BRONX,NY,10474,(718) 328-3060
HPP,"COUNTRY WIDE PRODUCE, INC.",266 NEW YORK CITY TERMINAL MARKET,BRONX,NY,10474,(201) 599-0057
HPP,"D.M. ROTHMAN CO., INC.",106-09 HUNTS POINT TERMINAL MARKET,BRONX,NY,10474,(718) 991-4920
HPP,"D'ARRIGO BROS. CO. OF NY, INC.",315 HUNTS POINT TERMINAL MARKET,BRONX,NY,10474,(718) 991-5900
HPP,"E. ARMATA, INC.",A111-117 HUNTS  PT  TERMINAL MARKET,BRONX,NY,10474,(718) 991-5600
HPP,EA COMPANY,1600 SEDGWICK AVENUE 6M,BRONX,NY,10453,(718) 583-6477
HPP,EDWARD PRODUCE CORP.,219A ROW B HUNTS POINT TERM. MKT,BRONX,NY,10474,(718) 450-8935
HPP,"ERIC'S PRODUCE, INC.","342 ROW C, HUNTS POINT CO-OP MARKET",BRONX,NY,10474,(718) 991-6109
HPP,"F & S PRODUCE, INC.",650 FOUNTAIN AVENUE,BROOKLYN,NY,11208,(718) 346-6500
HPP,"FIERMAN PRODUCE EXCHANGE, INC.",247-257 NYC TERMINAL MARKET,BRONX,NY,10474,(718) 843-1640
HPP,FITZ & PAL FOOD CENTER LLC/D/B/A FOOD BARN,414-416 ROW D HUNTS POINT TERM. MKT,BRONX,NY,10474,(718) 617-3800
HPP,"FRES CO, LLC",42-04 BERRIAN BLVD,ASTORIA,NY,11105,(718) 728-0870
HPP,FRUITCO CORP.,201 HUNTS POINT TERMINAL MARKET,BRONX,NY,10474,(718) 893-4500
HPP,"GOLD MEDAL PRODUCE, INC.",163-168 NYC TERMINAL MARKET,BRONX,NY,10474,(718) 893-5554
HPP,GRAMERCY PRODUCE INC.,421B NYC TERMINAL MARKET,BRONX,NY,10474,(718) 861-1500
HPP,HEATING OIL PARTNERS,1120 POST ROAD,DARIEN,CT,6820,(203) 655-8290
HPP,"HENRY HAAS, INC.",464 HUNTS POINT TERMINAL MARKET,BRONX,NY,10474,(718) 378-6700
HPP,"HPTM PRODUCE COOP ASSO., INC.",2A HUNTS POINT TERMINAL MARKET,BRONX,NY,10474,(718) 542-2944
HPP,HUNTS POINT MARKET FOOD INC,N Y C TERMINAL MARKET STORE # 300C,BRONX,NY,10474,
HPP,INTERCONTINENTAL TRUCK BROKERAGE CORP.,464 HUNTS POINT TERMINAL MARKET,BRONX,NY,10474,(718) 378-2550
HPP,ISSAM KANAWI CORP.,331C NYC TERMINAL MARKET,BRONX,NY,10474,(718) 542-2217
HPP,"J & J BROS. TRUCKING,LLC","103 ROW A, NYC TERMINAL MARKET",BRONX,NY,10474,(718) 378-5800
HPP,"J. MARGIOTTA COMPANY, LLC",101-105 ROW A NYC TERMINAL MARKET,BRONX,NY,10474,(718) 378-5800
HPP,"J. RENELLA PRODUCE, INC.",351 HUNTS POINT TERMINAL MARKET,BRONX,NY,10474,(718) 991-4210
HPP,JETS PRODUCE CORP,170 WARNER AVENUE,ROSLYN HEIGHTS,NY,11577,
HPP,"JUNIORS PRODUCE, INC.",D 438-39 HUNTS POINT TERMINAL MKT,BRONX,NY,10474,(718) 991-7300
HPP,KATO FOOD CORPORATION,ROW C 309 NYC TERMINAL MARKET,BRONX,NY,10474,(718) 328-6633
HPP,KATZMAN  BERRY CORP.,153 HUNTS POINT TERMINAL MARKET,BRONX,NY,10474,(718) 589-1400
HPP,KOREAN FARMS CORP.,352-353 HUNTS POINT TERMINAL MARKET,BRONX,NY,10474,(718) 842-3300
HPP,KRISP PAK SALES CORP.,347 ROW C HUNTS POINT TERMINAL MKT,BRONX,NY,10474,(718) 991-4800
HPP,LANCE KRAVIS,19 GLENMERE LANE,COMMACK,NY,11725,(631) 543-7829
HPP,"LBD PRODUCE, INC.","NYC TERMINAL MARKET, B232",BRONX,NY,10474,(718) 991-2100
HPP,LD LOGISTICS LLC,"128A ROW A, NYC TERMINAL MARKET",BRONX,NY,10474,(646) 402-0272
HPP,"LEE LOI, INC.",234 ROW B HUNTS POINT TERMINAL MKT,BRONX,NY,10474,(718) 542-4115
HPP,LEE'S HUNTS POINT ORIENTAL MARKET,BRONX TERMINAL MARKET #9C,BRONX,NY,10474,(718) 378-1185
HPP,"LGS SPECIALTY SALES, LTD.",302 HUNTS POINT TERMINAL MARKET,BRONX,NY,10474,(718) 542-2200
HPP,"M & R TOMATO DISTRIBUTORS, INC.",151 HUNTS POINT TERMINAL MARKET,BRONX,NY,10474,(718) 589-8500
HPP,"M & R TRADING CO., INC.",309 ROW C HUNTS POINT TERMINAL MKT,BRONX,NY,10474,(718) 589-8500
HPP,MABIJO PACKING CORP.,250 ROW B NYC.TERMINAL MARKET,BRONX,NY,10474,(718) 893-1640
HPP,MENDEZ INTERNATIONAL TROPICAL FOODS,161 ROW A HUNTS POINT TERMINAL MKT,BRONX,NY,10474,(718) 893-0100
HPP,MIL - ART TRUCKING CORP.,201 N.Y.C. TERMINAL MARKET,BRONX,NY,10474,(718) 893-4500
HPP,"MORRIS OKUN, INC.",205-220 HUNTS POINT TERMINAL MARKET,BRONX,NY,10474,(718) 589-7700
HPP,"NATHEL & NATHEL, INC.","357,347 - 350  ROW C HPTM",BRONX,NY,10474,(718) 991-6050
HPP,"NY PRODUCE TRADE ASSOCIATION, INC.",37A HUNTS POINT TERMINAL MARKET,BRONX,NY,10474,(718) 328-9100
HPP,PAN-HELLENIC FOOD OF NY CORP.,440-444 HUNTS POINT TERMINAL MARKET,BRONX,NY,10474,(718) 328-8701
HPP,"PAUL STEINBERG ASSOCIATES, INC.",206A NYC TERMINAL MARKET,BRONX,NY,10474,(718) 542-5000
HPP,"PIG-TAINER SERVICES, INC.", 8 HACKENSACK AVENUE,KEARNY,NJ,7032,(973) 344-1188
HPP,PORRICELLI INC.,342 ROW C HUNTS POINT TERMINAL MKT,BRONX,NY,10474,(718) 893-6000
HPP,R & I PRODUCE CORPORATION,205 A NYC TERMINAL MKT,BRONX,NY,10474,(718) 542-2424
HPP,RIGHT CHOICE PAPER INC,C366 NYC TERMINAL MARKET,BRONX,NY,10474,(718) 328-0011
HPP,ROBERT T. COCHRAN & CO.,408-412 HUNTS POINT TERMINAL MARKET,BRONX,NY,10474,(718) 991-2340
HPP,RUBIN BROS. PRODUCE CORP.,147-148 NYC TERMINAL MARKET,BRONX,NY,10474,(718) 589-3200
HPP,"S.KATZMAN PRODUCE, INC.",154-57 HUNTS POINT TERMINAL MARKET,BRONX,NY,10474,(718) 991-4700
HPP,SALANAR TRUCKING CORP.,421B NYC TERMINAL MKT,BRONX,NY,10474,(718) 861-1500
HPP,SHARKEY'S TRUCKING CORP,153-157 NYC TERM MKT,BRONX,NY,10474,(718) 598-1400
HPP,"SQUARE PRODUCE CO., INC.",258-59 HUNTS POINT TERMINAL MARKET,BRONX,NY,10474,(718) 893-0200
HPP,"TED GEORGALLAS TOMATO & PRODUCE, INC.",447 ROW D HUNTS POINT TERMINAL MKT,BRONX,NY,10474,(718) 842-6317
HPP,THE ALPHAS COMPANY OF NEW YORK,223-225 HUNTS POINT TERMINAL MARKET,BRONX,NY,10474,(617) 884-5921
HPP,"TOP BANANA, LLC.",413-16 HUNTS POINT TERMINAL MARKET,BRONX,NY,10474,(718) 328-6700
HPP,"TOP KATZ BROKERS, LLC",424 ROW D NYC TERMINAL MARKET,BRONX,NY,10474,(718) 861-1933
HPP,UNITED STATES PRODUCE BROKERS INC,168-A NYC TERMINAL MKT,BRONX,NY,10474,(718) 542-6370
HPP,"VEG-PAK DISTRIBUTION CO, INC.",147 NYC TERMINAL MARKET,BRONX,NY,10474,(718) 589-3200
HPP,YOLA FRUIT & PRODUCE DIST. INC.,UNIT 371 HUNTS POINT TERMINAL MKT,BRONX,NY,10474,(516) 292-8821
HPP,YOO DELIVERY SERVICE INC,230 2ND FL NYC TERMINAL MARKET,BRONX,NY,10474,(718) 893-9720
